{"type":"FeatureCollection","features":[{"type":"Feature","properties":{"id":"amsterdam::jordaan","name":"Jordaan","cityId":"amsterdam","city":"Amsterdam","country":"Netherlands","parentName":null,"displayName":"Jordaan, Centrum, Amsterdam, Noord-Holland, Nederland","source":{"provider":"Nominatim / OpenStreetMap","datasetUrl":"https://nominatim.openstreetmap.org/search","query":"Jordaan, Amsterdam, Netherlands"}},"geometry":{"type":"Polygon","coordinates":[[[4.8743999,52.3720884],[4.8745179,52.3718395],[4.8750329,52.370608],[4.8754513,52.369966],[4.875859,52.369442],[4.8766675,52.3686812],[4.8768048,52.3685023],[4.8771894,52.3679549],[4.8773396,52.3673785],[4.8773825,52.3670575],[4.8774791,52.366802],[4.877516,52.3667711],[4.8779404,52.3664155],[4.8786056,52.3660224],[4.8789918,52.3656621],[4.879185,52.3653149],[4.8792601,52.364948],[4.8792559,52.3649336],[4.8792916,52.3649447],[4.8817465,52.3657915],[4.8828006,52.3661731],[4.8825431,52.3665923],[4.8824143,52.3667037],[4.8831332,52.3747166],[4.8831493,52.3747526],[4.8884386,52.3805243],[4.8830601,52.3835192],[4.8829598,52.3836489],[4.882932,52.3837005],[4.8826028,52.3838933],[4.882529,52.3839236],[4.8816623,52.3841779],[4.8806977,52.3825807],[4.8804831,52.3824039],[4.8803437,52.382322],[4.8802417,52.3822467],[4.8801023,52.3821943],[4.8799199,52.3821059],[4.8797804,52.3820535],[4.8796678,52.3819618],[4.8796397,52.3819147],[4.8795819,52.3818177],[4.8795873,52.3816442],[4.8796838,52.3815198],[4.8798341,52.3813462],[4.8798394,52.3812022],[4.8780987,52.3784057],[4.8782971,52.37835],[4.878096,52.3780373],[4.8780718,52.3780438],[4.8779029,52.3777851],[4.8780021,52.3777589],[4.8759878,52.3745316],[4.8758376,52.3741779],[4.8755586,52.3742303],[4.8754513,52.3735949],[4.8754815,52.3734306],[4.8754841,52.3734081],[4.8754709,52.3733665],[4.8754398,52.3732569],[4.8753762,52.3731626],[4.8752797,52.3729988],[4.8749149,52.3727892],[4.8747432,52.3726648],[4.8745072,52.3723504],[4.8743999,52.3720884]]]},"id":"amsterdam::jordaan"},{"type":"Feature","properties":{"id":"amsterdam::de-pijp","name":"De Pijp","cityId":"amsterdam","city":"Amsterdam","country":"Netherlands","parentName":null,"displayName":"De Pijp, Zuid, Amsterdam, Noord-Holland, Nederland","source":{"provider":"Nominatim / OpenStreetMap","datasetUrl":"https://nominatim.openstreetmap.org/search","query":"De Pijp, Amsterdam, Netherlands","mergeMethod":"topological-union-largest-part"}},"geometry":{"type":"Polygon","coordinates":[[[4.886817,52.3523918],[4.8872408,52.3523525],[4.8939892,52.353243],[4.8940514,52.353254],[4.8943,52.3533038],[4.8943585,52.3533145],[4.8946383,52.3533686],[4.8955441,52.3535471],[4.8955593,52.3535539],[4.8955849,52.353572],[4.895601,52.3535799],[4.8956125,52.3535826],[4.8990725,52.3542691],[4.8992763,52.3543112],[4.8994747,52.3543551],[4.8995634,52.3543779],[4.8995907,52.3543863],[4.9001499,52.3545615],[4.9003003,52.3546086],[4.9007481,52.3547489],[4.9008067,52.3547707],[4.9008653,52.3547955],[4.9009089,52.3548154],[4.9009523,52.3548359],[4.9009866,52.3548506],[4.9010126,52.3548607],[4.9012892,52.3549667],[4.9053902,52.3562192],[4.9052622,52.3563488],[4.9046022,52.3579344],[4.9039195,52.3589424],[4.8997343,52.3580893],[4.8983311,52.3578454],[4.8916701,52.3582376],[4.8904439,52.3583602],[4.8898446,52.3585072],[4.8893403,52.3587005],[4.8888307,52.3589626],[4.8881775,52.3595027],[4.8878109,52.3597983],[4.8873643,52.3600015],[4.8871136,52.3598442],[4.8870101,52.3595183],[4.8868528,52.3576236],[4.8868818,52.3569803],[4.8869798,52.354986],[4.8869841,52.3548984],[4.8869857,52.3548663],[4.8870423,52.3537155],[4.886817,52.3523918]]]},"id":"amsterdam::de-pijp"},{"type":"Feature","properties":{"id":"amsterdam::centrum","name":"Centrum","cityId":"amsterdam","city":"Amsterdam","country":"Netherlands","parentName":null,"displayName":"Centrum, Amsterdam, Noord-Holland, Nederland","source":{"provider":"Nominatim / OpenStreetMap","datasetUrl":"https://nominatim.openstreetmap.org/search","query":"Centrum, Amsterdam, Netherlands"}},"geometry":{"type":"Polygon","coordinates":[[[4.8744342,52.3721994],[4.8744461,52.3720583],[4.8744976,52.3718873],[4.8750393,52.3706816],[4.8756687,52.3696376],[4.8758006,52.3694601],[4.8759873,52.369252],[4.8762971,52.3689649],[4.8766739,52.3686754],[4.8768036,52.3685015],[4.8770828,52.3681059],[4.8771931,52.3678961],[4.8772598,52.3677006],[4.8773139,52.367299],[4.8773436,52.3671817],[4.8774253,52.3669516],[4.8775127,52.3667703],[4.8777203,52.3665867],[4.8778837,52.3664648],[4.8781315,52.3663082],[4.8783918,52.3661713],[4.8785288,52.3660793],[4.8786952,52.3659454],[4.8788116,52.3658328],[4.8789544,52.3656618],[4.8790643,52.3654999],[4.879131,52.3653799],[4.8791801,52.3652589],[4.8792136,52.3651249],[4.8792264,52.3649861],[4.8792194,52.3649234],[4.8792121,52.3647761],[4.8792252,52.3646299],[4.8792584,52.3644848],[4.8793114,52.364342],[4.8793542,52.3642572],[4.8794152,52.3641769],[4.879491,52.3641076],[4.8795986,52.3640374],[4.879775,52.3639616],[4.880057,52.3638864],[4.8802546,52.3638231],[4.8805373,52.3637082],[4.8807029,52.3636249],[4.8808457,52.363541],[4.8811161,52.3633605],[4.8812308,52.3632679],[4.8814074,52.3631254],[4.8815115,52.3629368],[4.881571,52.3627635],[4.8816151,52.3625079],[4.8816545,52.3624148],[4.8817108,52.362321],[4.881743,52.3622784],[4.8818475,52.3621843],[4.8819578,52.3621177],[4.8820941,52.3620544],[4.882255,52.3619925],[4.8823925,52.361955],[4.8825056,52.3619361],[4.8826295,52.3619262],[4.8836335,52.3619084],[4.8838404,52.3618861],[4.8840405,52.361847],[4.8842302,52.3617919],[4.8843992,52.361725],[4.8853806,52.3612348],[4.886295,52.3607779],[4.8873838,52.3602308],[4.8876804,52.3600724],[4.8879453,52.3598943],[4.8881702,52.3597034],[4.888287,52.3595829],[4.8884067,52.3594395],[4.888639,52.3592283],[4.888926,52.3590173],[4.8892478,52.3588261],[4.8893996,52.3587501],[4.8896002,52.3586654],[4.889802,52.3585924],[4.8900031,52.3585307],[4.8902104,52.3584772],[4.8904321,52.3584307],[4.8906494,52.3583951],[4.8908747,52.3583679],[4.8961721,52.3580452],[4.8980336,52.3579332],[4.8982545,52.3579468],[4.8985064,52.3579711],[4.8987554,52.3580047],[4.8990008,52.3580473],[4.8992414,52.3580989],[4.9016694,52.3585937],[4.9039954,52.3590474],[4.9046291,52.3592107],[4.9051581,52.359347],[4.9059702,52.3594978],[4.9061665,52.3595491],[4.9065,52.3596629],[4.9066369,52.3597229],[4.9069167,52.3598756],[4.9070988,52.3600031],[4.9073745,52.3602184],[4.9075052,52.3602989],[4.9076407,52.3603692],[4.9077788,52.3604297],[4.9079687,52.3604978],[4.9083218,52.3605899],[4.9085619,52.3606399],[4.9088051,52.3606589],[4.9090329,52.3606501],[4.9093504,52.3605979],[4.9096388,52.3605773],[4.9099553,52.3605853],[4.9102526,52.3606228],[4.9105604,52.3606953],[4.9108328,52.3607942],[4.9110843,52.3609249],[4.9111997,52.3610027],[4.911285,52.3610739],[4.911366,52.3611243],[4.9114873,52.3611792],[4.9116225,52.3612202],[4.9117761,52.361247],[4.9128463,52.3613577],[4.9140314,52.361495],[4.9150753,52.3617854],[4.9157767,52.3619787],[4.9160003,52.3620271],[4.9162365,52.3620665],[4.9164099,52.3620878],[4.9174852,52.3621292],[4.9178048,52.3621438],[4.918126,52.3621907],[4.9184219,52.362266],[4.9187027,52.3623723],[4.918868,52.3624553],[4.9190245,52.3625529],[4.9197148,52.3631354],[4.9198729,52.3632201],[4.9200418,52.3632873],[4.920208,52.3633355],[4.9203829,52.3633703],[4.9211006,52.363431],[4.9214804,52.3634776],[4.9217608,52.3635208],[4.9219133,52.3635601],[4.9220621,52.363615],[4.9221963,52.3636825],[4.9223079,52.3637573],[4.9238551,52.3646921],[4.9247736,52.365247],[4.9255977,52.3656651],[4.9265977,52.3662693],[4.9267219,52.3663314],[4.9268489,52.366382],[4.9269839,52.3664241],[4.9271329,52.3664588],[4.9273151,52.3664864],[4.927509,52.3664995],[4.9315819,52.3665674],[4.9319842,52.3672345],[4.9321852,52.3675684],[4.9321228,52.3676004],[4.9321048,52.3676353],[4.9321108,52.3676623],[4.9320883,52.3676667],[4.9325853,52.3684967],[4.9326861,52.368698],[4.9328204,52.3690696],[4.9328921,52.3694009],[4.932945,52.3699028],[4.9329144,52.3700478],[4.9328979,52.3703652],[4.9329563,52.3704055],[4.9329685,52.3704062],[4.9329374,52.3705456],[4.93291,52.370665],[4.932895,52.3706637],[4.9328906,52.3706819],[4.9328444,52.3706818],[4.9328122,52.370692],[4.9327737,52.3707296],[4.9327633,52.370902],[4.9326234,52.3712776],[4.9325024,52.3715034],[4.93232,52.3716976],[4.9323157,52.3717307],[4.9323274,52.3717484],[4.9323917,52.3717839],[4.9322541,52.371961],[4.9321751,52.3719567],[4.9321012,52.3719823],[4.9319693,52.3721551],[4.931744,52.3723488],[4.9314273,52.3725851],[4.9311731,52.3727495],[4.9308749,52.372919],[4.9305461,52.3730756],[4.9301858,52.3732243],[4.9298505,52.3733444],[4.9293977,52.3734737],[4.9285461,52.3736799],[4.9279023,52.3738524],[4.9276932,52.3739134],[4.9249274,52.3748031],[4.9242529,52.3750189],[4.9240436,52.375079],[4.9235112,52.3752093],[4.9230317,52.375301],[4.9215387,52.3755293],[4.9215602,52.3755822],[4.9214063,52.3756037],[4.9212869,52.3756216],[4.9212749,52.3756065],[4.9212565,52.3756092],[4.9212426,52.375575],[4.9204961,52.3756861],[4.9145064,52.3766585],[4.9141115,52.3767149],[4.9135549,52.3767704],[4.9132979,52.3767852],[4.9127241,52.3767962],[4.9123993,52.3767889],[4.9121162,52.3767739],[4.9120863,52.3767846],[4.9120774,52.3768045],[4.9119756,52.3767965],[4.9119,52.3770981],[4.9120331,52.3771106],[4.912081,52.3771837],[4.9119793,52.377579],[4.911153,52.3776356],[4.9105884,52.379913],[4.9086796,52.3798553],[4.9076171,52.3798836],[4.9065255,52.3800188],[4.9064043,52.3800399],[4.9060002,52.3801057],[4.9054701,52.380203],[4.9043078,52.380463],[4.9032582,52.3807734],[4.902258,52.3811277],[4.9020915,52.3811947],[4.9011789,52.381562],[4.9003624,52.3819786],[4.9000546,52.3821541],[4.8994746,52.3824846],[4.8987674,52.3829688],[4.898659,52.383043],[4.8979098,52.3836743],[4.8973061,52.3842699],[4.8967583,52.3848855],[4.8962412,52.3856478],[4.8950776,52.3886909],[4.8923612,52.3885233],[4.8923093,52.3883572],[4.8922956,52.3882216],[4.8923031,52.388206],[4.892208,52.3881899],[4.8920695,52.3885053],[4.8859714,52.3881287],[4.8857454,52.3881665],[4.8844789,52.3883785],[4.8839963,52.387342],[4.8832335,52.3862423],[4.8830337,52.3860013],[4.8825854,52.3854604],[4.8823454,52.385185],[4.8818258,52.3844346],[4.8816613,52.3841788],[4.8807548,52.3827077],[4.8806448,52.3825637],[4.8804802,52.3824109],[4.8803273,52.3823045],[4.8800963,52.3821831],[4.8798038,52.3820667],[4.8796989,52.3819982],[4.8796325,52.3819301],[4.8795908,52.3818637],[4.8795717,52.3818078],[4.8795663,52.3817374],[4.8795766,52.3816811],[4.8796259,52.3815862],[4.8798477,52.3813395],[4.8798663,52.3812821],[4.8798556,52.3812187],[4.8781604,52.3785048],[4.878094,52.3783983],[4.8782882,52.3783507],[4.8780952,52.3780423],[4.8780726,52.3780477],[4.8779032,52.3777847],[4.8780082,52.3777605],[4.8765864,52.3754873],[4.8759884,52.3745365],[4.8758816,52.3743156],[4.8758472,52.3741825],[4.8757184,52.3741946],[4.8755352,52.3742119],[4.8755082,52.3740752],[4.8754707,52.3737584],[4.8754815,52.3734084],[4.875426,52.3732335],[4.8753785,52.3731486],[4.8752902,52.3730337],[4.8752298,52.3729726],[4.8751628,52.3729222],[4.8748251,52.3727251],[4.8747773,52.3726883],[4.8746397,52.3725604],[4.8745499,52.3724478],[4.8744776,52.3723222],[4.8744342,52.3721994]]]},"id":"amsterdam::centrum"},{"type":"Feature","properties":{"id":"amsterdam::oud-west","name":"Oud-West","cityId":"amsterdam","city":"Amsterdam","country":"Netherlands","parentName":null,"displayName":"Oud-West, West, Amsterdam, Noord-Holland, Nederland","source":{"provider":"Nominatim / OpenStreetMap","datasetUrl":"https://nominatim.openstreetmap.org/search","query":"Oud-West, Amsterdam, Netherlands"}},"geometry":{"type":"Polygon","coordinates":[[[4.8546816,52.3568634],[4.855041,52.3563261],[4.858839,52.3572696],[4.8625458,52.3582427],[4.8646701,52.3588487],[4.868731,52.3597955],[4.8703188,52.3601231],[4.8717136,52.3604376],[4.8738218,52.3609651],[4.8763055,52.3607226],[4.8768852,52.3607611],[4.8767432,52.3609667],[4.8771919,52.3610932],[4.8773535,52.3608615],[4.8773831,52.3608695],[4.8774482,52.3607792],[4.8776842,52.3608635],[4.878167,52.3610044],[4.8812676,52.3618856],[4.8807043,52.3623966],[4.8798675,52.3633663],[4.8795778,52.3639428],[4.8792613,52.3644931],[4.8791272,52.3650598],[4.8787785,52.3656691],[4.8779202,52.3663734],[4.8773838,52.366809],[4.8772336,52.3676312],[4.8769385,52.3681389],[4.8754311,52.3697536],[4.8746211,52.3714043],[4.8744494,52.3720594],[4.8744602,52.3723083],[4.8752166,52.3729895],[4.8745943,52.3731762],[4.870925,52.3724033],[4.8680175,52.3717974],[4.8665959,52.3715648],[4.8654211,52.3703825],[4.8641176,52.3689905],[4.8628623,52.3676443],[4.8616499,52.3662554],[4.8604268,52.3648862],[4.8602505,52.3647431],[4.8591448,52.3634056],[4.8580772,52.3621247],[4.8575783,52.3615515],[4.857117,52.3604245],[4.856248,52.3592681],[4.8551879,52.358056],[4.855115,52.3574166],[4.8549071,52.3571512],[4.85479,52.3570018],[4.8546816,52.3568634]]]},"id":"amsterdam::oud-west"},{"type":"Feature","properties":{"id":"amsterdam::oost","name":"Oost","cityId":"amsterdam","city":"Amsterdam","country":"Netherlands","parentName":null,"displayName":"Oost, Amsterdam, Noord-Holland, Nederland","source":{"provider":"Nominatim / OpenStreetMap","datasetUrl":"https://nominatim.openstreetmap.org/search","query":"Oost, Amsterdam, Netherlands"}},"geometry":{"type":"Polygon","coordinates":[[[4.8952234,52.3240768],[4.8952597,52.3238326],[4.8953731,52.3234959],[4.8954645,52.3233215],[4.8957543,52.3228674],[4.8959084,52.3226984],[4.8960819,52.3225549],[4.8962917,52.3224199],[4.8964078,52.3223211],[4.8971462,52.3218964],[4.8973282,52.3218559],[4.8982807,52.321644],[4.8993471,52.3215505],[4.9000638,52.3215506],[4.9001976,52.3215506],[4.9009226,52.3215656],[4.9016009,52.3215282],[4.9020937,52.3214498],[4.9025324,52.3213244],[4.9029717,52.3211453],[4.9031864,52.3210489],[4.9033562,52.3209727],[4.9040925,52.3206442],[4.9041011,52.3206407],[4.9045362,52.3204623],[4.9047031,52.3203938],[4.9055195,52.3201442],[4.9078406,52.3195048],[4.9083641,52.3192111],[4.9090508,52.3188257],[4.9091354,52.3182532],[4.9098129,52.3182612],[4.9101145,52.3182648],[4.9101148,52.3182648],[4.9101954,52.3182658],[4.9102046,52.3182659],[4.9102052,52.3182659],[4.9104341,52.3182686],[4.910557,52.31827],[4.910649,52.3182765],[4.9107421,52.3182791],[4.9107851,52.3182783],[4.9108928,52.3182751],[4.9111155,52.3182662],[4.9112114,52.3182662],[4.9115327,52.3182633],[4.911773,52.3182598],[4.9118686,52.3182584],[4.9119198,52.3182568],[4.9121779,52.3182487],[4.9122488,52.3182494],[4.9123198,52.3182486],[4.9123757,52.318248],[4.9125039,52.3183896],[4.912606,52.3185025],[4.9127338,52.3186412],[4.9130038,52.3189354],[4.9131865,52.3191312],[4.9133326,52.3192877],[4.913357,52.3193182],[4.9134725,52.3194623],[4.9134796,52.3194712],[4.9135379,52.3195535],[4.9141566,52.3202338],[4.9142694,52.3203941],[4.9142815,52.320408],[4.9141035,52.3204809],[4.9140556,52.3205006],[4.9135689,52.3207006],[4.9129784,52.3209476],[4.9126992,52.321086],[4.9126098,52.3211044],[4.9125758,52.3211249],[4.9125599,52.3211346],[4.9125575,52.3211392],[4.9125397,52.3211738],[4.9125389,52.3211754],[4.912543,52.3212055],[4.912545,52.3212196],[4.912488,52.3212541],[4.9124267,52.3212761],[4.912324,52.3213131],[4.9115962,52.3215931],[4.9112318,52.3217329],[4.9108075,52.321883],[4.9108022,52.3218838],[4.9107742,52.3218878],[4.9107307,52.3219141],[4.9107616,52.3219839],[4.9108316,52.322073],[4.9109578,52.3222611],[4.9109623,52.3222679],[4.9111182,52.3225033],[4.9113238,52.3228247],[4.9113416,52.3228784],[4.9113437,52.3228841],[4.9113509,52.3228993],[4.9112261,52.3230111],[4.9107791,52.3233083],[4.9105131,52.3234655],[4.9103343,52.3235663],[4.9105503,52.3237234],[4.9107284,52.323853],[4.9109501,52.3240143],[4.9111003,52.324098],[4.9112884,52.3241623],[4.9115878,52.3242067],[4.9121209,52.3242574],[4.9125544,52.3243278],[4.9127996,52.3243675],[4.9137778,52.3245339],[4.9138814,52.3245515],[4.9138086,52.3249936],[4.9136871,52.3257317],[4.9136267,52.3260986],[4.9136198,52.3261479],[4.9136041,52.3262603],[4.9136017,52.3262752],[4.9135277,52.326743],[4.9133193,52.3280596],[4.9132676,52.3283874],[4.91324,52.3285723],[4.9131194,52.3293445],[4.9130967,52.3294847],[4.912983,52.330188],[4.9129318,52.3305104],[4.9129661,52.3305138],[4.9130142,52.3305185],[4.913127,52.3305302],[4.9131337,52.3305309],[4.9132626,52.3305448],[4.9132637,52.3305449],[4.9132941,52.3305484],[4.9133826,52.3305585],[4.9133979,52.3305603],[4.9134646,52.3305683],[4.9135137,52.3305742],[4.9135358,52.3305771],[4.9135538,52.3305794],[4.9138126,52.3306152],[4.9141749,52.3306779],[4.9145688,52.3307632],[4.9151618,52.3309149],[4.9168661,52.3313436],[4.9175052,52.331543],[4.9177422,52.3316132],[4.9180895,52.3317162],[4.918668,52.3318902],[4.9192403,52.3320632],[4.9195938,52.3321681],[4.9199625,52.3322583],[4.9203717,52.3323603],[4.9216742,52.3327611],[4.9225505,52.3330842],[4.9224384,52.3332161],[4.9226119,52.3333281],[4.9227922,52.3334591],[4.9228804,52.3335293],[4.9229801,52.3336145],[4.9230071,52.3336403],[4.9230356,52.3336674],[4.923052,52.3336823],[4.9230829,52.3337119],[4.9231138,52.3337435],[4.9231573,52.3337875],[4.9232906,52.333939],[4.9233526,52.3340192],[4.9234068,52.3340893],[4.9235123,52.334257],[4.9235931,52.3344149],[4.9236293,52.3345076],[4.9236773,52.3346306],[4.923727,52.334811],[4.9237517,52.3349552],[4.9237686,52.335268],[4.9237654,52.3354427],[4.9238867,52.3354366],[4.9241442,52.3354237],[4.9244805,52.3354069],[4.924522,52.3354048],[4.9245649,52.3354027],[4.9248005,52.3353846],[4.9254929,52.3353833],[4.925612,52.3353787],[4.9256382,52.3353777],[4.9257079,52.335375],[4.9257734,52.3353727],[4.9258899,52.3354126],[4.9259991,52.3354504],[4.9263839,52.3355835],[4.9269421,52.3357766],[4.92677,52.3359646],[4.9284247,52.3365313],[4.9284972,52.3365761],[4.9285794,52.3366044],[4.9286699,52.3366009],[4.9287469,52.3365436],[4.9287875,52.3365248],[4.9288593,52.3365027],[4.9307956,52.3361277],[4.9323697,52.3358365],[4.9326884,52.3357776],[4.9334144,52.3356442],[4.9342207,52.335496],[4.9356238,52.335514],[4.9359077,52.3352191],[4.9359676,52.3351569],[4.9360249,52.3350975],[4.9363961,52.334712],[4.9365117,52.334592],[4.936731,52.3346661],[4.9367581,52.3346753],[4.9373372,52.3348711],[4.9377045,52.3350032],[4.9378331,52.3350568],[4.937911,52.3350925],[4.9379322,52.3351056],[4.9379727,52.3351305],[4.9380599,52.3351841],[4.9381483,52.3352387],[4.9383273,52.3352894],[4.9384997,52.3353075],[4.9388239,52.3353982],[4.939029,52.3354725],[4.9393954,52.3355668],[4.9395281,52.3355931],[4.9396747,52.3356075],[4.9398058,52.3356122],[4.9399582,52.3356167],[4.9403656,52.3356039],[4.9415391,52.3355417],[4.9415763,52.3355397],[4.9417056,52.3355329],[4.9417085,52.3356964],[4.9417089,52.3357188],[4.941714,52.3360048],[4.9417146,52.3360389],[4.9417118,52.3361651],[4.9417201,52.3364074],[4.9417595,52.3364125],[4.9421921,52.3364686],[4.9422266,52.3364728],[4.9431247,52.3365899],[4.9434906,52.3366698],[4.9435147,52.3366731],[4.9437984,52.3367124],[4.9437479,52.3367412],[4.9439231,52.3367916],[4.9439351,52.3367936],[4.9439477,52.3368003],[4.9439896,52.3368181],[4.9442087,52.3368898],[4.9442259,52.3368955],[4.9445878,52.337008],[4.9446184,52.3370175],[4.944767,52.337063],[4.9448127,52.337077],[4.9448379,52.3370849],[4.9449064,52.3371061],[4.9449757,52.3371277],[4.9450347,52.337146],[4.945044,52.3371488],[4.9451486,52.3371804],[4.9452501,52.3372111],[4.9452598,52.3372138],[4.9454839,52.3372764],[4.9455336,52.3372902],[4.9457773,52.3373622],[4.9458734,52.3373905],[4.9459536,52.3374143],[4.9460498,52.3374439],[4.9461102,52.3374614],[4.9461477,52.3374724],[4.9462267,52.3374956],[4.9462708,52.3375086],[4.946309,52.3375196],[4.9464047,52.3375479],[4.9464843,52.3375713],[4.9465616,52.3375941],[4.9467494,52.3376531],[4.9467666,52.3376585],[4.9468323,52.3376753],[4.94688,52.3376876],[4.9470234,52.3377026],[4.9470254,52.3377028],[4.9470957,52.33772],[4.9473769,52.3377888],[4.9479121,52.3379156],[4.9483421,52.3380276],[4.9485678,52.3381066],[4.9486144,52.3381216],[4.9486439,52.3381312],[4.9486686,52.3381313],[4.9490556,52.3382387],[4.9490829,52.3382454],[4.9493474,52.3383258],[4.9495484,52.3383786],[4.9495285,52.3384076],[4.9495796,52.3384383],[4.9498602,52.3385282],[4.9497921,52.3386137],[4.9497014,52.3387275],[4.9497826,52.3387593],[4.950573,52.3390692],[4.9506777,52.339117],[4.9518891,52.3396699],[4.9520326,52.3397455],[4.9523799,52.3399285],[4.9524843,52.3400106],[4.9526418,52.3401002],[4.9530039,52.3403375],[4.9530534,52.3403699],[4.9538371,52.3410607],[4.9541046,52.341349],[4.9549585,52.3422693],[4.954998,52.3423119],[4.955019,52.342333],[4.9558126,52.3431297],[4.956268,52.3435869],[4.9565577,52.3438777],[4.9570027,52.3443503],[4.9570978,52.3444377],[4.957416,52.3447304],[4.9575917,52.3448919],[4.9580735,52.3453351],[4.9592724,52.3465127],[4.9596967,52.3469294],[4.9597561,52.3470247],[4.9598761,52.347217],[4.9599183,52.3473979],[4.959923,52.347418],[4.9599301,52.3474482],[4.9601253,52.3476392],[4.9603108,52.3478207],[4.9603196,52.3478293],[4.9604286,52.3479359],[4.960535,52.34804],[4.9606281,52.348131],[4.96116,52.3486514],[4.9611704,52.3486614],[4.961366,52.3488528],[4.9615866,52.3491384],[4.961916,52.3495647],[4.9621701,52.3498935],[4.9625361,52.3503671],[4.9639407,52.3520548],[4.9640174,52.352147],[4.9644879,52.3527123],[4.9649553,52.3532739],[4.9649568,52.3532757],[4.965666,52.3544392],[4.9658229,52.3546967],[4.9658572,52.3546512],[4.965932,52.3545518],[4.9660573,52.3543853],[4.9661581,52.354263],[4.9662399,52.3541638],[4.9662523,52.3541899],[4.9662817,52.354207],[4.9663568,52.3542366],[4.9664297,52.3542545],[4.9665235,52.3542792],[4.9666101,52.3543134],[4.9667244,52.3543534],[4.9668459,52.354393],[4.9670334,52.3544666],[4.9672177,52.3545412],[4.9674185,52.3546212],[4.9674375,52.3546281],[4.9676111,52.3546914],[4.9677261,52.3547345],[4.9679208,52.3548123],[4.9680805,52.354862],[4.9682149,52.3549001],[4.9683101,52.3549269],[4.9685419,52.3550154],[4.9687371,52.3550881],[4.9688742,52.3551536],[4.9689408,52.3551876],[4.9691197,52.3552833],[4.9692214,52.3553293],[4.9693225,52.3553822],[4.9693979,52.3554236],[4.9695225,52.3554982],[4.9695016,52.3555769],[4.9693139,52.3556102],[4.9695948,52.3561017],[4.9701868,52.355993],[4.9702167,52.3560506],[4.9703288,52.3560281],[4.9704253,52.3560111],[4.9703941,52.3559573],[4.9706772,52.3559019],[4.9711019,52.3558165],[4.9714315,52.3557411],[4.9715019,52.3557251],[4.971793,52.3556482],[4.9721787,52.3555458],[4.9724807,52.3554564],[4.9727944,52.3553523],[4.973183,52.355219],[4.9734594,52.3551138],[4.9738752,52.3549477],[4.9741526,52.3548251],[4.9744904,52.3546664],[4.9748039,52.3545067],[4.9755298,52.3541209],[4.9760253,52.3538543],[4.9762205,52.3537508],[4.9770405,52.3533164],[4.9770677,52.353302],[4.977879,52.352868],[4.9784331,52.3525725],[4.9791313,52.3522001],[4.9793509,52.352083],[4.9797383,52.3518773],[4.9804605,52.3514918],[4.9820402,52.3506485],[4.982732,52.3502789],[4.9833185,52.3499675],[4.9845179,52.3493309],[4.9854388,52.3488404],[4.9863374,52.3483618],[4.9875147,52.3477349],[4.9878429,52.3475601],[4.9888908,52.3470027],[4.9896152,52.3466185],[4.9899804,52.3464248],[4.9907861,52.3459947],[4.9909687,52.3458979],[4.9916165,52.3455547],[4.9924433,52.3451119],[4.9927836,52.3449296],[4.9932349,52.3446873],[4.9937294,52.3444222],[4.9937542,52.3444108],[4.993819,52.3443848],[4.9938678,52.3443683],[4.9939349,52.3443473],[4.9940191,52.3443145],[4.9941267,52.3442616],[4.994315,52.3441581],[4.9946733,52.3439673],[4.9949519,52.3438172],[4.9953242,52.3436162],[4.9957827,52.3433714],[4.9959744,52.3432693],[4.9963286,52.3430806],[4.9968211,52.3428182],[4.9972738,52.3425757],[4.9978278,52.3422787],[4.9980489,52.3421605],[4.9982659,52.3420474],[4.9990628,52.3416751],[4.9993207,52.3415363],[4.9994443,52.3416376],[4.9995497,52.3417238],[4.9997082,52.3418272],[4.9998827,52.3419204],[5.0000715,52.3420024],[5.0002858,52.3420831],[5.0005107,52.342152],[5.0007445,52.3422088],[5.0009855,52.3422528],[5.0015156,52.3423455],[5.0020542,52.3424173],[5.0025991,52.3424681],[5.0037733,52.3425462],[5.0039835,52.3425675],[5.0041959,52.3425786],[5.004409,52.3425792],[5.0046215,52.3425696],[5.0048321,52.3425496],[5.0051159,52.3425159],[5.0053967,52.3424739],[5.0056741,52.342424],[5.0056864,52.3424215],[5.0056988,52.3424191],[5.0057111,52.3424166],[5.0059426,52.3423584],[5.0061753,52.3423021],[5.0064093,52.3422476],[5.0065923,52.3422066],[5.0067761,52.3421667],[5.0069605,52.3421279],[5.0072676,52.342072],[5.0075697,52.3420068],[5.0076918,52.3419762],[5.0078662,52.3419324],[5.0079812,52.3419002],[5.0081004,52.3418742],[5.0082228,52.3418546],[5.0083474,52.3418415],[5.0084735,52.3418351],[5.0086,52.3418354],[5.008726,52.3418424],[5.0088505,52.341856],[5.0089726,52.3418762],[5.0091539,52.3419072],[5.0093305,52.3419472],[5.0095012,52.3419957],[5.0096649,52.3420526],[5.0098206,52.3421174],[5.0101882,52.3422682],[5.0105426,52.3424304],[5.0108829,52.3426036],[5.0112312,52.3427955],[5.0115525,52.3430043],[5.0118446,52.3432287],[5.0118819,52.3432589],[5.011918,52.3432897],[5.0119529,52.343321],[5.0120683,52.3434382],[5.0121665,52.3435612],[5.0122466,52.343689],[5.0122563,52.3437137],[5.0122237,52.3437201],[5.012218,52.3437212],[5.0122813,52.3438466],[5.0122933,52.3438438],[5.0123028,52.3438426],[5.0123457,52.3439391],[5.0123467,52.3439416],[5.0123616,52.3439803],[5.0123813,52.344311],[5.0128453,52.3448402],[5.0128725,52.3448712],[5.0133529,52.3454191],[5.0144755,52.3466994],[5.0154634,52.3478259],[5.0157984,52.3482079],[5.0158992,52.3483229],[5.0176399,52.3487931],[5.0202171,52.3494892],[5.0202898,52.3495089],[5.0224586,52.3500946],[5.027246,52.3513874],[5.0308749,52.3523672],[5.0342028,52.3532655],[5.0349351,52.3534632],[5.0350834,52.3535032],[5.0390565,52.3545756],[5.0389745,52.3558438],[5.0385145,52.362121],[5.03845,52.3631768],[5.0379534,52.3713073],[5.0376797,52.3754013],[5.0144361,52.3698253],[5.0012599,52.3685927],[4.9987429,52.368359],[4.9964504,52.3682292],[4.9938689,52.3682442],[4.9914028,52.368378],[4.9890387,52.3686657],[4.986537,52.3691249],[4.984194,52.3697273],[4.9821172,52.3703856],[4.9797402,52.3713327],[4.9773647,52.3725155],[4.9740852,52.3742594],[4.9703226,52.37626],[4.966612,52.3782286],[4.9637164,52.3797673],[4.9615736,52.3812224],[4.9606091,52.3816637],[4.9596528,52.382095],[4.9584076,52.3824732],[4.9567059,52.3826499],[4.9542479,52.3826146],[4.9524236,52.3825706],[4.9495816,52.3825019],[4.9431835,52.3825091],[4.9398262,52.3825127],[4.9373498,52.3824073],[4.9310819,52.3821403],[4.9224508,52.3811034],[4.9198527,52.3808111],[4.9174969,52.3805459],[4.9109992,52.3799254],[4.9105884,52.379913],[4.911153,52.3776356],[4.9119793,52.377579],[4.912081,52.3771837],[4.9120331,52.3771106],[4.9119,52.3770981],[4.9119756,52.3767965],[4.9120774,52.3768045],[4.9120863,52.3767846],[4.9121162,52.3767739],[4.9123993,52.3767889],[4.9127241,52.3767962],[4.9132979,52.3767852],[4.9135549,52.3767704],[4.9141115,52.3767149],[4.9145064,52.3766585],[4.9204961,52.3756861],[4.9212426,52.375575],[4.9212565,52.3756092],[4.9212749,52.3756065],[4.9212869,52.3756216],[4.9214063,52.3756037],[4.9215602,52.3755822],[4.9215387,52.3755293],[4.9230317,52.375301],[4.9235112,52.3752093],[4.9240436,52.375079],[4.9242529,52.3750189],[4.9249274,52.3748031],[4.9276932,52.3739134],[4.9279023,52.3738524],[4.9285461,52.3736799],[4.9293977,52.3734737],[4.9298505,52.3733444],[4.9301858,52.3732243],[4.9305461,52.3730756],[4.9308749,52.372919],[4.9311731,52.3727495],[4.9314273,52.3725851],[4.931744,52.3723488],[4.9319693,52.3721551],[4.9321012,52.3719823],[4.9321751,52.3719567],[4.9322541,52.371961],[4.9323917,52.3717839],[4.9323274,52.3717484],[4.9323157,52.3717307],[4.93232,52.3716976],[4.9325024,52.3715034],[4.9326234,52.3712776],[4.9327633,52.370902],[4.9327737,52.3707296],[4.9328122,52.370692],[4.9328444,52.3706818],[4.9328906,52.3706819],[4.932895,52.3706637],[4.93291,52.370665],[4.9329374,52.3705456],[4.9329685,52.3704062],[4.9329563,52.3704055],[4.9328979,52.3703652],[4.9329144,52.3700478],[4.932945,52.3699028],[4.9328921,52.3694009],[4.9328204,52.3690696],[4.9326861,52.368698],[4.9325853,52.3684967],[4.9320883,52.3676667],[4.9321108,52.3676623],[4.9321048,52.3676353],[4.9321228,52.3676004],[4.9321852,52.3675684],[4.9319842,52.3672345],[4.9315819,52.3665674],[4.927509,52.3664995],[4.9273151,52.3664864],[4.9271329,52.3664588],[4.9269839,52.3664241],[4.9268489,52.366382],[4.9267219,52.3663314],[4.9265977,52.3662693],[4.9255977,52.3656651],[4.9247736,52.365247],[4.9238551,52.3646921],[4.9223079,52.3637573],[4.9221963,52.3636825],[4.9220621,52.363615],[4.9219133,52.3635601],[4.9217608,52.3635208],[4.9214804,52.3634776],[4.9211006,52.363431],[4.9203829,52.3633703],[4.920208,52.3633355],[4.9200418,52.3632873],[4.9198729,52.3632201],[4.9197148,52.3631354],[4.9190245,52.3625529],[4.918868,52.3624553],[4.9187027,52.3623723],[4.9184219,52.362266],[4.918126,52.3621907],[4.9178048,52.3621438],[4.9174852,52.3621292],[4.9164099,52.3620878],[4.9162365,52.3620665],[4.9160003,52.3620271],[4.9157767,52.3619787],[4.9150753,52.3617854],[4.9140314,52.361495],[4.9128463,52.3613577],[4.9117761,52.361247],[4.9116225,52.3612202],[4.9114873,52.3611792],[4.911366,52.3611243],[4.911285,52.3610739],[4.9111997,52.3610027],[4.9110843,52.3609249],[4.9108328,52.3607942],[4.9105604,52.3606953],[4.9102526,52.3606228],[4.9099553,52.3605853],[4.9096388,52.3605773],[4.9093504,52.3605979],[4.9090329,52.3606501],[4.9088051,52.3606589],[4.9085619,52.3606399],[4.9083218,52.3605899],[4.9079687,52.3604978],[4.9077788,52.3604297],[4.9076407,52.3603692],[4.9075052,52.3602989],[4.9073745,52.3602184],[4.9070988,52.3600031],[4.9069167,52.3598756],[4.9066369,52.3597229],[4.9065,52.3596629],[4.9061665,52.3595491],[4.9059702,52.3594978],[4.9051581,52.359347],[4.9046291,52.3592107],[4.9048856,52.3587496],[4.9060508,52.3561673],[4.9065472,52.3553835],[4.9083591,52.3533885],[4.9102438,52.3513648],[4.9110598,52.3500282],[4.9122285,52.3481137],[4.9127036,52.3473355],[4.9131573,52.3457541],[4.9131878,52.3456037],[4.9132809,52.3451449],[4.9134384,52.3446984],[4.9138529,52.3438744],[4.9141331,52.3435299],[4.9148594,52.3426368],[4.9149409,52.3424268],[4.9149843,52.3421453],[4.9149642,52.3418603],[4.9148634,52.3415994],[4.914677,52.3413386],[4.9143711,52.3409374],[4.9140421,52.340576],[4.9135975,52.340276],[4.9131897,52.3400331],[4.9126202,52.3397323],[4.9120105,52.3395139],[4.9117943,52.3394585],[4.9111703,52.339309],[4.9107115,52.3392088],[4.9100678,52.3390428],[4.9094178,52.3387712],[4.9092615,52.3387048],[4.9079585,52.3382177],[4.9077438,52.3381157],[4.9074804,52.337961],[4.9074063,52.3379141],[4.9073055,52.3378176],[4.9072331,52.3377157],[4.9071858,52.3376141],[4.9068957,52.336406],[4.9068543,52.336161],[4.9067924,52.3359601],[4.9067507,52.335862],[4.9066254,52.3356472],[4.9064838,52.3354661],[4.9063452,52.3353269],[4.9061661,52.3351194],[4.9057785,52.3347157],[4.905545,52.3344875],[4.9052505,52.3342324],[4.9047733,52.3338471],[4.9045439,52.3336962],[4.9042543,52.3335703],[4.9039374,52.3334812],[4.903548,52.3334296],[4.9028457,52.3333803],[4.9024757,52.3333658],[4.9021923,52.3333672],[4.9011544,52.3334387],[4.9005961,52.3334197],[4.9001964,52.3333753],[4.8998234,52.3333064],[4.8996329,52.33326],[4.8994651,52.3332143],[4.8992908,52.3331488],[4.8991175,52.3330688],[4.8989747,52.3329823],[4.8988355,52.3328791],[4.8987511,52.3327909],[4.8986156,52.3326305],[4.8985219,52.3324724],[4.8984784,52.3322742],[4.8984729,52.3320753],[4.8984907,52.3319566],[4.8988711,52.3311052],[4.8990067,52.3307056],[4.8990698,52.3304348],[4.8990711,52.3301952],[4.8990222,52.3299938],[4.8989093,52.329773],[4.8987663,52.3295561],[4.8982485,52.328969],[4.897835,52.3285701],[4.8973201,52.3280228],[4.8971394,52.3277785],[4.8969978,52.3275578],[4.8968556,52.3272706],[4.896674,52.3268479],[4.8965537,52.3265214],[4.8964399,52.3262993],[4.8958365,52.3252006],[4.8953059,52.3243381],[4.89525,52.3242008],[4.8952234,52.3240768]]]},"id":"amsterdam::oost"},{"type":"Feature","properties":{"id":"amsterdam::museum-quarter","name":"Museum Quarter","cityId":"amsterdam","city":"Amsterdam","country":"Netherlands","parentName":null,"displayName":"Museumkwartier, Oud-Zuid, Zuid, Amsterdam, Noord-Holland, Nederland","source":{"provider":"Nominatim / OpenStreetMap","datasetUrl":"https://nominatim.openstreetmap.org/search","query":"Museumkwartier, Amsterdam, Netherlands"}},"geometry":{"type":"Polygon","coordinates":[[[4.8654762,52.3590058],[4.8672537,52.3561627],[4.8678806,52.3553492],[4.8681868,52.3553692],[4.8694775,52.3537006],[4.8705497,52.3520886],[4.871753,52.3522549],[4.8730303,52.3522631],[4.8737951,52.3521563],[4.8794528,52.3511342],[4.8806835,52.3509204],[4.8836885,52.3503421],[4.8864134,52.3484658],[4.8864632,52.3511469],[4.886518,52.3518865],[4.8864656,52.3526604],[4.88653,52.3530471],[4.886691,52.3532043],[4.8867855,52.3535476],[4.8867706,52.3547369],[4.8865986,52.3572495],[4.88683,52.3597523],[4.8872191,52.3600517],[4.887381,52.3602112],[4.8862841,52.3607663],[4.8856327,52.3610932],[4.8849056,52.3614564],[4.8842845,52.3617238],[4.883784,52.3618571],[4.8826498,52.3619044],[4.8822198,52.3619473],[4.8820512,52.3620211],[4.8820077,52.3620026],[4.881288,52.3618032],[4.8774455,52.360768],[4.8773798,52.360854],[4.8773557,52.3608475],[4.8771827,52.3610825],[4.8767602,52.360958],[4.8768997,52.3607803],[4.8769802,52.3607688],[4.8770311,52.3607418],[4.8770459,52.360709],[4.8769493,52.360682],[4.8769668,52.3606534],[4.8766231,52.3605731],[4.8764494,52.3607748],[4.8762533,52.3607299],[4.8761795,52.3607967],[4.875863,52.360707],[4.8755868,52.3608163],[4.8756874,52.3609515],[4.8747404,52.3612449],[4.8745501,52.3610891],[4.8742067,52.3611892],[4.8740351,52.3610137],[4.8738474,52.360981],[4.8738635,52.3609056],[4.8737588,52.3607862],[4.8735602,52.3607371],[4.8733215,52.3607423],[4.872997,52.3606323],[4.8722058,52.3604175],[4.8717391,52.3603356],[4.8715353,52.360352],[4.8714012,52.3605649],[4.8712778,52.3605321],[4.8714674,52.3602471],[4.8712993,52.3602045],[4.8712617,52.3602766],[4.8700494,52.3599785],[4.8699446,52.3601146],[4.8674824,52.3594824],[4.8658238,52.3590882],[4.8658913,52.3589905],[4.865845,52.3589498],[4.8657578,52.3589797],[4.8656727,52.3588982],[4.8655868,52.3589281],[4.8654762,52.3590058]]]},"id":"amsterdam::museum-quarter"},{"type":"Feature","properties":{"id":"amsterdam::de-wallen","name":"De Wallen","cityId":"amsterdam","city":"Amsterdam","country":"Netherlands","parentName":null,"displayName":"de Wallen, J.W. Siebbeleshof, Nieuwmarktbuurt, Nieuwmarkt/Lastage, Centrum, Amsterdam, Noord-Holland, Nederland, 1011 DC, Nederland","source":{"provider":"Nominatim / OpenStreetMap","datasetUrl":"https://nominatim.openstreetmap.org/search","query":"De Wallen, Amsterdam, Netherlands"}},"geometry":{"type":"Polygon","coordinates":[[[4.8956406,52.3719371],[4.897019,52.3714332],[4.8979481,52.372291],[4.8990604,52.3733077],[4.9007479,52.3751379],[4.8998081,52.3754845],[4.8994588,52.37513],[4.8991747,52.3748425],[4.8991538,52.3748392],[4.897998,52.3752482],[4.8961602,52.373949],[4.8975096,52.3735093],[4.8969297,52.3730082],[4.8956406,52.3719371]]]},"id":"amsterdam::de-wallen"},{"type":"Feature","properties":{"id":"amsterdam::amsterdam-noord-ndsm","name":"Amsterdam Noord (NDSM)","cityId":"amsterdam","city":"Amsterdam","country":"Netherlands","parentName":null,"displayName":"NDSM, Noord, Amsterdam, Noord-Holland, Nederland","source":{"provider":"Nominatim / OpenStreetMap","datasetUrl":"https://nominatim.openstreetmap.org/search","query":"NDSM, Amsterdam, Netherlands"}},"geometry":{"type":"Polygon","coordinates":[[[4.8857991,52.4015225],[4.8878606,52.3999053],[4.8881906,52.3997437],[4.8908427,52.3991289],[4.8910643,52.3982627],[4.891578,52.3981557],[4.895753,52.3982377],[4.8968734,52.3990433],[4.8992793,52.4008508],[4.8945149,52.4030274],[4.8930834,52.4019551],[4.892978,52.4020036],[4.8929692,52.4020076],[4.8926788,52.4021412],[4.8926191,52.4021694],[4.8903746,52.4032019],[4.8889732,52.4020924],[4.8872871,52.400842],[4.8859454,52.4015916],[4.8857991,52.4015225]]]},"id":"amsterdam::amsterdam-noord-ndsm"}]}
