{"type":"FeatureCollection","features":[{"type":"Feature","properties":{"id":"barcelona::gothic-quarter","name":"Gothic Quarter","cityId":"barcelona","city":"Barcelona","country":"Spain","parentName":null,"displayName":"el Gòtic, Ciutat Vella, Barcelona, Barcelonès, Barcelona, Catalunya, 08002, España"},"geometry":{"type":"Polygon","coordinates":[[[2.1697998,41.385609],[2.1698246,41.3855692],[2.169861,41.3855252],[2.1699,41.3854714],[2.1699205,41.3854402],[2.1700094,41.3853051],[2.1703967,41.3847163],[2.1704926,41.3845832],[2.1705336,41.3845241],[2.1705694,41.3844705],[2.1710721,41.3837514],[2.1711192,41.3836786],[2.171152,41.3836335],[2.1716294,41.3829859],[2.1716469,41.3829541],[2.1716747,41.3828825],[2.1716943,41.3828504],[2.1718601,41.3826509],[2.1719137,41.3825873],[2.1723598,41.3820577],[2.1727239,41.3816317],[2.1730215,41.3812773],[2.1730536,41.3812409],[2.1732413,41.3810296],[2.1732492,41.3810204],[2.1733602,41.380891],[2.1733805,41.3808674],[2.1734192,41.3808223],[2.1735916,41.3806212],[2.1739464,41.3802076],[2.1739872,41.38016],[2.1739918,41.3801547],[2.1740277,41.3801128],[2.1740423,41.3800952],[2.1740561,41.3800785],[2.1744708,41.3795867],[2.1745595,41.3794815],[2.1746078,41.3794242],[2.1746462,41.3793822],[2.1750552,41.3789354],[2.1752626,41.3787835],[2.1753494,41.3787039],[2.1754483,41.3785372],[2.1759085,41.3777217],[2.1759359,41.3776737],[2.1760215,41.3775246],[2.1761503,41.3773],[2.176224,41.3772023],[2.1762595,41.3771531],[2.1770257,41.376239],[2.1773643,41.3757004],[2.177372,41.3756408],[2.1773937,41.3756032],[2.1773812,41.3755015],[2.1773511,41.3754238],[2.1773313,41.3753971],[2.1772967,41.3753578],[2.1772957,41.3753558],[2.1785144,41.3748048],[2.1786188,41.3749345],[2.1787752,41.3751287],[2.1787991,41.3751197],[2.1790072,41.3753855],[2.1790258,41.3754073],[2.1790064,41.3754177],[2.1791928,41.3756596],[2.1793569,41.3758665],[2.1795254,41.376074],[2.1798472,41.3764755],[2.1804278,41.3771999],[2.1823048,41.3795522],[2.1825116,41.3794588],[2.1827736,41.3787685],[2.1832514,41.3775416],[2.1830877,41.3773592],[2.1829313,41.3771797],[2.1827874,41.3769874],[2.1824811,41.3765634],[2.1824196,41.3764883],[2.1821224,41.37612],[2.1821044,41.3760978],[2.1817981,41.3757209],[2.1817898,41.3757108],[2.181773,41.375716],[2.1817049,41.3756328],[2.1816508,41.3756572],[2.1815567,41.3755409],[2.1816134,41.3755126],[2.181491,41.3753559],[2.1815827,41.3750576],[2.1815977,41.3750615],[2.1816064,41.3750347],[2.1816534,41.3748901],[2.1820908,41.3746887],[2.1822771,41.3746045],[2.1825708,41.37447],[2.1829213,41.3743151],[2.1830563,41.3743386],[2.1839029,41.3753972],[2.1841222,41.3756714],[2.1849693,41.3767305],[2.1852192,41.3767963],[2.1851716,41.3769376],[2.1850331,41.3769751],[2.1843091,41.3788139],[2.183671,41.3804973],[2.1831312,41.3808551],[2.1829984,41.3808728],[2.1829334,41.3808912],[2.1828914,41.380903],[2.182842,41.3809177],[2.182819,41.3809268],[2.1827343,41.3809604],[2.1826854,41.3809893],[2.1825396,41.3810828],[2.1824937,41.3811161],[2.1824645,41.3811398],[2.1824226,41.3811731],[2.1823634,41.3812129],[2.1823076,41.3812514],[2.1822325,41.381308],[2.182196,41.3813375],[2.1821615,41.3813675],[2.1819674,41.3815269],[2.1819211,41.3815631],[2.1818673,41.3816016],[2.1818185,41.3816381],[2.1817654,41.3816803],[2.1816754,41.3817414],[2.1815406,41.3818327],[2.181284,41.3820302],[2.1812304,41.3820706],[2.1810291,41.3822223],[2.1809016,41.3823031],[2.1808069,41.382381],[2.1807779,41.3823962],[2.1800971,41.3829233],[2.1800541,41.3829568],[2.1800005,41.3829961],[2.1799061,41.3830729],[2.1798844,41.3830862],[2.1797851,41.3831617],[2.1793073,41.383525],[2.1790026,41.383757],[2.1789698,41.3837831],[2.1789143,41.3838264],[2.1787338,41.3839657],[2.1785324,41.3841202],[2.178503,41.3841421],[2.1784691,41.3841675],[2.1783313,41.3842722],[2.1778621,41.384623],[2.1777206,41.3847278],[2.1774725,41.3849073],[2.1769485,41.385305],[2.1769288,41.3853197],[2.1768393,41.3853867],[2.1767621,41.3854238],[2.1767245,41.3854523],[2.1766904,41.3854781],[2.1766146,41.3855297],[2.1765754,41.385562],[2.1765332,41.3855898],[2.1765087,41.3856094],[2.176431,41.3856656],[2.1764106,41.385683],[2.1760943,41.3859219],[2.175741,41.3861899],[2.1757025,41.3862174],[2.1756116,41.3862863],[2.175565,41.3863216],[2.1754131,41.3864395],[2.1752033,41.3865953],[2.1751025,41.3866717],[2.1750493,41.3867129],[2.1749854,41.3867625],[2.1747248,41.3869556],[2.1746889,41.3869873],[2.1745901,41.3870602],[2.1745583,41.3870851],[2.1745162,41.3871145],[2.1741902,41.3873639],[2.1741395,41.3874014],[2.1740669,41.3874549],[2.1740282,41.3874835],[2.172969,41.3882952],[2.1729274,41.3883292],[2.172871,41.3883873],[2.1728441,41.3884052],[2.1728109,41.3884335],[2.1727801,41.3884717],[2.1726872,41.3883875],[2.1726538,41.3883555],[2.1724313,41.3880631],[2.1722873,41.3878901],[2.1716374,41.3871508],[2.1715873,41.3871051],[2.1715574,41.3870769],[2.1715179,41.3870514],[2.171476,41.3870271],[2.1713707,41.3869857],[2.1712248,41.3869292],[2.1711846,41.3869032],[2.1711329,41.3868709],[2.1711143,41.3868517],[2.170912,41.3866204],[2.1708387,41.3865361],[2.1703254,41.3859449],[2.1702358,41.3858532],[2.1701372,41.3857548],[2.169962,41.3856746],[2.169884,41.3856436],[2.1697998,41.385609]]]},"id":"barcelona::gothic-quarter"},{"type":"Feature","properties":{"id":"barcelona::eixample","name":"Eixample","cityId":"barcelona","city":"Barcelona","country":"Spain","parentName":null,"displayName":"l'Eixample, Barcelona, Barcelonès, Barcelona, Catalunya, España"},"geometry":{"type":"Polygon","coordinates":[[[2.1420218,41.380798],[2.1422195,41.3807089],[2.1423173,41.3806591],[2.1424327,41.380596],[2.1424974,41.3805597],[2.1426102,41.3804778],[2.1427435,41.3803779],[2.1428045,41.3803312],[2.1429359,41.380259],[2.1430869,41.380194],[2.1432238,41.3800979],[2.1432679,41.3800646],[2.1433981,41.3799674],[2.1435451,41.3798576],[2.1436277,41.3797959],[2.1438061,41.3796618],[2.1438965,41.3795891],[2.1439323,41.3795626],[2.1444111,41.3792072],[2.1446804,41.379006],[2.1447096,41.3789857],[2.1448608,41.3788778],[2.1448953,41.3788522],[2.1450074,41.3787633],[2.1450392,41.3787381],[2.1454121,41.3784593],[2.145686,41.3782534],[2.1457139,41.3782325],[2.1457414,41.3782109],[2.1458693,41.3781076],[2.1459075,41.3780769],[2.1460224,41.377989],[2.1460663,41.3779553],[2.1465372,41.3776051],[2.1468644,41.3773626],[2.1468927,41.3773417],[2.1469894,41.377269],[2.1471451,41.3771503],[2.1472199,41.377089],[2.1475208,41.3768657],[2.1477373,41.3767045],[2.1478391,41.3766288],[2.1479633,41.3765304],[2.147988,41.3765108],[2.1481444,41.3763849],[2.1481897,41.3763201],[2.1482216,41.3762532],[2.1482575,41.3762205],[2.1483355,41.3761497],[2.148468,41.3760459],[2.1487469,41.3758397],[2.1488308,41.3757779],[2.1488664,41.3757485],[2.1488992,41.3757166],[2.1489389,41.375666],[2.1489471,41.3756508],[2.1489538,41.375638],[2.1489546,41.3756324],[2.1489604,41.3755901],[2.1489586,41.3755391],[2.1489382,41.3754863],[2.1489232,41.3754644],[2.1489044,41.3754426],[2.1488463,41.3754064],[2.1489148,41.3754278],[2.1489408,41.3754359],[2.1490352,41.3754525],[2.1491335,41.3754564],[2.1491428,41.3754561],[2.1492443,41.3754462],[2.1493023,41.3754326],[2.1493626,41.3754157],[2.149443,41.3753847],[2.1495085,41.3753492],[2.1495358,41.3753327],[2.1495683,41.3753089],[2.1496064,41.3752764],[2.1496463,41.3752377],[2.1496767,41.375222],[2.1497028,41.3752096],[2.1497577,41.3751834],[2.1498349,41.3751531],[2.1498484,41.3751478],[2.1498811,41.3751364],[2.1499719,41.3751123],[2.1500565,41.3751023],[2.150112,41.3750952],[2.150165,41.3750967],[2.1517345,41.3750831],[2.1521314,41.3750824],[2.1522001,41.3750819],[2.1522578,41.3750812],[2.1522976,41.375081],[2.1528436,41.375078],[2.1533916,41.3750749],[2.1534433,41.3750749],[2.1535303,41.375074],[2.1537516,41.3750739],[2.1538196,41.3750751],[2.1539725,41.3750778],[2.1539824,41.3750158],[2.1540314,41.3749429],[2.1543329,41.374942],[2.1544325,41.3749417],[2.1544588,41.3749416],[2.1545145,41.3749415],[2.1554345,41.3749399],[2.1556936,41.3749379],[2.1557259,41.3749379],[2.1557967,41.3749377],[2.1560223,41.374937],[2.1565441,41.3749361],[2.1565726,41.3749358],[2.1566335,41.3749357],[2.157667,41.3749336],[2.1583672,41.3749321],[2.1584083,41.3749321],[2.1584648,41.3749319],[2.1586154,41.3749307],[2.1587905,41.3749335],[2.1588094,41.3749334],[2.1588542,41.3749334],[2.1592311,41.3749304],[2.1593365,41.3749302],[2.1598614,41.3749291],[2.159916,41.374929],[2.160032,41.3749287],[2.1601047,41.3749286],[2.1601635,41.3749285],[2.160225,41.3749283],[2.1604534,41.3749279],[2.1604586,41.3749279],[2.1605916,41.3749276],[2.1607527,41.3749273],[2.1609341,41.3749269],[2.1610412,41.3749263],[2.1610624,41.3749262],[2.1611245,41.3749259],[2.1613282,41.3749247],[2.1615159,41.3749237],[2.1616284,41.3749232],[2.1617114,41.3749227],[2.1621371,41.3749204],[2.1629001,41.3749163],[2.1629283,41.3749161],[2.1629987,41.3749157],[2.1631965,41.374915],[2.1633288,41.3749145],[2.1633916,41.3749143],[2.1634276,41.3749141],[2.1634565,41.3749141],[2.1635175,41.3749138],[2.1640438,41.3749145],[2.1645586,41.3749145],[2.1650405,41.3749144],[2.1651928,41.3749144],[2.1653021,41.3749154],[2.1653594,41.374916],[2.1654799,41.3749171],[2.1656035,41.3749169],[2.1656315,41.3749169],[2.1656838,41.3749168],[2.1661303,41.3749163],[2.1668054,41.3749154],[2.1672695,41.374911],[2.1673267,41.3749103],[2.1673467,41.3749104],[2.167378,41.3749101],[2.1673981,41.3749101],[2.1677355,41.3749139],[2.1678468,41.3749141],[2.1679184,41.3750379],[2.167822,41.3751435],[2.1677437,41.3752145],[2.167491,41.3754011],[2.1672629,41.375572],[2.1670789,41.375709],[2.1670088,41.3757663],[2.1668595,41.375873],[2.1668349,41.3758906],[2.1666453,41.3760316],[2.1665916,41.3760716],[2.1665538,41.3760979],[2.1663537,41.3762374],[2.1661245,41.3764073],[2.1660878,41.3764345],[2.1660522,41.3764608],[2.1659314,41.3765498],[2.1657417,41.3766911],[2.1654438,41.3769209],[2.1651967,41.3771095],[2.164717,41.3774714],[2.1646424,41.3775275],[2.1645771,41.3775781],[2.1643135,41.3777713],[2.1642763,41.3778011],[2.1637341,41.3782234],[2.1636125,41.3783181],[2.1633962,41.3784866],[2.1633722,41.3785053],[2.1631907,41.3786495],[2.1630917,41.3787247],[2.1630895,41.3788502],[2.1630929,41.3788728],[2.1633038,41.3802653],[2.1633099,41.3803098],[2.1633129,41.3803315],[2.1633153,41.3803494],[2.163318,41.3803598],[2.16332,41.3803658],[2.1633823,41.3807362],[2.1633853,41.3807532],[2.1633882,41.380773],[2.1635208,41.3816887],[2.1635285,41.3817305],[2.1635389,41.3817868],[2.1635526,41.3819025],[2.1635822,41.382147],[2.1636068,41.3823278],[2.163631,41.3825236],[2.1636354,41.3825593],[2.1636954,41.383043],[2.163721,41.3832695],[2.1637243,41.3832989],[2.1637329,41.3833762],[2.1638149,41.3840063],[2.1638315,41.3841429],[2.1638444,41.3842301],[2.1639291,41.3849124],[2.1639685,41.3851732],[2.1639756,41.3852185],[2.1639821,41.3852581],[2.1639971,41.3853293],[2.1640191,41.3853676],[2.1640511,41.3854069],[2.164162,41.3854931],[2.1643742,41.385673],[2.1644509,41.3857352],[2.1645084,41.3857815],[2.1646966,41.3859404],[2.1648808,41.3859271],[2.1651046,41.385906],[2.1651743,41.3858996],[2.1652568,41.3858924],[2.1652965,41.3858885],[2.165642,41.3858604],[2.1658141,41.3858428],[2.166705,41.3857677],[2.1668613,41.3857546],[2.1670994,41.3857345],[2.1671374,41.3857316],[2.1671584,41.38573],[2.1671768,41.3857286],[2.1674744,41.3857356],[2.1676016,41.3857142],[2.1676769,41.3857051],[2.1677232,41.3856996],[2.169282,41.385557],[2.1693407,41.3855539],[2.1694138,41.3855548],[2.1695921,41.3855616],[2.1697998,41.385609],[2.169884,41.3856436],[2.169962,41.3856746],[2.1701372,41.3857548],[2.1702358,41.3858532],[2.1703254,41.3859449],[2.1708387,41.3865361],[2.170912,41.3866204],[2.1711143,41.3868517],[2.1711329,41.3868709],[2.1711846,41.3869032],[2.1712248,41.3869292],[2.1713707,41.3869857],[2.171476,41.3870271],[2.1715179,41.3870514],[2.1715574,41.3870769],[2.1715873,41.3871051],[2.1716374,41.3871508],[2.1722873,41.3878901],[2.1724313,41.3880631],[2.1726538,41.3883555],[2.1726872,41.3883875],[2.1727801,41.3884717],[2.1727989,41.3884861],[2.1728201,41.3885024],[2.1729141,41.3885745],[2.1729477,41.3885995],[2.1732531,41.3888302],[2.1732829,41.3888522],[2.1733685,41.3889156],[2.1734584,41.3889506],[2.173522,41.388955],[2.1736039,41.3889556],[2.1736617,41.3889565],[2.1737004,41.3889557],[2.1737424,41.3889558],[2.1739023,41.3889554],[2.1756383,41.3889566],[2.1756722,41.3889572],[2.1758863,41.3889575],[2.1760227,41.3890608],[2.1760538,41.3890847],[2.1761528,41.3891609],[2.1762337,41.3892243],[2.1764867,41.389417],[2.176903,41.389722],[2.1769405,41.3897513],[2.1772217,41.3899686],[2.1772564,41.3899932],[2.1773652,41.3900703],[2.1773975,41.3900937],[2.177557,41.3901653],[2.1784705,41.3905049],[2.1791186,41.3907553],[2.1796961,41.3909826],[2.1797633,41.3910091],[2.1799183,41.3911006],[2.1800147,41.3911709],[2.1801883,41.3913086],[2.1802089,41.3913232],[2.1802381,41.3913427],[2.1802518,41.3913548],[2.1803099,41.3914057],[2.1804348,41.3915034],[2.1805473,41.3915888],[2.180643,41.3916606],[2.1806628,41.3916762],[2.1811689,41.3920745],[2.1811778,41.3920815],[2.181334,41.3922164],[2.1814834,41.3921026],[2.1815128,41.3920799],[2.1821609,41.3915798],[2.1823811,41.3914119],[2.1826029,41.3915727],[2.1826386,41.3916027],[2.1827889,41.3917158],[2.1832855,41.3920791],[2.1835358,41.392266],[2.1837416,41.3924157],[2.183814,41.3924683],[2.1844573,41.39294],[2.1846802,41.3930985],[2.184896,41.3932658],[2.1850025,41.3933422],[2.185581,41.3937798],[2.1858141,41.3939561],[2.1858568,41.3939897],[2.1860393,41.3941217],[2.1862069,41.394243],[2.186331,41.394331],[2.186444,41.3944179],[2.1864791,41.3944443],[2.1867199,41.3946252],[2.1866731,41.3946689],[2.1866432,41.3947202],[2.1866322,41.3947756],[2.186666,41.3948668],[2.1867099,41.3949164],[2.1867349,41.3949365],[2.186755,41.3949503],[2.1867661,41.3949579],[2.1867423,41.3951469],[2.1867415,41.395172],[2.1867416,41.3951834],[2.1867419,41.3952219],[2.1867447,41.395984],[2.1867505,41.3964359],[2.1867516,41.3964577],[2.1867524,41.3965059],[2.186752,41.3966454],[2.1867507,41.3967187],[2.1867498,41.397022],[2.1867497,41.3970575],[2.1867514,41.3978037],[2.1867513,41.3978453],[2.1867494,41.3979868],[2.1867636,41.3984716],[2.1867587,41.3986212],[2.1867602,41.3987439],[2.1867605,41.3987859],[2.1867632,41.3995791],[2.1867636,41.3996108],[2.1867715,41.4000828],[2.1867685,41.4001633],[2.1867677,41.40029],[2.1867672,41.4003204],[2.1867699,41.4010475],[2.1867688,41.4012398],[2.1867688,41.4014337],[2.1867667,41.4017784],[2.1867757,41.4021168],[2.1867733,41.402207],[2.1867727,41.403512],[2.1851055,41.4047354],[2.1847064,41.4050382],[2.1845871,41.4051288],[2.1845751,41.4051379],[2.1845192,41.4051819],[2.1844755,41.4052134],[2.1842883,41.4053576],[2.184219,41.4054091],[2.1835777,41.4058856],[2.1834399,41.4059891],[2.183377,41.4060356],[2.1833084,41.4060806],[2.183259,41.4061159],[2.1832181,41.406145],[2.1830986,41.4062299],[2.1830087,41.4062892],[2.1824251,41.4067352],[2.1823861,41.4067651],[2.1822443,41.4068797],[2.1822149,41.4069027],[2.1820355,41.4070343],[2.1820208,41.4070454],[2.1819917,41.4070674],[2.1813023,41.40759],[2.1812727,41.4076124],[2.1811411,41.4077121],[2.1811089,41.4077373],[2.180857,41.407933],[2.1808263,41.4079569],[2.1804648,41.4082386],[2.1802209,41.4084224],[2.1800464,41.4085527],[2.1800059,41.4085836],[2.1797792,41.4087563],[2.1791343,41.4092415],[2.1790458,41.4093081],[2.1788566,41.4094433],[2.1788009,41.409485],[2.1786127,41.4096319],[2.1785809,41.4096567],[2.1782898,41.4098683],[2.177893,41.4101761],[2.1777529,41.4102814],[2.1777023,41.4103174],[2.177505,41.4104659],[2.1774745,41.41049],[2.1771473,41.4107507],[2.1770089,41.4108585],[2.1768463,41.4109851],[2.1767921,41.4110296],[2.1767441,41.4110686],[2.1765987,41.4111712],[2.1765417,41.4112134],[2.1763779,41.4113396],[2.176324,41.4113811],[2.1760229,41.4116021],[2.176008,41.4116132],[2.1756595,41.4118714],[2.1754984,41.411991],[2.1754414,41.4120331],[2.1752032,41.4118552],[2.1749114,41.4116373],[2.1746765,41.4114618],[2.1745785,41.4113887],[2.1745364,41.4113572],[2.1743418,41.4111937],[2.1742534,41.4111291],[2.1740232,41.41096],[2.1738299,41.4108143],[2.1734767,41.4105454],[2.1734463,41.4105228],[2.1732768,41.4103925],[2.1732491,41.4103709],[2.1732395,41.4103634],[2.1730119,41.4101924],[2.1726442,41.4099156],[2.1726395,41.4099121],[2.1724231,41.4097492],[2.1723923,41.409726],[2.1723732,41.4097116],[2.1723244,41.4096748],[2.1722982,41.409655],[2.1721309,41.409531],[2.1719078,41.4093645],[2.1718791,41.4093434],[2.1713998,41.4089904],[2.171233,41.4088675],[2.1712107,41.408851],[2.1710223,41.4087147],[2.1707959,41.4085391],[2.1707822,41.4085289],[2.1703928,41.4082388],[2.1702336,41.4081145],[2.1701999,41.4080882],[2.1699549,41.4078969],[2.1699226,41.4078725],[2.1697886,41.4077709],[2.1697709,41.4077575],[2.1689019,41.4070992],[2.168867,41.4070732],[2.1686938,41.4069443],[2.1686751,41.4069301],[2.1688492,41.4067982],[2.168871,41.4067817],[2.1695363,41.4062764],[2.169571,41.4062503],[2.1697697,41.4061008],[2.1698152,41.4060666],[2.1699746,41.4059432],[2.1700176,41.4059108],[2.1704587,41.4055792],[2.1706261,41.405445],[2.1706373,41.4054362],[2.170648,41.4054278],[2.1706773,41.4054065],[2.1709113,41.4052311],[2.1710791,41.405108],[2.1711227,41.4050751],[2.1718069,41.4045575],[2.1718291,41.4045406],[2.1720527,41.4043697],[2.1718373,41.404212],[2.1718181,41.4041966],[2.1710994,41.4036672],[2.170901,41.4035224],[2.1707053,41.403373],[2.1706842,41.4033573],[2.1705636,41.4032682],[2.1702867,41.4030634],[2.1702371,41.4030251],[2.1699869,41.402834],[2.1698077,41.4026916],[2.1697614,41.4026545],[2.1695767,41.4025118],[2.1695608,41.4024994],[2.1692472,41.4022583],[2.168865,41.4019727],[2.1686726,41.4018319],[2.1684664,41.4016768],[2.1684477,41.4016632],[2.1678664,41.4012273],[2.1676784,41.4010843],[2.1676523,41.4010649],[2.1675128,41.4009612],[2.1674667,41.4009269],[2.1673755,41.4008591],[2.1673388,41.4008318],[2.1671193,41.4010125],[2.1670917,41.4010316],[2.1666998,41.4013319],[2.1665045,41.4014792],[2.166257,41.4016643],[2.166154,41.4017435],[2.1661242,41.4016911],[2.1661061,41.4016659],[2.1660673,41.4016148],[2.166014,41.4015758],[2.1659186,41.4015051],[2.1657216,41.4013534],[2.1654925,41.4011756],[2.1654582,41.4011499],[2.1652342,41.4009816],[2.1650345,41.4008294],[2.1645512,41.400461],[2.1643343,41.4002956],[2.1643074,41.4002751],[2.1640916,41.4001106],[2.1639065,41.3999695],[2.1634185,41.3995975],[2.163195,41.3994271],[2.1629609,41.3992441],[2.1627284,41.3990733],[2.1624039,41.3988373],[2.1620824,41.3985972],[2.1620467,41.3985698],[2.1618256,41.3983927],[2.161808,41.3983797],[2.1617167,41.3983078],[2.1616698,41.3982703],[2.1615785,41.3982034],[2.1611859,41.3979158],[2.1611132,41.39786],[2.160962,41.3977385],[2.1609478,41.3977296],[2.1607972,41.3976222],[2.1606375,41.397508],[2.1605458,41.3974418],[2.160509,41.3974113],[2.1603945,41.3973269],[2.1601453,41.3971357],[2.1598941,41.3969431],[2.1598619,41.3969221],[2.1598199,41.396889],[2.1597886,41.3968659],[2.1596551,41.3967514],[2.1595526,41.3967327],[2.1593728,41.396702],[2.1592558,41.3965486],[2.158998,41.3964044],[2.1589555,41.396395],[2.1583322,41.396238],[2.1569464,41.3958891],[2.1568968,41.3958768],[2.1559577,41.3956355],[2.155903,41.3956214],[2.1558673,41.395612],[2.1556638,41.395562],[2.1556097,41.3955488],[2.1555235,41.3955277],[2.1554885,41.3955191],[2.1554327,41.3955053],[2.1553217,41.3954795],[2.1550156,41.3953995],[2.1549764,41.3953896],[2.154918,41.3953749],[2.1547106,41.3953225],[2.1545312,41.3952766],[2.1544991,41.3952685],[2.1532039,41.3949402],[2.1531484,41.3949261],[2.1530954,41.394912],[2.1530474,41.3948998],[2.1515715,41.3945236],[2.1515113,41.3945083],[2.1513026,41.3944543],[2.1511118,41.3944065],[2.1510815,41.394399],[2.1509755,41.3943729],[2.1504742,41.3942481],[2.1504411,41.3942399],[2.1498589,41.394094],[2.1498079,41.3940812],[2.1496249,41.3940367],[2.1494187,41.3939838],[2.1493841,41.3939748],[2.1481776,41.393668],[2.1481276,41.3936553],[2.1479156,41.3936],[2.1477231,41.3935538],[2.1476713,41.3935407],[2.1464255,41.3932262],[2.1462577,41.3931826],[2.1460772,41.3931369],[2.1459331,41.3931005],[2.1458119,41.3930707],[2.1457539,41.3930565],[2.1456004,41.3930171],[2.1455482,41.3930039],[2.1453337,41.3929451],[2.1452046,41.3929258],[2.1451608,41.3929192],[2.1451053,41.3929126],[2.1450581,41.3929087],[2.1450117,41.3929073],[2.1449218,41.3929221],[2.1448566,41.3928846],[2.1444956,41.3926972],[2.1441928,41.3924418],[2.1441139,41.3922896],[2.1440877,41.392236],[2.1440771,41.3922144],[2.1440556,41.3921592],[2.1440133,41.3920574],[2.1439221,41.3918428],[2.143875,41.3917347],[2.1438298,41.391625],[2.1437704,41.3914848],[2.1437282,41.391383],[2.1437088,41.3913298],[2.1436912,41.3912789],[2.1435788,41.3908916],[2.1435168,41.3906857],[2.1435087,41.3906587],[2.1434684,41.3905182],[2.1434401,41.3904052],[2.1432543,41.3896641],[2.1432121,41.3894959],[2.1431477,41.3892388],[2.143069,41.3889358],[2.1430621,41.3889096],[2.1430186,41.3887522],[2.1429908,41.38864],[2.1428606,41.3880676],[2.1428006,41.3878093],[2.1427946,41.3877868],[2.1427657,41.3876663],[2.1427515,41.3875996],[2.1427291,41.3875001],[2.1427074,41.3873808],[2.1425451,41.3864108],[2.1425231,41.3862316],[2.1425203,41.386203],[2.1425162,41.3861671],[2.142512,41.3861351],[2.1424967,41.3859921],[2.1424882,41.3858921],[2.1424773,41.3857773],[2.1424657,41.3856206],[2.1424582,41.3854948],[2.1424506,41.3853454],[2.1424406,41.3851804],[2.142387,41.3845062],[2.142384,41.3844679],[2.1423703,41.3841828],[2.1423648,41.3840713],[2.1423494,41.383816],[2.1423326,41.383571],[2.1423081,41.3832083],[2.1422944,41.3830071],[2.1422919,41.3829772],[2.1422768,41.3827992],[2.1422694,41.3827115],[2.1422659,41.3826625],[2.1422527,41.382514],[2.1422419,41.3823546],[2.1421712,41.3813152],[2.1421665,41.3811878],[2.142161,41.3811256],[2.1421596,41.3810956],[2.1421537,41.3810208],[2.1421524,41.3810046],[2.1421497,41.3809792],[2.1421456,41.380948],[2.1421224,41.3809004],[2.142085,41.3808489],[2.1420218,41.380798]]]},"id":"barcelona::eixample"},{"type":"Feature","properties":{"id":"barcelona::gracia","name":"Gracia","cityId":"barcelona","city":"Barcelona","country":"Spain","parentName":null,"displayName":"Gràcia, Barcelona, Barcelonès, Barcelona, Catalunya, España"},"geometry":{"type":"Polygon","coordinates":[[[2.1297176,41.4196157],[2.1299896,41.4196033],[2.1301645,41.4193803],[2.1302928,41.4187552],[2.1306072,41.4183172],[2.1306645,41.4183106],[2.1307196,41.4182968],[2.1308662,41.4182594],[2.1310316,41.4182273],[2.1311084,41.4182209],[2.1311843,41.4182223],[2.1312587,41.4182307],[2.1313327,41.4182447],[2.1314505,41.4182714],[2.1315654,41.4183022],[2.1316546,41.4183356],[2.131739,41.4183737],[2.1318995,41.4184566],[2.1319728,41.4185013],[2.1320693,41.4185659],[2.1321181,41.418578],[2.1321906,41.4185853],[2.1322409,41.4185844],[2.1322897,41.4185754],[2.1323296,41.4185613],[2.1323652,41.4185419],[2.1325126,41.4184424],[2.1325835,41.4183983],[2.1326606,41.418355],[2.1326854,41.4183434],[2.1328114,41.4182922],[2.1330649,41.4182128],[2.1332181,41.4181585],[2.13367,41.4179984],[2.1339245,41.4179166],[2.1341018,41.4178327],[2.1342622,41.4177568],[2.134697,41.4174146],[2.1349189,41.4172245],[2.1351629,41.4170155],[2.1351733,41.4170065],[2.1352358,41.416953],[2.1352802,41.4169145],[2.1359396,41.4163302],[2.1360904,41.4161921],[2.1362015,41.416078],[2.1362875,41.4159829],[2.1362118,41.4159261],[2.136158,41.4158449],[2.1361148,41.4157556],[2.136085,41.4156577],[2.1360714,41.4155638],[2.1360707,41.4155031],[2.1360757,41.4154406],[2.1360963,41.4153621],[2.1361236,41.4153053],[2.1361593,41.4152436],[2.1362031,41.4151855],[2.1362144,41.4151705],[2.1363268,41.415064],[2.1367235,41.4147194],[2.1369443,41.4145273],[2.1369967,41.4144836],[2.137124,41.4143942],[2.1373992,41.414256],[2.1376499,41.4141433],[2.1377272,41.4141116],[2.1378192,41.4140645],[2.1379164,41.4140052],[2.1379306,41.4139946],[2.1379792,41.4139586],[2.1386682,41.413419],[2.1387271,41.4133729],[2.1396858,41.412622],[2.1397202,41.412595],[2.139928,41.4124216],[2.1400152,41.4123567],[2.140041,41.4123382],[2.1401115,41.4122932],[2.140686,41.411852],[2.1407726,41.4117942],[2.1408408,41.4117626],[2.1408608,41.4117533],[2.140955,41.4117247],[2.1416749,41.4116432],[2.1419751,41.4116085],[2.1425004,41.411556],[2.1430979,41.4114963],[2.1431306,41.411493],[2.1432823,41.411481],[2.1434639,41.4114638],[2.1435194,41.4114587],[2.1439814,41.4114163],[2.1445742,41.4113714],[2.1447353,41.4113502],[2.1448148,41.4113316],[2.1448849,41.411314],[2.1450067,41.4112699],[2.145031,41.4112601],[2.1451214,41.4112166],[2.1451763,41.4111894],[2.1452253,41.4111603],[2.1453178,41.4110939],[2.1454045,41.4110225],[2.1454671,41.410965],[2.14558,41.4108494],[2.1456215,41.4108067],[2.1456549,41.4107557],[2.1456731,41.4107226],[2.1456958,41.4106815],[2.1457571,41.4105338],[2.1458599,41.4103037],[2.1459207,41.4101748],[2.1459687,41.4100975],[2.1462592,41.4097343],[2.1462718,41.4097185],[2.1462959,41.4096883],[2.146341,41.4096327],[2.1467172,41.4091682],[2.1471246,41.4086651],[2.1471613,41.4086198],[2.1471937,41.4085797],[2.1473869,41.408336],[2.1474043,41.408314],[2.1474757,41.4082311],[2.1474882,41.4082129],[2.1475724,41.4081259],[2.1479802,41.4077384],[2.1479979,41.4077216],[2.1480663,41.4076648],[2.1486572,41.407186],[2.1483725,41.4069905],[2.1484734,41.4069038],[2.1483676,41.4068207],[2.148449,41.4067475],[2.1485369,41.4067621],[2.1487454,41.4065899],[2.1487959,41.4066229],[2.1489196,41.4065264],[2.1490059,41.4065826],[2.1489115,41.4066668],[2.1491253,41.4068067],[2.1492743,41.406686],[2.1492987,41.4066662],[2.1494377,41.4065536],[2.1495251,41.4064912],[2.1495944,41.4064429],[2.1496238,41.4064226],[2.1497343,41.4063377],[2.1498444,41.406255],[2.149919,41.4061876],[2.1499739,41.4061381],[2.1500598,41.4060605],[2.1500712,41.4059738],[2.1500732,41.405959],[2.1500727,41.4059458],[2.1500717,41.4059204],[2.1500512,41.4058277],[2.1500343,41.4057505],[2.150025,41.4057139],[2.1499986,41.4056098],[2.1499783,41.4055165],[2.1499853,41.4054175],[2.1500412,41.4052651],[2.15005,41.4052411],[2.1502089,41.4048082],[2.1503334,41.4044867],[2.1503815,41.4043357],[2.1503851,41.4042104],[2.1502763,41.4040424],[2.150249,41.404015],[2.1501239,41.4038892],[2.1500181,41.4037891],[2.1499869,41.4036346],[2.14996,41.4035123],[2.1499565,41.4034964],[2.1499205,41.4033332],[2.1499175,41.4032683],[2.1499132,41.4032353],[2.1499141,41.403193],[2.1499291,41.4031312],[2.1499697,41.4030422],[2.1500033,41.4029957],[2.1500217,41.4029685],[2.1500518,41.402924],[2.1501463,41.4027981],[2.1503948,41.4024775],[2.1504168,41.4024492],[2.1505689,41.402253],[2.1507996,41.4019578],[2.1508087,41.4019461],[2.1508584,41.4018826],[2.1509794,41.4017201],[2.1510958,41.4016002],[2.1511281,41.4015453],[2.1511581,41.401492],[2.1511749,41.4014636],[2.1511985,41.4014001],[2.1512224,41.4012098],[2.1512261,41.4011332],[2.1512271,41.4011022],[2.1512147,41.4009642],[2.1511871,41.4008496],[2.1511588,41.400781],[2.151141,41.4007478],[2.1511262,41.4007163],[2.1511071,41.4006725],[2.1510957,41.4006285],[2.1510938,41.4005971],[2.1510939,41.4005731],[2.1511025,41.4005314],[2.1511235,41.4004639],[2.1511973,41.4004104],[2.1512746,41.400354],[2.1513517,41.4002976],[2.1514712,41.4002],[2.1515936,41.4001047],[2.1516304,41.4000742],[2.1517026,41.4000359],[2.1517717,41.399968],[2.1519906,41.3997452],[2.1520556,41.399679],[2.1521251,41.3996082],[2.1521566,41.3995761],[2.1521925,41.3995398],[2.1522384,41.3994937],[2.1523125,41.3994177],[2.1524337,41.3992933],[2.1524883,41.3992386],[2.1527836,41.3989397],[2.1528866,41.3988342],[2.1529439,41.3987778],[2.153041,41.3986782],[2.1531514,41.3985663],[2.1531701,41.3985473],[2.1532431,41.3984728],[2.1532576,41.3983712],[2.1532965,41.3983292],[2.1539068,41.3977065],[2.1539276,41.3976839],[2.1539777,41.3976346],[2.1540233,41.3975896],[2.15437,41.3972381],[2.1544113,41.3971957],[2.1544636,41.3971425],[2.154817,41.3967837],[2.1549054,41.3966891],[2.1549625,41.3966228],[2.1550777,41.3964689],[2.1552087,41.3962952],[2.1552337,41.3962598],[2.1553283,41.3961206],[2.155526,41.3957898],[2.1555452,41.3957576],[2.1555972,41.395676],[2.1556053,41.3956614],[2.155637,41.3956076],[2.1556638,41.395562],[2.1558673,41.395612],[2.155903,41.3956214],[2.1559577,41.3956355],[2.1568968,41.3958768],[2.1569464,41.3958891],[2.1583322,41.396238],[2.1589555,41.396395],[2.158998,41.3964044],[2.1592558,41.3965486],[2.1593728,41.396702],[2.1595526,41.3967327],[2.1596551,41.3967514],[2.1597886,41.3968659],[2.1598199,41.396889],[2.1598619,41.3969221],[2.1598941,41.3969431],[2.1601453,41.3971357],[2.1603945,41.3973269],[2.160509,41.3974113],[2.1605458,41.3974418],[2.1606375,41.397508],[2.1607972,41.3976222],[2.1609478,41.3977296],[2.160962,41.3977385],[2.1611132,41.39786],[2.1611859,41.3979158],[2.1615785,41.3982034],[2.1616698,41.3982703],[2.1617167,41.3983078],[2.161808,41.3983797],[2.1618256,41.3983927],[2.1620467,41.3985698],[2.1620824,41.3985972],[2.1624039,41.3988373],[2.1627284,41.3990733],[2.1629609,41.3992441],[2.163195,41.3994271],[2.1634185,41.3995975],[2.1639065,41.3999695],[2.1640916,41.4001106],[2.1643074,41.4002751],[2.1643343,41.4002956],[2.1645512,41.400461],[2.1650345,41.4008294],[2.1652342,41.4009816],[2.1654582,41.4011499],[2.1654925,41.4011756],[2.1657216,41.4013534],[2.1659186,41.4015051],[2.166014,41.4015758],[2.1660673,41.4016148],[2.1661061,41.4016659],[2.1661242,41.4016911],[2.166154,41.4017435],[2.166257,41.4016643],[2.1665045,41.4014792],[2.1666998,41.4013319],[2.1670917,41.4010316],[2.1671193,41.4010125],[2.1673388,41.4008318],[2.1673755,41.4008591],[2.1674667,41.4009269],[2.1675128,41.4009612],[2.1676523,41.4010649],[2.1676784,41.4010843],[2.1678664,41.4012273],[2.1684477,41.4016632],[2.1684664,41.4016768],[2.1686726,41.4018319],[2.168865,41.4019727],[2.1692472,41.4022583],[2.1695608,41.4024994],[2.1695767,41.4025118],[2.1697614,41.4026545],[2.1698077,41.4026916],[2.1699869,41.402834],[2.1702371,41.4030251],[2.1702867,41.4030634],[2.1705636,41.4032682],[2.1706842,41.4033573],[2.1707053,41.403373],[2.170901,41.4035224],[2.1710994,41.4036672],[2.1718181,41.4041966],[2.1718373,41.404212],[2.1720527,41.4043697],[2.1718291,41.4045406],[2.1718069,41.4045575],[2.1711227,41.4050751],[2.1710791,41.405108],[2.1709113,41.4052311],[2.1706773,41.4054065],[2.170648,41.4054278],[2.1706373,41.4054362],[2.1706261,41.405445],[2.1704587,41.4055792],[2.1700176,41.4059108],[2.1699746,41.4059432],[2.1698152,41.4060666],[2.1697697,41.4061008],[2.169571,41.4062503],[2.1695363,41.4062764],[2.168871,41.4067817],[2.1688492,41.4067982],[2.1686751,41.4069301],[2.1684668,41.407084],[2.1684385,41.4071049],[2.168433,41.407109],[2.1680077,41.4074299],[2.1677978,41.4075882],[2.1677461,41.4076276],[2.1675772,41.4077553],[2.1675601,41.4077682],[2.1671273,41.4080935],[2.1664852,41.4085761],[2.1659491,41.4089797],[2.1659312,41.4089932],[2.1658678,41.4090409],[2.1658125,41.4090824],[2.1657801,41.4091067],[2.1652355,41.4095164],[2.1651478,41.4095786],[2.1650884,41.4096236],[2.1644535,41.4101098],[2.1643321,41.4101965],[2.1642813,41.4102356],[2.1641459,41.4103319],[2.1641031,41.4103668],[2.1639165,41.4105021],[2.1638382,41.4105746],[2.1638125,41.4105994],[2.1637931,41.4106182],[2.1637642,41.4106463],[2.163705,41.4107035],[2.1635605,41.4108701],[2.1631946,41.4112981],[2.1628922,41.4116519],[2.162414,41.4122132],[2.1623978,41.4122384],[2.1623442,41.4123049],[2.1622634,41.4124049],[2.1622372,41.4124343],[2.1621727,41.4125065],[2.1621085,41.4125793],[2.1620409,41.4126536],[2.1620127,41.4126842],[2.1619481,41.4127532],[2.161919,41.412787],[2.1616014,41.413156],[2.1612988,41.4135116],[2.1612419,41.4135782],[2.1613207,41.4136296],[2.1614628,41.4137347],[2.1614363,41.413828],[2.1614242,41.4138526],[2.1613895,41.4139282],[2.161368,41.4139664],[2.1613063,41.4140192],[2.1611635,41.4140961],[2.1611163,41.4141019],[2.1610895,41.4141047],[2.1610506,41.4141025],[2.1609702,41.4140839],[2.1608207,41.4140207],[2.1607666,41.4139984],[2.1607136,41.413973],[2.1606387,41.4139413],[2.160564,41.4139114],[2.1605159,41.4139027],[2.1604571,41.4138966],[2.1603888,41.4138954],[2.160318,41.4139115],[2.160207,41.4139411],[2.1599967,41.4140191],[2.1598635,41.4140762],[2.1597509,41.4141277],[2.1596342,41.4141842],[2.1595234,41.4142425],[2.1593258,41.4143652],[2.1592477,41.4144078],[2.1592046,41.4144354],[2.1591464,41.4144742],[2.1589804,41.4146103],[2.158932,41.4146468],[2.158843,41.4147075],[2.1587056,41.4148357],[2.1586664,41.4148764],[2.1586446,41.4148991],[2.1585675,41.4149785],[2.1584637,41.4150981],[2.1584347,41.4151314],[2.1583382,41.41524],[2.1582121,41.4154034],[2.1581022,41.4155588],[2.1579835,41.4157478],[2.1578816,41.4159213],[2.1578574,41.4159832],[2.1578226,41.4160721],[2.1577602,41.4162099],[2.1577167,41.4163054],[2.1576523,41.4164276],[2.1576201,41.4164774],[2.1575852,41.4165146],[2.1575369,41.4165465],[2.1574981,41.4165599],[2.1574558,41.4165669],[2.1573808,41.4165699],[2.1573325,41.4165659],[2.1572862,41.4165553],[2.1572534,41.4165402],[2.1572265,41.4165247],[2.1571796,41.4164885],[2.1571447,41.4164457],[2.1568192,41.4159437],[2.156776,41.4158771],[2.1567049,41.4157554],[2.1566871,41.4157162],[2.1566479,41.4156297],[2.1564361,41.4154874],[2.1561685,41.4153036],[2.1560566,41.4152269],[2.1560016,41.4151917],[2.1559453,41.4151631],[2.1558829,41.4151404],[2.1558233,41.4151223],[2.1557247,41.4151042],[2.1556241,41.4150992],[2.1554874,41.4151127],[2.1554263,41.4151329],[2.1553775,41.4151526],[2.1553257,41.4151797],[2.1552876,41.4152068],[2.1552291,41.4152601],[2.1551788,41.4152304],[2.1547262,41.4151598],[2.1536888,41.4160096],[2.1536002,41.4160995],[2.1531751,41.4164582],[2.1530402,41.4165501],[2.1530165,41.4165662],[2.1529914,41.4165833],[2.1527527,41.4167649],[2.1527101,41.4168582],[2.1525922,41.4169661],[2.1524073,41.4170837],[2.1522352,41.4172157],[2.152069,41.4173449],[2.1518878,41.4174844],[2.1517157,41.4175684],[2.1514968,41.4176065],[2.1513166,41.4176208],[2.1512779,41.4176239],[2.1511227,41.4176915],[2.1510253,41.4177872],[2.150967,41.4178736],[2.1509562,41.4179154],[2.1509554,41.4179526],[2.1510033,41.4180425],[2.1510772,41.4182139],[2.1511633,41.4183722],[2.1512006,41.4185091],[2.1512582,41.4185959],[2.1515589,41.4190504],[2.1516025,41.4191811],[2.15164,41.4192935],[2.1516526,41.4194128],[2.1516657,41.4195357],[2.1516924,41.4197881],[2.1516971,41.4198322],[2.1517249,41.4199227],[2.1517502,41.420031],[2.1517782,41.4201485],[2.1517976,41.4201746],[2.1515972,41.42018],[2.1515477,41.4201789],[2.1515152,41.4201771],[2.1513999,41.4201771],[2.1510919,41.4201984],[2.1509861,41.4202066],[2.1503897,41.4202785],[2.1501969,41.4203018],[2.1499825,41.4203222],[2.149722,41.4203421],[2.1494331,41.4203555],[2.1493908,41.4203575],[2.1492456,41.4203648],[2.1493371,41.4204678],[2.1493527,41.4204853],[2.1493802,41.4205172],[2.1494978,41.4206489],[2.1494913,41.4208391],[2.1494878,41.420946],[2.1494784,41.4212331],[2.1494658,41.4216101],[2.149415,41.4216336],[2.1492201,41.421637],[2.1491052,41.4216311],[2.14886,41.4216292],[2.1480955,41.4216105],[2.1479686,41.4216191],[2.1478764,41.4216215],[2.1477756,41.4215833],[2.1468397,41.4212288],[2.1463118,41.4210284],[2.1460725,41.4210391],[2.1458524,41.4210194],[2.145782,41.4210131],[2.1455529,41.4209839],[2.1454098,41.4209643],[2.1453627,41.4209578],[2.1451643,41.4209134],[2.1449822,41.4208704],[2.1448043,41.4208351],[2.1447122,41.4208121],[2.1446468,41.420737],[2.1445425,41.4206035],[2.1444586,41.4205192],[2.1442397,41.4203259],[2.1440836,41.4202011],[2.1439837,41.4201748],[2.1439165,41.4201689],[2.1438509,41.42016],[2.1438142,41.4202005],[2.143803,41.4202147],[2.1436977,41.420311],[2.1432496,41.4206437],[2.1431897,41.4206891],[2.1430007,41.4208362],[2.1421585,41.4214716],[2.1420781,41.4215174],[2.1419728,41.4215451],[2.1418734,41.4215515],[2.1417759,41.4215344],[2.141012,41.421319],[2.1409778,41.4213093],[2.1409453,41.4213031],[2.1407904,41.4212424],[2.1406642,41.4211929],[2.1405827,41.4210645],[2.1403184,41.4205161],[2.1402903,41.4204545],[2.1402382,41.4204369],[2.1401983,41.4204313],[2.1401851,41.4204314],[2.1401474,41.4204384],[2.1401177,41.4204471],[2.1400711,41.4204774],[2.1400453,41.4205009],[2.1399953,41.420401],[2.1399864,41.4203832],[2.1399313,41.4202708],[2.1388671,41.4205665],[2.1387171,41.42062],[2.138694,41.4206272],[2.1384954,41.4206894],[2.1379421,41.420867],[2.1378375,41.4209069],[2.1377907,41.4209313],[2.1377469,41.4209626],[2.1377155,41.4209961],[2.1376915,41.4210329],[2.1376755,41.4210721],[2.1376679,41.4211127],[2.1376688,41.4211531],[2.1376781,41.421193],[2.1376955,41.4212312],[2.1377205,41.421267],[2.1377527,41.4212995],[2.1378001,41.4213329],[2.1378575,41.4213606],[2.1379556,41.4213969],[2.1381626,41.4214793],[2.1382115,41.4215023],[2.1382572,41.4215288],[2.1382993,41.4215584],[2.1383509,41.4216043],[2.1383893,41.4216518],[2.1384132,41.4216921],[2.1384306,41.4217343],[2.1384419,41.4217838],[2.1384442,41.421834],[2.1384388,41.4218903],[2.1384244,41.4219454],[2.1384037,41.4220094],[2.1383968,41.4220309],[2.13839,41.4220519],[2.1383516,41.4221496],[2.1382424,41.4224274],[2.1381933,41.4225522],[2.1381797,41.4225893],[2.1381753,41.4226626],[2.1381082,41.4228232],[2.1380619,41.4229033],[2.1380084,41.4229809],[2.1379446,41.4230574],[2.1378742,41.4231306],[2.1377774,41.4232169],[2.1376715,41.4232971],[2.1375727,41.4233547],[2.1374679,41.4234059],[2.1373642,41.4234481],[2.1372607,41.423482],[2.1371442,41.4235116],[2.1370642,41.423527],[2.1369831,41.4235386],[2.1365153,41.4235735],[2.1364576,41.4235834],[2.1364055,41.4235966],[2.1363558,41.4236136],[2.1363091,41.4236358],[2.1362669,41.423663],[2.1362303,41.4236972],[2.1362009,41.4237351],[2.1361796,41.4237759],[2.1361668,41.4238187],[2.1361606,41.4238572],[2.1361661,41.4242521],[2.136162,41.4243005],[2.1361511,41.4243482],[2.1361335,41.4243948],[2.1360988,41.4244505],[2.1360574,41.4245033],[2.1360076,41.4245518],[2.1359547,41.4245924],[2.135896,41.4246281],[2.1358322,41.4246586],[2.1351332,41.4248921],[2.1351105,41.4248532],[2.1350577,41.4247018],[2.1351607,41.4245731],[2.1353514,41.4244259],[2.1353514,41.4243319],[2.1353395,41.4242156],[2.1352017,41.4240171],[2.1350421,41.4238593],[2.1349002,41.42376],[2.1348294,41.4236968],[2.1347793,41.4235877],[2.1346571,41.4236147],[2.1345282,41.4233733],[2.1343801,41.4232319],[2.134322,41.4231254],[2.134281,41.4230124],[2.1342505,41.4228878],[2.1342325,41.4227564],[2.1342369,41.4226872],[2.1342648,41.4226243],[2.1343311,41.4225458],[2.1344552,41.4224671],[2.1345685,41.4223738],[2.1347084,41.422291],[2.1349201,41.4220781],[2.1350333,41.422051],[2.1350685,41.4220346],[2.1351044,41.4220299],[2.135215,41.4220171],[2.1352247,41.421763],[2.1352361,41.4216459],[2.135292,41.4215489],[2.1353263,41.4214959],[2.1353798,41.4213839],[2.1353243,41.4213735],[2.1352908,41.4213742],[2.135258,41.4213797],[2.1352258,41.4213901],[2.135197,41.4214051],[2.1351726,41.421424],[2.1347189,41.4218473],[2.1346925,41.4218667],[2.1346613,41.4218816],[2.1346253,41.4218916],[2.1345873,41.4218955],[2.1344149,41.4219002],[2.1343014,41.4218965],[2.1341865,41.4218873],[2.1341091,41.4218744],[2.1338315,41.421795],[2.1337657,41.4217844],[2.1336988,41.421779],[2.1336351,41.4217786],[2.1335718,41.4217829],[2.1333685,41.4218271],[2.1333241,41.4218328],[2.133279,41.421834],[2.1332342,41.4218307],[2.1331828,41.4218213],[2.133134,41.4218061],[2.1330889,41.4217853],[2.1329093,41.4216444],[2.1328269,41.4215666],[2.1327626,41.4215282],[2.1327236,41.4215049],[2.1325977,41.4215109],[2.1324312,41.4215067],[2.1318584,41.4214265],[2.1316105,41.4214026],[2.1313713,41.4213962],[2.13133,41.4213889],[2.1312926,41.4213738],[2.1312618,41.4213519],[2.1312432,41.42133],[2.1312388,41.421321],[2.1312312,41.4213056],[2.1312265,41.4212799],[2.1312292,41.421254],[2.131259,41.4211349],[2.1312756,41.4210888],[2.131304,41.4210423],[2.1313571,41.4209864],[2.1314818,41.4208723],[2.1315771,41.420775],[2.1316557,41.4206822],[2.1318596,41.4204181],[2.1320506,41.4201741],[2.1321871,41.420012],[2.1322077,41.4199759],[2.1322062,41.4199381],[2.1321885,41.4199005],[2.1321635,41.4198654],[2.1321307,41.4198326],[2.1320915,41.419804],[2.1318708,41.4197241],[2.1318399,41.419715],[2.1316999,41.4196739],[2.1315456,41.4196116],[2.1313797,41.4195273],[2.1313636,41.4195178],[2.1312117,41.419428],[2.1311646,41.4194046],[2.1311119,41.4193897],[2.131056,41.419384],[2.1309998,41.4193878],[2.1309465,41.4194007],[2.1308983,41.4194221],[2.1308577,41.419451],[2.1308265,41.4194859],[2.1308064,41.4195251],[2.1306879,41.4197824],[2.13064,41.4198558],[2.1306104,41.4198922],[2.1305728,41.4199243],[2.1305395,41.4199451],[2.1305027,41.4199624],[2.1304632,41.4199759],[2.1303432,41.4200156],[2.1302006,41.420052],[2.1301613,41.420065],[2.1301194,41.4200717],[2.1300764,41.420072],[2.1300343,41.4200657],[2.1299948,41.4200531],[2.1299558,41.4200324],[2.129924,41.4200056],[2.129901,41.4199741],[2.1297875,41.4197075],[2.129758,41.4196606],[2.1297176,41.4196157]]]},"id":"barcelona::gracia"},{"type":"Feature","properties":{"id":"barcelona::poble-sec","name":"Poble-sec","cityId":"barcelona","city":"Barcelona","country":"Spain","parentName":null,"displayName":"el Poble-sec, Sants-Montjuïc, Barcelona, Barcelonès, Barcelona, Catalunya, 08004, España"},"geometry":{"type":"Polygon","coordinates":[[[2.1421026,41.3660145],[2.1421617,41.3655099],[2.143052,41.3648724],[2.1428753,41.3646665],[2.1430642,41.3645795],[2.143112,41.3645574],[2.1432818,41.364461],[2.143354,41.3644114],[2.1433931,41.3643845],[2.1434102,41.3643673],[2.1434297,41.3643478],[2.1435,41.3642772],[2.1435487,41.3642283],[2.143642,41.3641537],[2.1437747,41.3640643],[2.1440017,41.363895],[2.1440899,41.3638278],[2.1441757,41.363762],[2.1443229,41.3636897],[2.1452536,41.3633157],[2.1454205,41.3632591],[2.1455038,41.3632477],[2.1456548,41.3632574],[2.1458188,41.3632508],[2.145928,41.3632408],[2.1460047,41.3632205],[2.1461114,41.3632123],[2.1461671,41.3631278],[2.1462538,41.3630446],[2.1464437,41.3629601],[2.1466797,41.362874],[2.1470574,41.3627321],[2.1472554,41.3626373],[2.1473738,41.3625806],[2.1476483,41.3624174],[2.1478066,41.3623113],[2.1481253,41.3620628],[2.1484941,41.3617586],[2.1487642,41.3615075],[2.1489616,41.3612756],[2.1491847,41.3609148],[2.1493062,41.3606238],[2.1493294,41.3605392],[2.1493155,41.3602197],[2.149283,41.3600397],[2.1492515,41.359984],[2.1492105,41.359897],[2.1490546,41.359815],[2.1489396,41.3597622],[2.1487738,41.3596976],[2.1482014,41.3597829],[2.1474988,41.3599625],[2.146988,41.3600343],[2.1465759,41.3600008],[2.1462637,41.3599378],[2.145946,41.3598271],[2.1456792,41.3596578],[2.145348,41.3594963],[2.1450541,41.3593402],[2.1450308,41.3593278],[2.1450038,41.3593134],[2.1447291,41.3591675],[2.1447941,41.3589386],[2.1448021,41.3589105],[2.144828,41.358819],[2.1448366,41.3584518],[2.1448366,41.3580331],[2.1449244,41.3577731],[2.1450044,41.3576151],[2.1451818,41.3573917],[2.1452448,41.3573288],[2.1455765,41.3570348],[2.1458109,41.3568214],[2.145868,41.3567533],[2.1459906,41.3565463],[2.1460645,41.356346],[2.1461841,41.355907],[2.1462505,41.355706],[2.1462707,41.3556451],[2.1463104,41.3555781],[2.1463862,41.3554499],[2.1465274,41.3552112],[2.1469652,41.3548891],[2.1473087,41.3547083],[2.147809,41.3544456],[2.1488036,41.3539422],[2.1504831,41.3530944],[2.1505122,41.3530797],[2.1508538,41.3529075],[2.1510323,41.3528015],[2.1510595,41.3527879],[2.152089,41.3522738],[2.1522802,41.3521705],[2.1523633,41.3521285],[2.152446,41.3520919],[2.1525242,41.3520663],[2.1526197,41.3520413],[2.1526873,41.3520309],[2.1527655,41.3520198],[2.1528356,41.3520141],[2.1529408,41.3520162],[2.1530499,41.3520251],[2.1532713,41.3520591],[2.1536745,41.3521173],[2.1540653,41.3521781],[2.1553285,41.3523998],[2.1562392,41.3527612],[2.1564441,41.3528354],[2.156543,41.3528863],[2.1566483,41.3529405],[2.1567956,41.3530164],[2.1570104,41.3531388],[2.1573776,41.3533756],[2.157611,41.3535226],[2.1578413,41.353649],[2.1583404,41.3539186],[2.1585573,41.3540381],[2.1589007,41.3542357],[2.158949,41.3542777],[2.1591942,41.3544953],[2.1606081,41.3557986],[2.1610585,41.3562085],[2.1623803,41.357408],[2.162884,41.3578499],[2.1630735,41.3580034],[2.163263,41.3581489],[2.1638046,41.3585522],[2.1648118,41.3592799],[2.1650387,41.3594378],[2.1653174,41.3596198],[2.165534,41.3597499],[2.1660583,41.3600633],[2.16647,41.3603326],[2.1668157,41.3605728],[2.1671351,41.3608053],[2.1685211,41.3618024],[2.1687302,41.361971],[2.1688865,41.3621069],[2.1689947,41.3622126],[2.1691065,41.3623315],[2.1692995,41.3625482],[2.169697,41.3630863],[2.170898,41.3647079],[2.1710997,41.3649976],[2.1712496,41.3652397],[2.1712792,41.3652907],[2.1713505,41.3654134],[2.1715094,41.3657076],[2.1718021,41.366268],[2.171869,41.3664472],[2.1719635,41.3666423],[2.1719966,41.3667107],[2.1721224,41.3669629],[2.1722553,41.3671881],[2.1724155,41.3674401],[2.1725379,41.3676149],[2.1726734,41.3677826],[2.172936,41.3681213],[2.173149,41.3683784],[2.1732414,41.3684896],[2.1732845,41.368554],[2.1733148,41.3686173],[2.1733389,41.3686741],[2.1733549,41.3687309],[2.1733627,41.3687707],[2.1733679,41.3688105],[2.1733722,41.3689616],[2.1736293,41.3691118],[2.1736313,41.3691669],[2.1736368,41.3692263],[2.1736566,41.3693194],[2.1736966,41.3694487],[2.1738239,41.3697689],[2.1739664,41.3700318],[2.1740107,41.3701131],[2.1740781,41.370222],[2.1741972,41.3703913],[2.174319,41.3705291],[2.1744713,41.3706645],[2.1745082,41.3707221],[2.1745474,41.3707813],[2.1749683,41.3712],[2.1751478,41.3714225],[2.1761255,41.3726342],[2.1763393,41.3729003],[2.1754317,41.3732971],[2.1756106,41.3735033],[2.1755835,41.3735444],[2.1755509,41.373572],[2.1754951,41.3736446],[2.1754603,41.3737178],[2.1754389,41.3737895],[2.1754325,41.3738614],[2.1754369,41.3739333],[2.1754508,41.3739958],[2.1754844,41.3740638],[2.175543,41.3741448],[2.1755621,41.3742014],[2.1755753,41.374256],[2.1755761,41.3743129],[2.1755589,41.3743571],[2.1755368,41.3744017],[2.1755092,41.374433],[2.1754765,41.3744634],[2.175453,41.3744808],[2.1753598,41.3745321],[2.1752865,41.3745587],[2.1752204,41.3745759],[2.1751466,41.3745839],[2.175035,41.374593],[2.1749374,41.3745966],[2.17486,41.374602],[2.1748351,41.3746033],[2.1747454,41.3746082],[2.1740546,41.3746491],[2.1736724,41.374675],[2.1733967,41.3746945],[2.1733292,41.374699],[2.1732011,41.3747067],[2.1730771,41.3747167],[2.1730104,41.3747215],[2.1729709,41.3747239],[2.1729014,41.3747276],[2.1728064,41.3747327],[2.1722336,41.3747633],[2.1718837,41.3747883],[2.1717991,41.3747943],[2.1717313,41.3747976],[2.1716849,41.3748011],[2.1709183,41.374848],[2.1706518,41.3748662],[2.1701489,41.3748945],[2.1700946,41.3748967],[2.1699777,41.374902],[2.1697218,41.3749119],[2.1696599,41.3749122],[2.1696032,41.3749118],[2.1695532,41.3749116],[2.1680222,41.3749126],[2.1679584,41.3749133],[2.1679377,41.3749129],[2.1678468,41.3749141],[2.1677355,41.3749139],[2.1673981,41.3749101],[2.167378,41.3749101],[2.1673467,41.3749104],[2.1673267,41.3749103],[2.1672695,41.374911],[2.1668054,41.3749154],[2.1661303,41.3749163],[2.1656838,41.3749168],[2.1656315,41.3749169],[2.1656035,41.3749169],[2.1654799,41.3749171],[2.1653594,41.374916],[2.1653021,41.3749154],[2.1651928,41.3749144],[2.1650405,41.3749144],[2.1645586,41.3749145],[2.1640438,41.3749145],[2.1635175,41.3749138],[2.1634565,41.3749141],[2.1634276,41.3749141],[2.1633916,41.3749143],[2.1633288,41.3749145],[2.1631965,41.374915],[2.1629987,41.3749157],[2.1629283,41.3749161],[2.1629001,41.3749163],[2.1621371,41.3749204],[2.1617114,41.3749227],[2.1616284,41.3749232],[2.1615159,41.3749237],[2.1613282,41.3749247],[2.1611245,41.3749259],[2.1610624,41.3749262],[2.1610412,41.3749263],[2.1609341,41.3749269],[2.1607527,41.3749273],[2.1605916,41.3749276],[2.1604586,41.3749279],[2.1604534,41.3749279],[2.160225,41.3749283],[2.1601635,41.3749285],[2.1601047,41.3749286],[2.160032,41.3749287],[2.159916,41.374929],[2.1598614,41.3749291],[2.1593365,41.3749302],[2.1592311,41.3749304],[2.1588542,41.3749334],[2.1588094,41.3749334],[2.1587905,41.3749335],[2.1586154,41.3749307],[2.1584648,41.3749319],[2.1584083,41.3749321],[2.1583672,41.3749321],[2.157667,41.3749336],[2.1566335,41.3749357],[2.1565726,41.3749358],[2.1565441,41.3749361],[2.1560223,41.374937],[2.1557967,41.3749377],[2.1557259,41.3749379],[2.1556936,41.3749379],[2.1554345,41.3749399],[2.1545145,41.3749415],[2.1544588,41.3749416],[2.1544325,41.3749417],[2.1543329,41.374942],[2.1540314,41.3749429],[2.1537514,41.3749468],[2.1537063,41.3749473],[2.1534313,41.3749507],[2.1533974,41.3749511],[2.1532334,41.3749517],[2.1530746,41.3749501],[2.1528563,41.37495],[2.1522543,41.374955],[2.152197,41.3749552],[2.1521454,41.3749554],[2.1515228,41.3749574],[2.151159,41.3749587],[2.1509325,41.3749609],[2.1505384,41.3749648],[2.1501141,41.3749689],[2.1500538,41.3749603],[2.1500284,41.3749564],[2.1499319,41.374933],[2.1498691,41.3749075],[2.1498294,41.3748855],[2.1498063,41.3748728],[2.1497372,41.374823],[2.1497822,41.3749177],[2.1498171,41.3749804],[2.149839,41.3750303],[2.1498811,41.3751364],[2.1498484,41.3751478],[2.1498349,41.3751531],[2.1497577,41.3751834],[2.1497028,41.3752096],[2.1496767,41.375222],[2.1496463,41.3752377],[2.1496064,41.3752764],[2.1495683,41.3753089],[2.1495358,41.3753327],[2.1495085,41.3753492],[2.149443,41.3753847],[2.1493626,41.3754157],[2.1493023,41.3754326],[2.1492443,41.3754462],[2.1491428,41.3754561],[2.1491335,41.3754564],[2.1490352,41.3754525],[2.1489408,41.3754359],[2.1489148,41.3754278],[2.1488463,41.3754064],[2.1487509,41.3753586],[2.1486822,41.3753104],[2.1486206,41.3752489],[2.1485757,41.3751838],[2.1485451,41.3751106],[2.148532,41.3750344],[2.1485339,41.3749659],[2.1485618,41.3748782],[2.1485727,41.374854],[2.1486081,41.3747986],[2.1486534,41.3747475],[2.1487081,41.3747],[2.1487701,41.3746618],[2.1488392,41.3746289],[2.1489137,41.3746035],[2.1489739,41.3745899],[2.1490179,41.3745819],[2.1490731,41.3745772],[2.1490048,41.3745762],[2.1489429,41.3745693],[2.1488696,41.3745524],[2.1488219,41.3745355],[2.1487769,41.3745186],[2.148731,41.3744972],[2.1486907,41.374475],[2.1486523,41.3744497],[2.1484811,41.3743249],[2.1484654,41.3743124],[2.1481372,41.3740739],[2.1481134,41.3740559],[2.1480924,41.3740407],[2.147724,41.3737611],[2.1474355,41.3735495],[2.1474657,41.3735258],[2.1475116,41.3734886],[2.14753,41.3734766],[2.1476883,41.3733566],[2.1484139,41.3728068],[2.1484343,41.3727909],[2.1485133,41.3727294],[2.1485728,41.3726845],[2.1489957,41.372366],[2.1491634,41.3722397],[2.1492825,41.37215],[2.1493255,41.3721176],[2.1495898,41.3719189],[2.1498152,41.3717495],[2.150248,41.371423],[2.1502882,41.3713904],[2.1503119,41.3713744],[2.1504433,41.3712752],[2.1502714,41.3712114],[2.150202,41.3711857],[2.1501204,41.3711539],[2.1499682,41.3710945],[2.149841,41.3710449],[2.1497772,41.3710199],[2.149701,41.3709783],[2.1495922,41.3708926],[2.1495413,41.3708317],[2.149508,41.3707654],[2.1495025,41.3707491],[2.1494947,41.3707261],[2.1494884,41.3707054],[2.1494698,41.3706449],[2.1494512,41.3705604],[2.1494027,41.3702979],[2.1493525,41.3700604],[2.149298,41.3699481],[2.1492215,41.3698341],[2.1491211,41.3697242],[2.1490155,41.3696341],[2.1488732,41.3695585],[2.148736,41.3695024],[2.1485322,41.3694528],[2.148377,41.3694328],[2.1482817,41.3694315],[2.1481237,41.3694385],[2.1478078,41.3694778],[2.1476063,41.3694916],[2.1473974,41.3695133],[2.147277,41.3695148],[2.1471111,41.3695081],[2.1470013,41.3694988],[2.146863,41.369487],[2.146799,41.3694755],[2.146742,41.3694673],[2.1466839,41.3694529],[2.1466752,41.3694508],[2.1465706,41.3694267],[2.1464505,41.3693968],[2.1463774,41.3693737],[2.1463335,41.3693599],[2.1461141,41.3692842],[2.1460845,41.369269],[2.1460403,41.3692482],[2.1459558,41.3692067],[2.1458721,41.3691573],[2.1456511,41.3689956],[2.145469,41.368795],[2.1453168,41.3685772],[2.1451678,41.3685149],[2.1450758,41.3684764],[2.1448487,41.3682596],[2.1447007,41.3681859],[2.1446261,41.3681487],[2.1445575,41.3681172],[2.1441714,41.3679391],[2.1437666,41.3677484],[2.1436274,41.3676657],[2.1435068,41.3675753],[2.1434428,41.3675126],[2.1433772,41.3674259],[2.143342,41.3673565],[2.1433176,41.3672843],[2.1433115,41.3671975],[2.1431902,41.3671789],[2.1431647,41.3671749],[2.14312,41.3671322],[2.1430794,41.3670864],[2.1429574,41.3668332],[2.1429348,41.3667931],[2.1429127,41.3667538],[2.1428741,41.3667453],[2.1421253,41.366036],[2.1421026,41.3660145]]]},"id":"barcelona::poble-sec"},{"type":"Feature","properties":{"id":"barcelona::el-born","name":"El Born","cityId":"barcelona","city":"Barcelona","country":"Spain","parentName":null,"displayName":"Sant Pere, Santa Caterina i la Ribera, Ciutat Vella, Barcelona, Barcelonès, Barcelona, Catalunya, 08003, España"},"geometry":{"type":"Polygon","coordinates":[[[2.1727801,41.3884717],[2.1728109,41.3884335],[2.1728441,41.3884052],[2.172871,41.3883873],[2.1729274,41.3883292],[2.172969,41.3882952],[2.1740282,41.3874835],[2.1740669,41.3874549],[2.1741395,41.3874014],[2.1741902,41.3873639],[2.1745162,41.3871145],[2.1745583,41.3870851],[2.1745901,41.3870602],[2.1746889,41.3869873],[2.1747248,41.3869556],[2.1749854,41.3867625],[2.1750493,41.3867129],[2.1751025,41.3866717],[2.1752033,41.3865953],[2.1754131,41.3864395],[2.175565,41.3863216],[2.1756116,41.3862863],[2.1757025,41.3862174],[2.175741,41.3861899],[2.1760943,41.3859219],[2.1764106,41.385683],[2.176431,41.3856656],[2.1765087,41.3856094],[2.1765332,41.3855898],[2.1765754,41.385562],[2.1766146,41.3855297],[2.1766904,41.3854781],[2.1767245,41.3854523],[2.1767621,41.3854238],[2.1768393,41.3853867],[2.1769288,41.3853197],[2.1769485,41.385305],[2.1774725,41.3849073],[2.1777206,41.3847278],[2.1778621,41.384623],[2.1783313,41.3842722],[2.1784691,41.3841675],[2.178503,41.3841421],[2.1785324,41.3841202],[2.1787338,41.3839657],[2.1789143,41.3838264],[2.1789698,41.3837831],[2.1790026,41.383757],[2.1793073,41.383525],[2.1797851,41.3831617],[2.1798844,41.3830862],[2.1799061,41.3830729],[2.1800005,41.3829961],[2.1800541,41.3829568],[2.1800971,41.3829233],[2.1807779,41.3823962],[2.1808069,41.382381],[2.1809016,41.3823031],[2.1810291,41.3822223],[2.1812304,41.3820706],[2.181284,41.3820302],[2.1815406,41.3818327],[2.1816754,41.3817414],[2.1817654,41.3816803],[2.1818185,41.3816381],[2.1818673,41.3816016],[2.1819211,41.3815631],[2.1819674,41.3815269],[2.1821615,41.3813675],[2.182196,41.3813375],[2.1822325,41.381308],[2.1823076,41.3812514],[2.1823634,41.3812129],[2.1824226,41.3811731],[2.1824571,41.3812289],[2.1824638,41.3812431],[2.1825449,41.3812309],[2.1830723,41.3812448],[2.1836643,41.3812814],[2.1836767,41.3812949],[2.1837217,41.3813517],[2.1837365,41.3813704],[2.1839273,41.3815879],[2.1842361,41.3819509],[2.1842691,41.3819892],[2.1843299,41.3820599],[2.1842369,41.3821051],[2.1842059,41.3821203],[2.1841632,41.3821413],[2.1841254,41.3821601],[2.1843617,41.3824342],[2.1844777,41.3825788],[2.1845602,41.3826816],[2.184682,41.3826251],[2.1846962,41.3826185],[2.1847601,41.3825889],[2.1849063,41.3825218],[2.1852001,41.3823872],[2.1853868,41.3823017],[2.1854618,41.3822737],[2.185485,41.3822651],[2.1855235,41.3822526],[2.1855681,41.3822381],[2.1856342,41.3822223],[2.1857499,41.3821993],[2.1859499,41.3823014],[2.1859755,41.3823131],[2.1867799,41.3826801],[2.1868459,41.3827105],[2.1869777,41.3827712],[2.1871224,41.382838],[2.1874469,41.3829879],[2.1880118,41.3832489],[2.1897453,41.3840458],[2.1911796,41.3847681],[2.191714,41.3850372],[2.1922022,41.3852969],[2.1926563,41.3855767],[2.1931604,41.3859312],[2.1936284,41.3862834],[2.1925779,41.3871854],[2.192606,41.3873071],[2.1925208,41.3873203],[2.1924324,41.3873433],[2.1921051,41.3875877],[2.1918792,41.38777],[2.1917737,41.3878443],[2.1915509,41.3880096],[2.1915301,41.388023],[2.1893227,41.3896773],[2.1892992,41.3896979],[2.1892211,41.3897542],[2.1888145,41.3900607],[2.1887744,41.3900894],[2.1883124,41.3903641],[2.1880699,41.3905406],[2.1880128,41.3905813],[2.1879495,41.3906293],[2.1870642,41.3913007],[2.1869599,41.3913842],[2.1868895,41.3914473],[2.1868457,41.3914767],[2.186802,41.391506],[2.1867524,41.391547],[2.1866568,41.3914131],[2.1866353,41.3913881],[2.1860936,41.3909767],[2.1857777,41.3907367],[2.1856637,41.3906538],[2.1856031,41.3906097],[2.1853426,41.3904167],[2.1849392,41.3901151],[2.184676,41.3899137],[2.1846389,41.3898861],[2.1845158,41.3897947],[2.1844385,41.3898543],[2.1844082,41.3898772],[2.1836565,41.3904538],[2.1834634,41.3906079],[2.1832362,41.390779],[2.1826302,41.3912341],[2.1825928,41.39126],[2.1823811,41.3914119],[2.1821609,41.3915798],[2.1815128,41.3920799],[2.1814834,41.3921026],[2.181334,41.3922164],[2.1811778,41.3920815],[2.1811689,41.3920745],[2.1806628,41.3916762],[2.180643,41.3916606],[2.1805473,41.3915888],[2.1804348,41.3915034],[2.1803099,41.3914057],[2.1802518,41.3913548],[2.1802381,41.3913427],[2.1802089,41.3913232],[2.1801883,41.3913086],[2.1800147,41.3911709],[2.1799183,41.3911006],[2.1797633,41.3910091],[2.1796961,41.3909826],[2.1791186,41.3907553],[2.1784705,41.3905049],[2.177557,41.3901653],[2.1773975,41.3900937],[2.1773652,41.3900703],[2.1772564,41.3899932],[2.1772217,41.3899686],[2.1769405,41.3897513],[2.176903,41.389722],[2.1764867,41.389417],[2.1762337,41.3892243],[2.1761528,41.3891609],[2.1760538,41.3890847],[2.1760227,41.3890608],[2.1758863,41.3889575],[2.1756722,41.3889572],[2.1756383,41.3889566],[2.1739023,41.3889554],[2.1737424,41.3889558],[2.1737004,41.3889557],[2.1736617,41.3889565],[2.1736039,41.3889556],[2.173522,41.388955],[2.1734584,41.3889506],[2.1733685,41.3889156],[2.1732829,41.3888522],[2.1732531,41.3888302],[2.1729477,41.3885995],[2.1729141,41.3885745],[2.1728201,41.3885024],[2.1727989,41.3884861],[2.1727801,41.3884717]]]},"id":"barcelona::el-born"}]}
