{"type":"FeatureCollection","features":[{"type":"Feature","properties":{"id":"berlin::mitte","name":"Mitte","cityId":"berlin","city":"Berlin","country":"Germany","parentName":null,"displayName":"Mitte, Berlin, Deutschland","source":{"provider":"Nominatim / OpenStreetMap","datasetUrl":"https://nominatim.openstreetmap.org/search","query":"Mitte, Berlin, Germany"}},"geometry":{"type":"Polygon","coordinates":[[[13.3658989,52.5356771],[13.3662455,52.5353543],[13.3662667,52.5353346],[13.3666225,52.5350032],[13.3666276,52.5349984],[13.3677136,52.5339868],[13.3683389,52.5333754],[13.3684815,52.5333023],[13.3688855,52.5329094],[13.3692257,52.5325525],[13.3692464,52.5325375],[13.36938,52.5324407],[13.3697794,52.5319836],[13.3701074,52.5315524],[13.3705492,52.530946],[13.3706263,52.530836],[13.3708157,52.5305776],[13.370997,52.5303427],[13.3711677,52.5301632],[13.3718926,52.5294259],[13.3723307,52.5290068],[13.3730627,52.5284107],[13.3734264,52.5280606],[13.3735728,52.5278868],[13.3735904,52.527864],[13.3736395,52.5278007],[13.3737272,52.5276291],[13.3737789,52.5275278],[13.373847,52.5273447],[13.3738563,52.5271365],[13.3738047,52.5268662],[13.3736608,52.5266924],[13.3734103,52.5265082],[13.3733561,52.5265017],[13.3715851,52.5265049],[13.3715848,52.526496],[13.3715728,52.5264893],[13.3715323,52.5264891],[13.3715195,52.5264971],[13.3715195,52.5265052],[13.3710784,52.5265056],[13.3710528,52.5264918],[13.3710483,52.5258548],[13.3710485,52.5257681],[13.3710481,52.5255795],[13.3710418,52.5253881],[13.3710363,52.5252239],[13.3716961,52.5248267],[13.3717855,52.5228009],[13.3719072,52.5228041],[13.3721112,52.5228053],[13.3723078,52.5227958],[13.3724382,52.5227921],[13.3725625,52.5227835],[13.3726817,52.5227742],[13.3728545,52.5227564],[13.3730273,52.5227386],[13.3732179,52.5227069],[13.3733972,52.5226765],[13.3735791,52.5226334],[13.3736518,52.5226174],[13.3738034,52.5225738],[13.3739095,52.5225381],[13.3740076,52.5225074],[13.3742637,52.5224101],[13.3744843,52.522313],[13.3745857,52.5222656],[13.3747754,52.5221743],[13.3749421,52.5220875],[13.3750451,52.5220319],[13.3752891,52.5218957],[13.375386,52.5218348],[13.3755709,52.521656],[13.3756183,52.5216013],[13.3756428,52.5215768],[13.3758532,52.5213208],[13.3759305,52.5212096],[13.3759871,52.5209689],[13.3760324,52.5207919],[13.3761487,52.5203079],[13.3763704,52.5199859],[13.3765208,52.5198502],[13.3766847,52.5197326],[13.3767404,52.5196987],[13.3769629,52.5195876],[13.3770025,52.519565],[13.3769827,52.51795],[13.3768575,52.5176951],[13.3769867,52.5174033],[13.3772108,52.5169175],[13.3772438,52.5168229],[13.3771837,52.5167654],[13.3770721,52.5167236],[13.3769262,52.516661],[13.3767631,52.5165774],[13.3766687,52.5165095],[13.3765915,52.516405],[13.376567,52.5163453],[13.3765486,52.5163006],[13.3765769,52.5162016],[13.3766172,52.5160551],[13.3766945,52.5159349],[13.3768146,52.5158305],[13.3769605,52.5157626],[13.377218,52.515679],[13.377373,52.5156371],[13.3769876,52.5135825],[13.3768505,52.5129279],[13.376822,52.5124798],[13.3768188,52.5124089],[13.3770286,52.5123583],[13.3767099,52.510759],[13.3767015,52.51072],[13.3766943,52.5106866],[13.3766888,52.5106616],[13.3765954,52.5102406],[13.3765808,52.5101679],[13.3765633,52.5100881],[13.3765301,52.5099505],[13.3765682,52.50975],[13.3765736,52.5097067],[13.376578,52.5096466],[13.3765821,52.5095898],[13.3765973,52.5094216],[13.3766022,52.5093604],[13.3765976,52.509293],[13.3766522,52.509055],[13.3766729,52.5089993],[13.3766972,52.5089476],[13.376723,52.5089049],[13.3767531,52.5088636],[13.3767921,52.5088174],[13.3768429,52.5087668],[13.3769073,52.5087116],[13.3770867,52.5085675],[13.3771698,52.5085013],[13.3773676,52.5083413],[13.3776503,52.5079658],[13.3789222,52.5069995],[13.3817166,52.507134],[13.3857617,52.5073286],[13.3862476,52.5073575],[13.3868833,52.5073951],[13.3898682,52.5075711],[13.390484,52.5075985],[13.3906557,52.5076088],[13.3922257,52.5077033],[13.3927738,52.5077409],[13.3928354,52.5077446],[13.3932494,52.5077697],[13.3936751,52.5077955],[13.3942839,52.5078332],[13.3981888,52.5080789],[13.3987719,52.5081134],[13.3987944,52.5080917],[13.3992301,52.5080775],[13.3997671,52.5088],[13.3999387,52.5090282],[13.4000254,52.509151],[13.4001886,52.5093755],[13.4002283,52.5093816],[13.4009175,52.5091378],[13.4012638,52.5090381],[13.4021013,52.5087285],[13.4027619,52.5085334],[13.4036253,52.5081765],[13.404037,52.5079941],[13.4043168,52.5078766],[13.4044429,52.5077718],[13.4045782,52.5078856],[13.4046343,52.5079228],[13.4052837,52.5082102],[13.4056214,52.5079615],[13.4057965,52.5078345],[13.4059383,52.5077299],[13.4064044,52.5073853],[13.4073589,52.5066478],[13.4074002,52.5066723],[13.4078501,52.5063267],[13.4080301,52.5061832],[13.4099694,52.5069278],[13.4108939,52.5057255],[13.4115252,52.5048911],[13.413773,52.5041375],[13.4139111,52.5040911],[13.4140723,52.5040371],[13.4143901,52.5044172],[13.4146097,52.5046798],[13.4145925,52.5047921],[13.4146075,52.5047981],[13.4148175,52.5048825],[13.4149072,52.5049185],[13.416392,52.5045068],[13.4164358,52.5044945],[13.4166273,52.5044415],[13.4166876,52.5044242],[13.416704,52.5044196],[13.4168472,52.5043798],[13.4176016,52.5041685],[13.4182136,52.5050177],[13.4184001,52.5049933],[13.4185186,52.5049867],[13.4185318,52.504969],[13.4189443,52.5050603],[13.4189245,52.50508],[13.4189981,52.5051182],[13.4191101,52.5052037],[13.4194305,52.5056491],[13.4206174,52.5053214],[13.4211305,52.5051754],[13.4215419,52.5050785],[13.4217786,52.5050451],[13.4220787,52.5050273],[13.4223011,52.5050078],[13.4226642,52.5049872],[13.423038,52.50498],[13.4233526,52.5049868],[13.4237378,52.505009],[13.4239799,52.5050293],[13.4242715,52.5050652],[13.4243499,52.5050748],[13.4244748,52.5050933],[13.4246748,52.5051265],[13.4247139,52.505133],[13.4249569,52.5051819],[13.4254971,52.5053228],[13.4257206,52.5053929],[13.4258215,52.5054247],[13.4261207,52.5055508],[13.4267083,52.5057986],[13.4269722,52.5057312],[13.4271997,52.5056674],[13.4272346,52.505717],[13.4273837,52.5059293],[13.4274328,52.5059993],[13.4274666,52.5060473],[13.427499,52.5060935],[13.4276139,52.5062578],[13.427689,52.5063666],[13.4278537,52.5066013],[13.4279958,52.5068044],[13.4281137,52.5069735],[13.4283665,52.5073345],[13.4288144,52.5079776],[13.4290283,52.5080363],[13.4294017,52.5085626],[13.4292376,52.5086638],[13.4292032,52.5087194],[13.4291869,52.5088123],[13.42917,52.5088353],[13.4288927,52.5089711],[13.4288636,52.5089799],[13.4286637,52.5089922],[13.4283796,52.5090711],[13.4280901,52.5092781],[13.4271178,52.5098499],[13.4260485,52.5104788],[13.4244677,52.5113968],[13.4231813,52.5120816],[13.4230834,52.5121233],[13.4230325,52.5121199],[13.4227803,52.5122343],[13.4232333,52.512717],[13.4238389,52.5133666],[13.4240118,52.5136867],[13.4240624,52.5137399],[13.4241002,52.5137867],[13.4243882,52.5141378],[13.4248581,52.5147512],[13.4250962,52.5150695],[13.4251388,52.515144],[13.4256734,52.5160708],[13.4260106,52.5166807],[13.426387,52.5173383],[13.4264117,52.5173823],[13.4267494,52.5179611],[13.4263382,52.5180441],[13.426325,52.5180342],[13.4261515,52.5180693],[13.4263036,52.5182898],[13.4259489,52.5183762],[13.4269188,52.5197438],[13.4273894,52.5196195],[13.427473,52.519607],[13.4283998,52.5195865],[13.4287208,52.520244],[13.4291879,52.5212028],[13.4291793,52.5212255],[13.4286516,52.5214498],[13.4277699,52.5218307],[13.427648,52.5218833],[13.4255523,52.5227924],[13.4259104,52.5228316],[13.4260028,52.5229219],[13.4265191,52.5229415],[13.426501,52.5232938],[13.4262749,52.5233038],[13.425881,52.5233521],[13.4254847,52.5234462],[13.4254333,52.5234391],[13.424745,52.5236397],[13.4240706,52.5238552],[13.4237733,52.5239632],[13.422336,52.524527],[13.4217536,52.5247551],[13.4197996,52.5255288],[13.4197532,52.5255456],[13.4182495,52.5261801],[13.41689,52.5267834],[13.4169047,52.5267961],[13.4167074,52.5268855],[13.4166852,52.5268759],[13.4163549,52.5270212],[13.4163015,52.5270371],[13.416291,52.5270404],[13.4161457,52.5270836],[13.4159556,52.5271846],[13.4154317,52.5274633],[13.4151743,52.5275359],[13.4144189,52.5277489],[13.414205,52.5278093],[13.413349,52.5280506],[13.4133468,52.5280512],[13.4133165,52.5280598],[13.4130892,52.5281233],[13.4121847,52.5283752],[13.4114254,52.5285913],[13.4113137,52.5286212],[13.4100918,52.5288107],[13.409397,52.5289508],[13.4081892,52.5292275],[13.4072072,52.5293938],[13.4068706,52.5294495],[13.40687,52.5294483],[13.4055857,52.529665],[13.4059284,52.5303806],[13.4060864,52.5306051],[13.405991,52.5307807],[13.4060518,52.5309717],[13.4060978,52.5311425],[13.4063676,52.5320853],[13.4064243,52.5323485],[13.4071799,52.5331318],[13.407336,52.5333011],[13.4081809,52.5341755],[13.4083499,52.5343479],[13.4078027,52.5345645],[13.4074862,52.5346898],[13.4069773,52.5356029],[13.4069175,52.5357101],[13.4067482,52.5361014],[13.4061433,52.5372839],[13.4060989,52.5373722],[13.4058852,52.537797],[13.405814,52.5377843],[13.4054616,52.5385026],[13.4055188,52.5385137],[13.4054153,52.5387206],[13.405363,52.5387116],[13.4053025,52.5388256],[13.4053572,52.5388368],[13.405178,52.5391951],[13.4047046,52.5401877],[13.4041908,52.5404013],[13.4035279,52.5402134],[13.4015572,52.5398222],[13.4014108,52.5397801],[13.4013484,52.5397625],[13.4005501,52.539533],[13.4004127,52.5394934],[13.40028,52.5394551],[13.4001073,52.5394061],[13.399901,52.5393476],[13.3997014,52.5392909],[13.3994175,52.5392103],[13.3992317,52.5391588],[13.3990083,52.5390985],[13.3987971,52.5390403],[13.3981328,52.5388533],[13.3979494,52.5388018],[13.3978317,52.5387697],[13.3955801,52.5381553],[13.3931312,52.537447],[13.3901395,52.5354733],[13.3901143,52.5354558],[13.3900429,52.5354049],[13.3899925,52.5353663],[13.3898557,52.5352616],[13.3895384,52.5349816],[13.3883015,52.5337816],[13.3879277,52.5332651],[13.3877416,52.5331793],[13.3862526,52.53429],[13.3849179,52.5354542],[13.3831012,52.5369416],[13.3821339,52.5377677],[13.3800653,52.5397546],[13.3798263,52.5400673],[13.379742,52.5401484],[13.3794935,52.5401369],[13.376334,52.5382131],[13.376127,52.5380868],[13.3761674,52.5380617],[13.3749244,52.537325],[13.374555,52.537033],[13.3741528,52.5372778],[13.3737572,52.5375186],[13.3737266,52.5375389],[13.3729884,52.5380288],[13.369537,52.5364183],[13.3686093,52.5359913],[13.3685334,52.536057],[13.3678819,52.5366213],[13.3667012,52.5360631],[13.3665589,52.5359129],[13.3658989,52.5356771]]]},"id":"berlin::mitte"},{"type":"Feature","properties":{"id":"berlin::kreuzberg","name":"Kreuzberg","cityId":"berlin","city":"Berlin","country":"Germany","parentName":null,"displayName":"Kreuzberg, Friedrichshain-Kreuzberg, Berlin, Deutschland","source":{"provider":"Nominatim / OpenStreetMap","datasetUrl":"https://nominatim.openstreetmap.org/search","query":"Kreuzberg, Berlin, Germany"}},"geometry":{"type":"Polygon","coordinates":[[[13.3682291,52.4933357],[13.3691729,52.4931506],[13.3692527,52.4932859],[13.3710816,52.4929042],[13.3710649,52.4927373],[13.3719977,52.4926017],[13.3723924,52.4925302],[13.3765623,52.4916704],[13.3764656,52.4915151],[13.3760886,52.4911468],[13.3760501,52.4910507],[13.3756924,52.4906809],[13.3754648,52.4904497],[13.375413,52.4893656],[13.3748892,52.4893189],[13.374606,52.4891099],[13.373518,52.4879703],[13.3734818,52.4877505],[13.3741755,52.4877318],[13.3740954,52.4861755],[13.3740185,52.4851671],[13.371719,52.4851739],[13.3716065,52.484979],[13.3768548,52.4849652],[13.3847829,52.4849107],[13.3848479,52.4848716],[13.3862684,52.4848587],[13.3862732,52.4852299],[13.3862812,52.4858229],[13.3910655,52.4858053],[13.3942612,52.4857753],[13.3942586,52.4857242],[13.3942541,52.4854938],[13.3942502,52.4853329],[13.3942479,52.4850799],[13.3942477,52.4850608],[13.3942428,52.4850608],[13.3942414,52.4849329],[13.3942422,52.4845418],[13.3942418,52.4845144],[13.3942392,52.484343],[13.394234,52.4841256],[13.3946131,52.4840216],[13.3979566,52.4839487],[13.3987169,52.4839328],[13.399383,52.483893],[13.4001472,52.4838407],[13.4012255,52.4837388],[13.4023153,52.4835847],[13.4034421,52.4833999],[13.404886,52.4830993],[13.4063457,52.4827923],[13.4064589,52.4835903],[13.4067496,52.4854769],[13.4073191,52.4860657],[13.4082859,52.4868939],[13.4084232,52.4871133],[13.4083375,52.4874688],[13.4079124,52.4884777],[13.4078376,52.4884843],[13.4077568,52.4886623],[13.4077207,52.4887518],[13.4078866,52.4888607],[13.4175701,52.4875962],[13.4208413,52.4871678],[13.4212862,52.4870574],[13.423682,52.4863587],[13.4240236,52.4866797],[13.424939,52.4877852],[13.4254108,52.488085],[13.42535,52.488182],[13.4253207,52.4882308],[13.4249189,52.4888765],[13.4247998,52.4890653],[13.4247919,52.4890781],[13.4245736,52.4894314],[13.4245656,52.489444],[13.4245576,52.4894566],[13.4243644,52.4897689],[13.424297,52.4898778],[13.4241967,52.4900393],[13.42398,52.4903876],[13.4235851,52.491017],[13.4234829,52.4911806],[13.423316,52.491449],[13.4233072,52.491463],[13.4232984,52.4914773],[13.4229477,52.4920412],[13.4227769,52.4923143],[13.4223996,52.4929191],[13.4222972,52.4930834],[13.4219957,52.4935638],[13.4219763,52.4935928],[13.4217059,52.4940225],[13.4215921,52.4941974],[13.4214149,52.4944773],[13.4207907,52.495474],[13.4206389,52.4956208],[13.4204624,52.4957903],[13.4203999,52.4958638],[13.4204842,52.495865],[13.4207201,52.4958348],[13.4209691,52.4957889],[13.4213921,52.4957134],[13.421668,52.4956565],[13.4219508,52.4955905],[13.4222249,52.4955198],[13.4224259,52.495463],[13.4224899,52.4954452],[13.4227462,52.4953664],[13.4230669,52.4952639],[13.423316,52.4951829],[13.4241331,52.494917],[13.4249348,52.4946564],[13.4252666,52.4945485],[13.4259279,52.4943341],[13.4262867,52.4942171],[13.4266613,52.4940951],[13.4270498,52.4939686],[13.4275708,52.4937992],[13.4277767,52.4937325],[13.4290746,52.4933099],[13.4298525,52.4930559],[13.4306646,52.4927926],[13.4322859,52.4922888],[13.4352982,52.4913201],[13.4365448,52.4909366],[13.4370814,52.4907652],[13.4372969,52.4906975],[13.4382776,52.4903871],[13.4386021,52.4901453],[13.439228,52.4896601],[13.4392338,52.4896408],[13.4392535,52.4896441],[13.4392625,52.4896095],[13.4394355,52.4896336],[13.4396279,52.4896586],[13.439616,52.4896918],[13.4396337,52.4896945],[13.4396419,52.4898352],[13.4396363,52.4899002],[13.4396798,52.4900322],[13.4396815,52.4901289],[13.4397152,52.4902456],[13.4397655,52.4903859],[13.4398107,52.4905074],[13.4398843,52.4906049],[13.4401045,52.4907393],[13.4404055,52.4909351],[13.440686,52.4910889],[13.4408831,52.4912467],[13.4421818,52.4922863],[13.4423284,52.4924037],[13.4440677,52.4937294],[13.4446428,52.4941678],[13.4450096,52.4944345],[13.4451616,52.494545],[13.4455486,52.494856],[13.446909,52.4948401],[13.4474502,52.4948733],[13.4500551,52.4967182],[13.4506551,52.4970891],[13.4510076,52.4972687],[13.4513876,52.4973922],[13.452013,52.4975232],[13.4529296,52.4977068],[13.4526893,52.4979034],[13.4526953,52.497926],[13.4526975,52.4979484],[13.452707,52.4979878],[13.4527155,52.4980176],[13.452724,52.4980557],[13.452755,52.4980776],[13.4527815,52.498097],[13.452723,52.4982378],[13.4526909,52.4982566],[13.452231,52.4985063],[13.4521586,52.4984687],[13.4514301,52.4989347],[13.4509092,52.4989133],[13.4504406,52.4990616],[13.4501923,52.4991941],[13.4501173,52.4992323],[13.4500065,52.4992898],[13.4497161,52.4994406],[13.4496396,52.4994795],[13.4490125,52.4997047],[13.4486052,52.4998263],[13.4485089,52.4998567],[13.4479802,52.5000242],[13.4479021,52.5000486],[13.4478189,52.5000747],[13.4477395,52.5001007],[13.4476752,52.5001217],[13.447025,52.5003348],[13.4469478,52.5003608],[13.4468702,52.5003863],[13.4467946,52.5004111],[13.4465111,52.5005142],[13.4459729,52.5007416],[13.445847,52.5008018],[13.4456757,52.5008837],[13.4454446,52.501005],[13.4453706,52.501039],[13.4452288,52.5011004],[13.4451614,52.5011316],[13.4448229,52.5012991],[13.4448206,52.501304],[13.4414479,52.5029237],[13.4401917,52.5033744],[13.4389902,52.5038215],[13.4385042,52.5040023],[13.4380538,52.5042169],[13.4378683,52.5042892],[13.4375535,52.504376],[13.4371366,52.5045554],[13.4370538,52.5046074],[13.4360707,52.5052345],[13.4361594,52.5052711],[13.4360791,52.5053102],[13.4361071,52.5053271],[13.4360036,52.5053824],[13.4359799,52.50537],[13.4358479,52.5054103],[13.4354967,52.5056384],[13.4343959,52.5060962],[13.4339859,52.5063732],[13.4322018,52.507288],[13.4305703,52.5080102],[13.4295929,52.5084811],[13.4294017,52.5085626],[13.4290283,52.5080363],[13.4288144,52.5079776],[13.4283665,52.5073345],[13.4281137,52.5069735],[13.4279958,52.5068044],[13.4278537,52.5066013],[13.427689,52.5063666],[13.4276139,52.5062578],[13.427499,52.5060935],[13.4274666,52.5060473],[13.4274328,52.5059993],[13.4273837,52.5059293],[13.4272346,52.505717],[13.4271997,52.5056674],[13.4269722,52.5057312],[13.4267083,52.5057986],[13.4261207,52.5055508],[13.4258215,52.5054247],[13.4257206,52.5053929],[13.4254971,52.5053228],[13.4249569,52.5051819],[13.4247139,52.505133],[13.4246748,52.5051265],[13.4244748,52.5050933],[13.4243499,52.5050748],[13.4242715,52.5050652],[13.4239799,52.5050293],[13.4237378,52.505009],[13.4233526,52.5049868],[13.423038,52.50498],[13.4226642,52.5049872],[13.4223011,52.5050078],[13.4220787,52.5050273],[13.4217786,52.5050451],[13.4215419,52.5050785],[13.4211305,52.5051754],[13.4206174,52.5053214],[13.4194305,52.5056491],[13.4191101,52.5052037],[13.4189981,52.5051182],[13.4189245,52.50508],[13.4189443,52.5050603],[13.4185318,52.504969],[13.4185186,52.5049867],[13.4184001,52.5049933],[13.4182136,52.5050177],[13.4176016,52.5041685],[13.4168472,52.5043798],[13.416704,52.5044196],[13.4166876,52.5044242],[13.4166273,52.5044415],[13.4164358,52.5044945],[13.416392,52.5045068],[13.4149072,52.5049185],[13.4148175,52.5048825],[13.4146075,52.5047981],[13.4145925,52.5047921],[13.4146097,52.5046798],[13.4143901,52.5044172],[13.4140723,52.5040371],[13.4139111,52.5040911],[13.413773,52.5041375],[13.4115252,52.5048911],[13.4108939,52.5057255],[13.4099694,52.5069278],[13.4080301,52.5061832],[13.4078501,52.5063267],[13.4074002,52.5066723],[13.4073589,52.5066478],[13.4064044,52.5073853],[13.4059383,52.5077299],[13.4057965,52.5078345],[13.4056214,52.5079615],[13.4052837,52.5082102],[13.4046343,52.5079228],[13.4045782,52.5078856],[13.4044429,52.5077718],[13.4043168,52.5078766],[13.404037,52.5079941],[13.4036253,52.5081765],[13.4027619,52.5085334],[13.4021013,52.5087285],[13.4012638,52.5090381],[13.4009175,52.5091378],[13.4002283,52.5093816],[13.4001886,52.5093755],[13.4000254,52.509151],[13.3999387,52.5090282],[13.3997671,52.5088],[13.3992301,52.5080775],[13.3987944,52.5080917],[13.3987719,52.5081134],[13.3981888,52.5080789],[13.3942839,52.5078332],[13.3936751,52.5077955],[13.3932494,52.5077697],[13.3928354,52.5077446],[13.3927738,52.5077409],[13.3922257,52.5077033],[13.3906557,52.5076088],[13.390484,52.5075985],[13.3898682,52.5075711],[13.3868833,52.5073951],[13.3862476,52.5073575],[13.3857617,52.5073286],[13.3817166,52.507134],[13.3789222,52.5069995],[13.3776503,52.5079658],[13.377639,52.5079091],[13.3749797,52.5033759],[13.3747522,52.5032345],[13.3746784,52.5032356],[13.3742442,52.5034855],[13.3736093,52.504164],[13.373043,52.5033823],[13.3721632,52.5024872],[13.3717361,52.5020391],[13.3714531,52.501758],[13.3713442,52.501634],[13.3708884,52.4999544],[13.3708251,52.4998602],[13.370587,52.4996836],[13.3705545,52.4996818],[13.3705522,52.4996846],[13.370362,52.4995305],[13.3695143,52.498879],[13.3697289,52.4987765],[13.3695581,52.4978546],[13.3692958,52.4974162],[13.3686363,52.4968792],[13.3686269,52.4967761],[13.3686239,52.4967435],[13.3685962,52.4965108],[13.3685916,52.4964588],[13.368538,52.4958578],[13.3685297,52.4957465],[13.3684812,52.4952231],[13.3684522,52.4949243],[13.3684148,52.4944781],[13.3685807,52.4939555],[13.3682291,52.4933357]]]},"id":"berlin::kreuzberg"},{"type":"Feature","properties":{"id":"berlin::neukolln","name":"Neukolln","cityId":"berlin","city":"Berlin","country":"Germany","parentName":null,"displayName":"Neukölln, Berlin, Deutschland"},"geometry":{"type":"Polygon","coordinates":[[[13.4060789,52.4809987],[13.4061509,52.4806017],[13.406246,52.4801692],[13.4068123,52.4788793],[13.4066327,52.478229],[13.4068134,52.4781877],[13.4108798,52.4777237],[13.4109501,52.4779019],[13.413491,52.4787059],[13.4153713,52.4716627],[13.416041,52.4691537],[13.4168805,52.4653962],[13.4215065,52.4658316],[13.4215498,52.4658357],[13.4215591,52.465764],[13.4216195,52.4653002],[13.4216237,52.4651364],[13.4216491,52.4646668],[13.4216953,52.4638101],[13.4216979,52.4637612],[13.4217124,52.4634942],[13.4218005,52.4632048],[13.4219033,52.4628709],[13.4221057,52.46272],[13.4221473,52.4624995],[13.4220286,52.4616097],[13.4219833,52.4615164],[13.4230248,52.4613266],[13.4264504,52.4616569],[13.4323671,52.4623881],[13.4326722,52.462471],[13.433023,52.4624829],[13.4341881,52.4627546],[13.4345349,52.4628565],[13.4358684,52.4629758],[13.4369561,52.4630764],[13.4371112,52.4630907],[13.4376641,52.463134],[13.437873,52.4631273],[13.4389293,52.4632089],[13.4400201,52.4632787],[13.441136,52.4633725],[13.4421476,52.4635235],[13.4426741,52.4636052],[13.4430929,52.4636694],[13.4430967,52.4636677],[13.443298,52.4636926],[13.443866,52.4637894],[13.4441779,52.4638479],[13.4445212,52.4636754],[13.4471664,52.4641565],[13.4476434,52.4642492],[13.4513066,52.4650271],[13.4519542,52.465116],[13.4521047,52.465134],[13.4525059,52.465155],[13.4525066,52.4651326],[13.4527646,52.4651439],[13.4525203,52.4647534],[13.4524968,52.4646662],[13.4524112,52.4643223],[13.4523733,52.4640806],[13.4525057,52.4634412],[13.4527592,52.4630418],[13.4529844,52.4627413],[13.4535287,52.4622057],[13.4543993,52.4612495],[13.4546413,52.4610126],[13.4547483,52.4608912],[13.4552925,52.4610102],[13.4564113,52.4599547],[13.4569705,52.459118],[13.4569992,52.4592033],[13.4571139,52.4592539],[13.457234,52.4592582],[13.457264,52.4592087],[13.4573529,52.4592357],[13.459492,52.4591786],[13.4637041,52.4590656],[13.4715476,52.4588624],[13.4722406,52.4588451],[13.4744335,52.4587783],[13.4749713,52.4587633],[13.4749512,52.4591937],[13.4749768,52.4594705],[13.4751825,52.4599101],[13.4754454,52.4603268],[13.475804,52.4609152],[13.4766429,52.4615619],[13.4771968,52.4619892],[13.4772976,52.4621379],[13.4776765,52.4626972],[13.4781339,52.4633695],[13.4785501,52.4639858],[13.4784771,52.4649879],[13.4784173,52.4651331],[13.4783366,52.4652375],[13.477629,52.4659105],[13.4769546,52.4665545],[13.4763569,52.4671266],[13.4761859,52.4672635],[13.4755979,52.4676555],[13.4751541,52.4680203],[13.4740125,52.4691207],[13.4729597,52.4701325],[13.4728854,52.4702003],[13.4726717,52.4704044],[13.4719926,52.4710576],[13.471289,52.4717381],[13.4707617,52.4722546],[13.4700471,52.473026],[13.4697915,52.4733394],[13.4695973,52.4737287],[13.4695889,52.473804],[13.4696043,52.4739922],[13.4697902,52.4743987],[13.4699678,52.4748049],[13.47038,52.4760111],[13.4705734,52.4769091],[13.4699438,52.4773526],[13.4690888,52.4779516],[13.4681143,52.4786409],[13.466633,52.4796839],[13.4640048,52.481536],[13.4618714,52.4830339],[13.4611547,52.4835385],[13.4611798,52.4837022],[13.4587068,52.4854167],[13.4586045,52.4854905],[13.4583198,52.4856892],[13.4581344,52.48582],[13.4571227,52.4850526],[13.4560669,52.4842532],[13.4504433,52.4871484],[13.4503267,52.4870854],[13.4487256,52.4880276],[13.4486583,52.4879826],[13.4483767,52.488127],[13.4467834,52.4889437],[13.4467642,52.4889535],[13.4446599,52.4875949],[13.4444472,52.4874576],[13.4429885,52.4881911],[13.442613,52.4883799],[13.4396363,52.4899002],[13.4396419,52.4898352],[13.4396337,52.4896945],[13.439616,52.4896918],[13.4396279,52.4896586],[13.4394355,52.4896336],[13.4392625,52.4896095],[13.4392535,52.4896441],[13.4392338,52.4896408],[13.439228,52.4896601],[13.4386021,52.4901453],[13.4382776,52.4903871],[13.4372969,52.4906975],[13.4370814,52.4907652],[13.4365448,52.4909366],[13.4352982,52.4913201],[13.4322859,52.4922888],[13.4306646,52.4927926],[13.4298525,52.4930559],[13.4290746,52.4933099],[13.4277767,52.4937325],[13.4275708,52.4937992],[13.4270498,52.4939686],[13.4266613,52.4940951],[13.4262867,52.4942171],[13.4259279,52.4943341],[13.4252666,52.4945485],[13.4249348,52.4946564],[13.4241331,52.494917],[13.423316,52.4951829],[13.4230669,52.4952639],[13.4227462,52.4953664],[13.4224899,52.4954452],[13.4224259,52.495463],[13.4222249,52.4955198],[13.4219508,52.4955905],[13.421668,52.4956565],[13.4213921,52.4957134],[13.4209691,52.4957889],[13.4207201,52.4958348],[13.4204842,52.495865],[13.4203999,52.4958638],[13.4204624,52.4957903],[13.4206389,52.4956208],[13.4207907,52.495474],[13.4214149,52.4944773],[13.4215921,52.4941974],[13.4217059,52.4940225],[13.4219763,52.4935928],[13.4219957,52.4935638],[13.4222972,52.4930834],[13.4223996,52.4929191],[13.4227769,52.4923143],[13.4229477,52.4920412],[13.4232984,52.4914773],[13.4233072,52.491463],[13.423316,52.491449],[13.4234829,52.4911806],[13.4235851,52.491017],[13.42398,52.4903876],[13.4241967,52.4900393],[13.424297,52.4898778],[13.4243644,52.4897689],[13.4245576,52.4894566],[13.4245656,52.489444],[13.4245736,52.4894314],[13.4247919,52.4890781],[13.4247998,52.4890653],[13.4249189,52.4888765],[13.4253207,52.4882308],[13.42535,52.488182],[13.4254108,52.488085],[13.424939,52.4877852],[13.4240236,52.4866797],[13.423682,52.4863587],[13.4212862,52.4870574],[13.4208413,52.4871678],[13.4175701,52.4875962],[13.4078866,52.4888607],[13.4077207,52.4887518],[13.4077568,52.4886623],[13.4078376,52.4884843],[13.4079124,52.4884777],[13.4083375,52.4874688],[13.4084232,52.4871133],[13.4082859,52.4868939],[13.4073191,52.4860657],[13.4067496,52.4854769],[13.4064589,52.4835903],[13.4063457,52.4827923],[13.4063142,52.4825926],[13.4061265,52.4810907],[13.4060789,52.4809987]]]},"id":"berlin::neukolln"},{"type":"Feature","properties":{"id":"berlin::prenzlauer-berg","name":"Prenzlauer Berg","cityId":"berlin","city":"Berlin","country":"Germany","parentName":null,"displayName":"Prenzlauer Berg, Pankow, Berlin, Deutschland","source":{"provider":"Nominatim / OpenStreetMap","datasetUrl":"https://nominatim.openstreetmap.org/search","query":"Prenzlauer Berg, Berlin, Germany"}},"geometry":{"type":"Polygon","coordinates":[[[13.396846,52.5507038],[13.3985672,52.5508596],[13.3988998,52.5508856],[13.3991382,52.5495378],[13.3992335,52.5490676],[13.3992875,52.5489455],[13.3992913,52.5489369],[13.3993944,52.5487035],[13.4001936,52.5468947],[13.4002061,52.5468663],[13.4003037,52.5466455],[13.3993535,52.5465583],[13.3993586,52.5465377],[13.3993197,52.5465341],[13.3992065,52.5465304],[13.3992744,52.5463781],[13.3996482,52.5455102],[13.3998156,52.5450595],[13.4000589,52.5441341],[13.4001286,52.5438429],[13.4002456,52.5433764],[13.4004235,52.5430023],[13.4009058,52.5419603],[13.4009936,52.5418141],[13.4020309,52.5401245],[13.4033783,52.5405059],[13.4035279,52.5402134],[13.4041908,52.5404013],[13.4047046,52.5401877],[13.405178,52.5391951],[13.4053572,52.5388368],[13.4053025,52.5388256],[13.405363,52.5387116],[13.4054153,52.5387206],[13.4055188,52.5385137],[13.4054616,52.5385026],[13.405814,52.5377843],[13.4058852,52.537797],[13.4060989,52.5373722],[13.4061433,52.5372839],[13.4067482,52.5361014],[13.4069175,52.5357101],[13.4069773,52.5356029],[13.4074862,52.5346898],[13.4078027,52.5345645],[13.4083499,52.5343479],[13.4081809,52.5341755],[13.407336,52.5333011],[13.4071799,52.5331318],[13.4064243,52.5323485],[13.4063676,52.5320853],[13.4060978,52.5311425],[13.4060518,52.5309717],[13.405991,52.5307807],[13.4060864,52.5306051],[13.4059284,52.5303806],[13.4055857,52.529665],[13.40687,52.5294483],[13.4068706,52.5294495],[13.4072072,52.5293938],[13.4081892,52.5292275],[13.409397,52.5289508],[13.4100918,52.5288107],[13.4113137,52.5286212],[13.4114254,52.5285913],[13.4121847,52.5283752],[13.4130892,52.5281233],[13.4133165,52.5280598],[13.4133468,52.5280512],[13.413349,52.5280506],[13.414205,52.5278093],[13.4144189,52.5277489],[13.4151743,52.5275359],[13.4154317,52.5274633],[13.4159556,52.5271846],[13.4161457,52.5270836],[13.416291,52.5270404],[13.4163015,52.5270371],[13.4163549,52.5270212],[13.4166852,52.5268759],[13.4167074,52.5268855],[13.4169047,52.5267961],[13.41689,52.5267834],[13.4182495,52.5261801],[13.4197532,52.5255456],[13.4201611,52.5257942],[13.4202197,52.5258298],[13.421484,52.5266002],[13.4219887,52.5269076],[13.4225581,52.5272545],[13.4227522,52.5273728],[13.4235526,52.5278604],[13.4236421,52.527915],[13.4238093,52.5278996],[13.4238276,52.5278979],[13.424005,52.5278817],[13.4244549,52.527899],[13.4244692,52.5279127],[13.4245148,52.5279015],[13.4246639,52.5279077],[13.4248545,52.5278778],[13.4249513,52.5279951],[13.4250269,52.5280952],[13.4252869,52.5281256],[13.4253232,52.5281298],[13.4311855,52.5288146],[13.4329335,52.5290182],[13.4341502,52.52916],[13.4371058,52.5295042],[13.4374816,52.529548],[13.4383106,52.5288005],[13.4387482,52.5287778],[13.4422774,52.5310256],[13.44648,52.5271388],[13.4465552,52.5269755],[13.4466929,52.5268481],[13.4469311,52.5266278],[13.4471683,52.5264084],[13.4479223,52.5266333],[13.4486109,52.5268388],[13.4486578,52.5268528],[13.4493378,52.5270557],[13.4495073,52.5271063],[13.4496403,52.527146],[13.4496766,52.5271568],[13.4498104,52.5271967],[13.4499171,52.5272285],[13.4499512,52.5272387],[13.4500622,52.5272718],[13.4502546,52.5273292],[13.4504871,52.5273991],[13.4505238,52.5274101],[13.4507678,52.5274833],[13.450783,52.5274867],[13.4511288,52.5275631],[13.4514188,52.5276271],[13.4519133,52.5277363],[13.4521828,52.5277958],[13.4524166,52.5275262],[13.452465,52.527455],[13.4557998,52.5225523],[13.4561572,52.5224576],[13.4552901,52.5212723],[13.4555724,52.5212197],[13.4557569,52.5211853],[13.4569719,52.5209657],[13.4570727,52.5209473],[13.4626951,52.5199276],[13.4706139,52.52057],[13.4707348,52.5205901],[13.4711262,52.5206193],[13.4720225,52.5206863],[13.4721073,52.5206943],[13.4718015,52.5209909],[13.4714648,52.5213123],[13.4712967,52.5215239],[13.4709924,52.5218189],[13.4707457,52.5220083],[13.4696076,52.522809],[13.4694947,52.5228735],[13.4694298,52.5229055],[13.4690408,52.5230974],[13.4685852,52.5232994],[13.4681035,52.5234851],[13.4675959,52.5236574],[13.4670946,52.5238181],[13.4665646,52.5239442],[13.4663412,52.5239926],[13.4660225,52.5240617],[13.4654759,52.5241495],[13.4649269,52.5242263],[13.4638328,52.5243622],[13.4627561,52.524504],[13.4621081,52.5247021],[13.4608733,52.5250953],[13.4602616,52.525286],[13.4596679,52.5255104],[13.4591177,52.5257681],[13.4588222,52.5259475],[13.4584284,52.5262179],[13.4581794,52.526399],[13.4577938,52.5267528],[13.4573976,52.5271305],[13.4565886,52.5278835],[13.4561965,52.5282648],[13.456332,52.5283948],[13.4580584,52.5287753],[13.4606745,52.5293579],[13.461006,52.5296783],[13.4632488,52.5323995],[13.46336,52.5325943],[13.4633894,52.5326337],[13.4644447,52.5329894],[13.464434,52.5330077],[13.4644294,52.533027],[13.4644309,52.5330464],[13.4644386,52.5330652],[13.4644562,52.5330898],[13.4644796,52.5331126],[13.4645081,52.533133],[13.4645413,52.5331507],[13.4645246,52.5332016],[13.46626,52.5337782],[13.4664299,52.5338393],[13.466597,52.5339034],[13.466761,52.5339704],[13.4669588,52.5340547],[13.4669691,52.5340457],[13.4670041,52.5340393],[13.4670247,52.5340313],[13.4671119,52.5340715],[13.4671239,52.5340757],[13.46715,52.5340813],[13.4671638,52.5340825],[13.4671914,52.5340818],[13.4672179,52.534077],[13.4672417,52.5340684],[13.4673082,52.5340296],[13.4673817,52.5340634],[13.4673538,52.534086],[13.4673884,52.5341021],[13.4673964,52.5340955],[13.4685058,52.5345984],[13.4685065,52.5346083],[13.4687427,52.5347123],[13.4687189,52.5347705],[13.4686893,52.5348277],[13.4686724,52.5348559],[13.4684124,52.5352601],[13.4680688,52.5357716],[13.4679344,52.535959],[13.4678051,52.5361231],[13.4677852,52.5361418],[13.4677491,52.5361669],[13.4676477,52.5362193],[13.4675123,52.5362743],[13.4674039,52.5363099],[13.466926,52.5364244],[13.4668705,52.5364442],[13.4663842,52.5366569],[13.4664138,52.5366981],[13.4667019,52.5370986],[13.4668323,52.5372799],[13.4676477,52.5384497],[13.4675296,52.5384611],[13.4675204,52.5384048],[13.4674554,52.5384358],[13.4673102,52.5384952],[13.4667767,52.5387153],[13.4657659,52.5391419],[13.4643777,52.5397226],[13.4631166,52.5402465],[13.4623591,52.5405789],[13.4621564,52.5406632],[13.4604495,52.5414067],[13.4600702,52.5415701],[13.4576206,52.5426069],[13.4572637,52.5427557],[13.4552521,52.5435955],[13.455061,52.5436753],[13.4556206,52.5440444],[13.4550722,52.5446405],[13.4547623,52.5445371],[13.4544813,52.5448319],[13.4535971,52.5445296],[13.4535027,52.5445758],[13.4533604,52.5446456],[13.4531176,52.54477],[13.4512467,52.5454926],[13.4503322,52.5458673],[13.4498413,52.5460684],[13.4492322,52.5463203],[13.4489529,52.5464309],[13.4480318,52.5468075],[13.4478966,52.5469559],[13.4478053,52.5470562],[13.4474438,52.5472364],[13.4472381,52.547339],[13.4470109,52.5471701],[13.4427498,52.5486609],[13.441749,52.5489045],[13.441003,52.5490879],[13.440495,52.5492284],[13.4397724,52.5494198],[13.4387369,52.5496985],[13.4378391,52.5499401],[13.4354858,52.5505564],[13.4348799,52.5507089],[13.4345131,52.5508064],[13.4342525,52.5508702],[13.4339649,52.5509445],[13.4334347,52.5510201],[13.4329006,52.5510939],[13.4321315,52.5512075],[13.4319879,52.5512422],[13.4317104,52.5513092],[13.4310872,52.5514675],[13.4310356,52.5514793],[13.4307311,52.5515581],[13.4304035,52.5516536],[13.430388,52.5516581],[13.4302219,52.5517066],[13.4300713,52.5517556],[13.4299764,52.5515448],[13.4275281,52.5525102],[13.4272766,52.5525876],[13.4270469,52.5526145],[13.4209341,52.5532882],[13.4208587,52.5532987],[13.4207249,52.5533144],[13.4206525,52.5533223],[13.4149339,52.5539512],[13.4149961,52.5542378],[13.4150333,52.5544508],[13.415028,52.5546324],[13.4148095,52.5561026],[13.4147022,52.5567737],[13.4146236,52.5572376],[13.4144932,52.5574395],[13.4143734,52.5574061],[13.413794,52.5574484],[13.4086469,52.5577054],[13.4081048,52.5577325],[13.4030965,52.5579823],[13.4029841,52.5579879],[13.4025546,52.5580177],[13.3998373,52.5583426],[13.3986648,52.5584961],[13.3979215,52.5585856],[13.3978563,52.5585811],[13.3977921,52.5585725],[13.3977297,52.55856],[13.3976873,52.5585484],[13.3976697,52.5585437],[13.3971237,52.5583105],[13.3970976,52.5582679],[13.3971666,52.5578877],[13.3971372,52.5578893],[13.3971523,52.5573816],[13.3971564,52.5572421],[13.3971573,52.5572228],[13.3971755,52.5567918],[13.3971769,52.5563437],[13.3973085,52.5556558],[13.3974205,52.5552194],[13.3974969,52.5549685],[13.3975295,52.5548616],[13.3975554,52.5547768],[13.3975651,52.5547371],[13.3975811,52.5546717],[13.3975955,52.5546128],[13.3977183,52.5541117],[13.3978306,52.5537622],[13.3979816,52.553228],[13.3980674,52.5528059],[13.3980635,52.5526001],[13.3980248,52.5523784],[13.3979808,52.5521964],[13.397896,52.5519783],[13.3978058,52.551768],[13.3977249,52.5515987],[13.3976298,52.551418],[13.3975367,52.5513093],[13.3974496,52.5512159],[13.3973551,52.5511203],[13.3972242,52.5510055],[13.3971856,52.5509739],[13.396846,52.5507038]]]},"id":"berlin::prenzlauer-berg"},{"type":"Feature","properties":{"id":"berlin::charlottenburg","name":"Charlottenburg","cityId":"berlin","city":"Berlin","country":"Germany","parentName":null,"displayName":"Charlottenburg, Charlottenburg-Wilmersdorf, Berlin, Deutschland","source":{"provider":"Nominatim / OpenStreetMap","datasetUrl":"https://nominatim.openstreetmap.org/search","query":"Charlottenburg, Berlin, Germany"}},"geometry":{"type":"Polygon","coordinates":[[[13.2806236,52.5242566],[13.2807335,52.5236643],[13.2807399,52.5236159],[13.2808981,52.5232031],[13.2809173,52.523031],[13.2812353,52.5222226],[13.2814173,52.5218497],[13.2815714,52.5212054],[13.281653,52.5206748],[13.2817159,52.5205114],[13.2820325,52.519916],[13.2823824,52.5193801],[13.2823943,52.5193726],[13.2825549,52.5190243],[13.2826731,52.518758],[13.2827591,52.5187098],[13.2830424,52.5180538],[13.283103,52.5179231],[13.2830774,52.5178988],[13.2832578,52.5175087],[13.2834749,52.5171073],[13.2837379,52.5167482],[13.284225,52.5161969],[13.2844038,52.5159429],[13.2846806,52.5153341],[13.2848877,52.5147603],[13.2851954,52.513256],[13.2852193,52.5129918],[13.285325,52.5129352],[13.2853279,52.5128128],[13.2852386,52.512804],[13.2852427,52.5122793],[13.2852157,52.5119132],[13.2851126,52.5113736],[13.2850507,52.5111565],[13.284969,52.5109442],[13.2848284,52.5106238],[13.2843852,52.509893],[13.2842656,52.5096914],[13.283957,52.5092676],[13.2836188,52.5088376],[13.2836669,52.508782],[13.2836739,52.5086451],[13.2822462,52.5064013],[13.2821721,52.5062083],[13.2820968,52.5062129],[13.2817891,52.5053799],[13.2815337,52.504137],[13.2813975,52.5036627],[13.2816439,52.5036236],[13.2813587,52.5031005],[13.2813096,52.5029944],[13.2813658,52.5026814],[13.2813168,52.502652],[13.281474,52.5024766],[13.2815048,52.5024904],[13.2815759,52.5024322],[13.2815392,52.502403],[13.2815288,52.5023947],[13.2815072,52.502349],[13.2815282,52.502292],[13.2817345,52.5019815],[13.2818128,52.5018202],[13.2818844,52.50159],[13.2819419,52.5015621],[13.2820733,52.501564],[13.2820749,52.5014436],[13.2819091,52.5014374],[13.2819132,52.5013343],[13.2818883,52.5011695],[13.2817397,52.5008845],[13.2816437,52.5007742],[13.2812722,52.5005202],[13.2811957,52.5003454],[13.2816438,52.5004809],[13.2827361,52.5008005],[13.283148,52.5003092],[13.2839885,52.5005713],[13.2842531,52.5002585],[13.2846249,52.5003746],[13.2843618,52.5006884],[13.2852891,52.5009777],[13.2848752,52.5014708],[13.2874647,52.5023679],[13.2878935,52.50235],[13.2882327,52.502373],[13.2884141,52.5023922],[13.2897984,52.5025274],[13.2915758,52.5027628],[13.2953037,52.5033177],[13.2953652,52.5032979],[13.2958505,52.5024805],[13.2958893,52.5024191],[13.2959991,52.5022458],[13.2948702,52.5019059],[13.2964364,52.5013941],[13.297914,52.5009678],[13.3005981,52.5001933],[13.3019002,52.4998258],[13.301853,52.4990215],[13.3037404,52.4993767],[13.3069924,52.4999888],[13.3078893,52.5001208],[13.3121461,52.5005338],[13.3136142,52.4998517],[13.3139288,52.4997601],[13.3143489,52.4996698],[13.3159802,52.4994988],[13.3164503,52.499465],[13.3169239,52.4994619],[13.3236288,52.4998696],[13.3251352,52.4998877],[13.3317371,52.500536],[13.3325479,52.5013498],[13.3359658,52.4999693],[13.3369059,52.5008675],[13.3395347,52.5031907],[13.3414287,52.5049347],[13.3409772,52.50507],[13.3402909,52.5051628],[13.3400212,52.5051852],[13.3397341,52.5051919],[13.3394556,52.5051728],[13.339196,52.5051353],[13.3391048,52.5051171],[13.3389313,52.5053572],[13.3388903,52.5054269],[13.3388505,52.5055031],[13.3387914,52.5056224],[13.3386407,52.5059263],[13.3386261,52.5059237],[13.3386125,52.5059212],[13.3385796,52.5059151],[13.3383515,52.5058882],[13.3382599,52.5058776],[13.3382358,52.5058748],[13.3381883,52.5058694],[13.3375282,52.5057955],[13.3372724,52.5057627],[13.3371235,52.5057436],[13.3370014,52.505728],[13.3369049,52.5057211],[13.3368565,52.5057198],[13.3367197,52.5057158],[13.3366998,52.5057165],[13.3366015,52.5057207],[13.336363,52.5057391],[13.3362178,52.5057519],[13.3358823,52.505781],[13.3357443,52.5057986],[13.3356933,52.5058075],[13.3355834,52.5058267],[13.3354075,52.5058809],[13.3352666,52.5059395],[13.3352502,52.5059471],[13.3352289,52.5059568],[13.3351961,52.5059718],[13.3351858,52.5059765],[13.3349717,52.5060735],[13.3349241,52.5060952],[13.3347402,52.5061815],[13.3346654,52.5061303],[13.33462,52.5061791],[13.334538,52.5062309],[13.3344398,52.5062807],[13.3343069,52.5063339],[13.3341565,52.5063629],[13.3338593,52.506505],[13.3339103,52.5065462],[13.3339383,52.5065688],[13.3339919,52.5066121],[13.333815,52.5066932],[13.3337867,52.5066703],[13.3337324,52.5066962],[13.333867,52.5068818],[13.3341946,52.5072904],[13.334746,52.5080146],[13.3347778,52.5080554],[13.3347999,52.5080837],[13.3348376,52.5081473],[13.3348708,52.5082403],[13.3348783,52.5082935],[13.3348715,52.5084611],[13.3348497,52.5085289],[13.3348335,52.5085579],[13.3347964,52.5086208],[13.3347329,52.5086957],[13.3346464,52.5087691],[13.3345511,52.5088336],[13.3344029,52.5089069],[13.333968,52.5089759],[13.3338987,52.5088458],[13.3333346,52.5090252],[13.3326448,52.5092446],[13.3300432,52.5100754],[13.3316584,52.5106048],[13.3328077,52.5109934],[13.3330422,52.5110917],[13.3333089,52.5112242],[13.3335785,52.5113838],[13.3337426,52.5114883],[13.3340267,52.5117154],[13.3339232,52.5117299],[13.3338385,52.5117115],[13.3337475,52.5117167],[13.3336415,52.5117404],[13.3314603,52.5122275],[13.3311851,52.5123092],[13.3311841,52.5123095],[13.33098,52.5123883],[13.3308312,52.512463],[13.3307348,52.5125345],[13.3306617,52.5126157],[13.3305551,52.5128311],[13.3306047,52.5128331],[13.3313954,52.5128846],[13.3314189,52.5128372],[13.3314591,52.5128072],[13.3314963,52.5127959],[13.3315537,52.5127923],[13.3316037,52.5128002],[13.3316518,52.5128124],[13.3316703,52.5128689],[13.3316517,52.5129344],[13.3317636,52.5130162],[13.3358553,52.5133009],[13.3360312,52.5137819],[13.3361112,52.5139681],[13.3359279,52.5139614],[13.3361484,52.5143777],[13.3353786,52.5148594],[13.335333,52.5150385],[13.3352699,52.515093],[13.3349738,52.5153484],[13.3347933,52.5155041],[13.3346283,52.5158661],[13.3342655,52.5166623],[13.3342547,52.5166859],[13.334251,52.5166941],[13.3342357,52.5167255],[13.3342149,52.5167715],[13.3339796,52.5167375],[13.3337876,52.5167133],[13.3336073,52.5166892],[13.3334345,52.5166761],[13.3332217,52.5166676],[13.3329896,52.5166757],[13.332789,52.516684],[13.3325936,52.516692],[13.3325801,52.5166902],[13.3325726,52.5166846],[13.3322871,52.5166977],[13.33228,52.5166991],[13.3322034,52.5167139],[13.3318731,52.5168094],[13.3317453,52.5168469],[13.331672,52.5168684],[13.3311858,52.5170202],[13.3308997,52.5171262],[13.3307394,52.5172017],[13.3307283,52.5172069],[13.3303153,52.5174436],[13.3301421,52.5175537],[13.3299903,52.5176589],[13.329795,52.5178037],[13.3296383,52.5179535],[13.3294724,52.5181429],[13.3293703,52.5182858],[13.3292808,52.5184352],[13.329178,52.5186457],[13.3291432,52.5187645],[13.3291059,52.5189676],[13.3290951,52.5191688],[13.3291706,52.5195229],[13.3291779,52.5195483],[13.3293375,52.5200352],[13.3293779,52.520136],[13.3294343,52.5202761],[13.3294961,52.5204744],[13.3295384,52.5207043],[13.3295539,52.5209237],[13.3295189,52.5212194],[13.3294947,52.5213339],[13.3294539,52.5214544],[13.3293981,52.521568],[13.3293433,52.5216842],[13.3292805,52.5217987],[13.3292035,52.5219153],[13.3291503,52.5219854],[13.3291167,52.5220297],[13.3288844,52.5222993],[13.3288815,52.5223083],[13.3288902,52.5223117],[13.3288992,52.5223201],[13.3288974,52.5223309],[13.3287799,52.5224402],[13.3286588,52.5225513],[13.3286517,52.5225539],[13.3286419,52.5225558],[13.3286317,52.5225547],[13.3286204,52.5225512],[13.3285019,52.5226508],[13.3284241,52.522713],[13.3281929,52.5228786],[13.3272215,52.5235403],[13.3269849,52.5236954],[13.3268602,52.5237712],[13.3266744,52.5238725],[13.3264936,52.5239589],[13.3262845,52.5240464],[13.3258189,52.5242337],[13.3255136,52.5243361],[13.3252111,52.5244322],[13.3250529,52.5244793],[13.3247362,52.5245547],[13.3244224,52.5246152],[13.3241097,52.5246624],[13.3238047,52.5246964],[13.3236685,52.5247082],[13.3235232,52.5247142],[13.3232515,52.5247049],[13.3224029,52.5246494],[13.3220093,52.5246162],[13.3216764,52.5245738],[13.321366,52.5245221],[13.3211029,52.5244663],[13.3209395,52.52441],[13.3202776,52.5241476],[13.320012,52.5240407],[13.3197897,52.5239461],[13.3195567,52.5237793],[13.3194651,52.523706],[13.3193699,52.523589],[13.319223,52.5233808],[13.3190732,52.5231743],[13.3189005,52.5229426],[13.3188665,52.5228442],[13.3188175,52.5226128],[13.318713,52.5221594],[13.3186875,52.5220758],[13.3187153,52.5219252],[13.3187454,52.5218744],[13.3187769,52.5211203],[13.3182794,52.5207436],[13.3177979,52.5203665],[13.317309,52.5206209],[13.3168021,52.5209231],[13.3164185,52.5220304],[13.3133556,52.5302609],[13.313691,52.530304],[13.3167472,52.5309047],[13.3167307,52.5309361],[13.3166856,52.5310238],[13.316669,52.5310561],[13.3166138,52.5311624],[13.316741,52.5311861],[13.3168841,52.5312575],[13.3173252,52.5315307],[13.3170738,52.5320507],[13.3172964,52.5323723],[13.3169425,52.5323221],[13.313078,52.5318813],[13.3130779,52.5318816],[13.3125149,52.531747],[13.3080819,52.5311584],[13.3055254,52.5308275],[13.3026938,52.53045],[13.3006211,52.5301441],[13.3006408,52.5301085],[13.3006214,52.5301034],[13.300074,52.5300306],[13.3000515,52.5300543],[13.2989709,52.5298817],[13.2980623,52.529757],[13.2974007,52.5297026],[13.2965918,52.5296308],[13.2965691,52.5296969],[13.2965107,52.5296934],[13.2963717,52.5300577],[13.2956027,52.5300191],[13.2955777,52.5302245],[13.2954772,52.5304848],[13.2954166,52.5306179],[13.2953797,52.5306813],[13.2953062,52.5307864],[13.2952277,52.5308856],[13.2950991,52.5310149],[13.2949462,52.5310475],[13.294888,52.5311878],[13.2947278,52.5311961],[13.2945049,52.5313254],[13.2942018,52.5314683],[13.2940701,52.5315329],[13.2927174,52.5316741],[13.2913735,52.5318173],[13.290897,52.5317148],[13.2905406,52.5316017],[13.2900164,52.5313932],[13.2881235,52.5306236],[13.2879329,52.5303697],[13.2868639,52.5299487],[13.2860346,52.5297402],[13.2857057,52.5296767],[13.2850416,52.5295918],[13.2845577,52.5295984],[13.2841423,52.529628],[13.2838569,52.529696],[13.2835635,52.5297935],[13.2835758,52.5289426],[13.2833232,52.5289319],[13.2827063,52.5279489],[13.2825276,52.5276172],[13.2823395,52.5272721],[13.2821735,52.5269409],[13.282067,52.5267048],[13.281905,52.5263202],[13.281783,52.5264742],[13.2815711,52.5267216],[13.2814473,52.5264635],[13.2810755,52.5254597],[13.2809449,52.5249249],[13.2808878,52.5242647],[13.2806236,52.5242566]]]},"id":"berlin::charlottenburg"},{"type":"Feature","properties":{"id":"berlin::friedrichshain","name":"Friedrichshain","cityId":"berlin","city":"Berlin","country":"Germany","parentName":null,"displayName":"Friedrichshain, Friedrichshain-Kreuzberg, Berlin, Deutschland","source":{"provider":"Nominatim / OpenStreetMap","datasetUrl":"https://nominatim.openstreetmap.org/search","query":"Friedrichshain, Berlin, Germany"}},"geometry":{"type":"Polygon","coordinates":[[[13.4197532,52.5255456],[13.4197996,52.5255288],[13.4217536,52.5247551],[13.422336,52.524527],[13.4237733,52.5239632],[13.4240706,52.5238552],[13.424745,52.5236397],[13.4254333,52.5234391],[13.4254847,52.5234462],[13.425881,52.5233521],[13.4262749,52.5233038],[13.426501,52.5232938],[13.4265191,52.5229415],[13.4260028,52.5229219],[13.4259104,52.5228316],[13.4255523,52.5227924],[13.427648,52.5218833],[13.4277699,52.5218307],[13.4286516,52.5214498],[13.4291793,52.5212255],[13.4291879,52.5212028],[13.4287208,52.520244],[13.4283998,52.5195865],[13.427473,52.519607],[13.4273894,52.5196195],[13.4269188,52.5197438],[13.4259489,52.5183762],[13.4263036,52.5182898],[13.4261515,52.5180693],[13.426325,52.5180342],[13.4263382,52.5180441],[13.4267494,52.5179611],[13.4264117,52.5173823],[13.426387,52.5173383],[13.4260106,52.5166807],[13.4256734,52.5160708],[13.4251388,52.515144],[13.4250962,52.5150695],[13.4248581,52.5147512],[13.4243882,52.5141378],[13.4241002,52.5137867],[13.4240624,52.5137399],[13.4240118,52.5136867],[13.4238389,52.5133666],[13.4232333,52.512717],[13.4227803,52.5122343],[13.4230325,52.5121199],[13.4230834,52.5121233],[13.4231813,52.5120816],[13.4244677,52.5113968],[13.4260485,52.5104788],[13.4271178,52.5098499],[13.4280901,52.5092781],[13.4283796,52.5090711],[13.4286637,52.5089922],[13.4288636,52.5089799],[13.4288927,52.5089711],[13.42917,52.5088353],[13.4291869,52.5088123],[13.4292032,52.5087194],[13.4292376,52.5086638],[13.4294017,52.5085626],[13.4295929,52.5084811],[13.4305703,52.5080102],[13.4322018,52.507288],[13.4339859,52.5063732],[13.4343959,52.5060962],[13.4354967,52.5056384],[13.4358479,52.5054103],[13.4359799,52.50537],[13.4360036,52.5053824],[13.4361071,52.5053271],[13.4360791,52.5053102],[13.4361594,52.5052711],[13.4360707,52.5052345],[13.4370538,52.5046074],[13.4371366,52.5045554],[13.4375535,52.504376],[13.4378683,52.5042892],[13.4380538,52.5042169],[13.4385042,52.5040023],[13.4389902,52.5038215],[13.4401917,52.5033744],[13.4414479,52.5029237],[13.4448206,52.501304],[13.4448229,52.5012991],[13.4451614,52.5011316],[13.4452288,52.5011004],[13.4453706,52.501039],[13.4454446,52.501005],[13.4456757,52.5008837],[13.445847,52.5008018],[13.4459729,52.5007416],[13.4465111,52.5005142],[13.4467946,52.5004111],[13.4468702,52.5003863],[13.4469478,52.5003608],[13.447025,52.5003348],[13.4476752,52.5001217],[13.4477395,52.5001007],[13.4478189,52.5000747],[13.4479021,52.5000486],[13.4479802,52.5000242],[13.4485089,52.4998567],[13.4486052,52.4998263],[13.4490125,52.4997047],[13.4496396,52.4994795],[13.4497161,52.4994406],[13.4500065,52.4992898],[13.4501173,52.4992323],[13.4501923,52.4991941],[13.4504406,52.4990616],[13.4509092,52.4989133],[13.4514301,52.4989347],[13.4521586,52.4984687],[13.452231,52.4985063],[13.4526909,52.4982566],[13.452723,52.4982378],[13.4527815,52.498097],[13.452755,52.4980776],[13.452724,52.4980557],[13.4527155,52.4980176],[13.452707,52.4979878],[13.4526975,52.4979484],[13.4526953,52.497926],[13.4526893,52.4979034],[13.4529296,52.4977068],[13.4531081,52.4975462],[13.4533558,52.497526],[13.4535304,52.4975335],[13.4536119,52.4975381],[13.4540643,52.4975592],[13.4540871,52.4975547],[13.4544446,52.497486],[13.4547522,52.4974268],[13.4550436,52.4973665],[13.4583073,52.4968071],[13.4595955,52.4965568],[13.4621962,52.4955378],[13.4630717,52.4954437],[13.4633549,52.4954855],[13.4641615,52.4951129],[13.4631743,52.4943493],[13.463195,52.4942165],[13.4642795,52.4937189],[13.4670566,52.4926872],[13.4684892,52.4923432],[13.47102,52.4914874],[13.4737886,52.4910335],[13.4754199,52.4903347],[13.476147,52.4899443],[13.4770482,52.4893119],[13.477689,52.4887795],[13.4778861,52.4880826],[13.478042,52.4877662],[13.4786285,52.4870327],[13.4792383,52.487868],[13.4794249,52.4879238],[13.479871,52.4879437],[13.4800425,52.4879387],[13.4805383,52.4878777],[13.481678,52.487638],[13.482049,52.487448],[13.4829538,52.4860501],[13.4851047,52.4870836],[13.4860314,52.4875315],[13.4868897,52.4877771],[13.4876828,52.4878844],[13.4887351,52.487866],[13.4892758,52.4878137],[13.4902657,52.4876087],[13.4910096,52.487359],[13.4914434,52.4882828],[13.4887873,52.4892704],[13.4885271,52.4898498],[13.4876023,52.490202],[13.4861097,52.4907442],[13.4860524,52.4908601],[13.4856938,52.4912963],[13.4849871,52.4916339],[13.4841318,52.4916924],[13.4837311,52.4918588],[13.4833635,52.4921012],[13.4798223,52.4945622],[13.4787715,52.4952876],[13.4786274,52.4952712],[13.4775987,52.4959532],[13.4756862,52.4973025],[13.4730756,52.4990026],[13.4703009,52.4993714],[13.4702787,52.4994034],[13.4694804,52.4995204],[13.4685734,52.4996572],[13.4687702,52.5001565],[13.4688756,52.5001599],[13.4691819,52.5010664],[13.4695207,52.5019427],[13.4695422,52.5019416],[13.4696743,52.5022842],[13.4697556,52.5023202],[13.4697657,52.502472],[13.469846,52.5026941],[13.4699491,52.5029871],[13.4702062,52.5037443],[13.4704278,52.5040641],[13.4706177,52.5042759],[13.4712936,52.5050021],[13.4711643,52.5051377],[13.4714793,52.5054665],[13.4715166,52.5055151],[13.4717481,52.5057351],[13.472166,52.5060408],[13.4722603,52.5061089],[13.4727145,52.5063598],[13.472729,52.5064557],[13.4728041,52.5064933],[13.472769,52.5065774],[13.4727896,52.5066437],[13.472832,52.5067101],[13.4734064,52.5069189],[13.4730669,52.5071259],[13.4738207,52.5079312],[13.4738053,52.5080071],[13.4739355,52.5079698],[13.474028,52.5080676],[13.4739021,52.5081014],[13.4739616,52.5081087],[13.4742096,52.5083707],[13.4744845,52.5086598],[13.4748083,52.5089966],[13.4752503,52.5094582],[13.4754191,52.5096326],[13.4757244,52.5100974],[13.4758272,52.5102558],[13.4760482,52.5103012],[13.4761639,52.5103481],[13.4762658,52.5104393],[13.4761484,52.5109576],[13.4761107,52.5111151],[13.475888,52.5120534],[13.4759414,52.5120589],[13.4759275,52.5121135],[13.4758391,52.5121224],[13.475777,52.5124218],[13.4756314,52.5130593],[13.4755311,52.5130692],[13.4754364,52.51343],[13.4754514,52.5138226],[13.4758875,52.5148631],[13.477492,52.514388],[13.4777288,52.5147204],[13.4767101,52.5150482],[13.4766028,52.5151233],[13.4765677,52.5151541],[13.4764586,52.5153008],[13.4760548,52.5161244],[13.4758627,52.5163779],[13.475508,52.5168458],[13.475472,52.5169059],[13.4741361,52.5189444],[13.4740753,52.519038],[13.4735151,52.5191256],[13.4729572,52.5198985],[13.4723904,52.5205711],[13.4721073,52.5206943],[13.4720225,52.5206863],[13.4711262,52.5206193],[13.4707348,52.5205901],[13.4706139,52.52057],[13.4626951,52.5199276],[13.4570727,52.5209473],[13.4569719,52.5209657],[13.4557569,52.5211853],[13.4555724,52.5212197],[13.4552901,52.5212723],[13.4561572,52.5224576],[13.4557998,52.5225523],[13.452465,52.527455],[13.4524166,52.5275262],[13.4521828,52.5277958],[13.4519133,52.5277363],[13.4514188,52.5276271],[13.4511288,52.5275631],[13.450783,52.5274867],[13.4507678,52.5274833],[13.4505238,52.5274101],[13.4504871,52.5273991],[13.4502546,52.5273292],[13.4500622,52.5272718],[13.4499512,52.5272387],[13.4499171,52.5272285],[13.4498104,52.5271967],[13.4496766,52.5271568],[13.4496403,52.527146],[13.4495073,52.5271063],[13.4493378,52.5270557],[13.4486578,52.5268528],[13.4486109,52.5268388],[13.4479223,52.5266333],[13.4471683,52.5264084],[13.4469311,52.5266278],[13.4466929,52.5268481],[13.4465552,52.5269755],[13.44648,52.5271388],[13.4422774,52.5310256],[13.4387482,52.5287778],[13.4383106,52.5288005],[13.4374816,52.529548],[13.4371058,52.5295042],[13.4341502,52.52916],[13.4329335,52.5290182],[13.4311855,52.5288146],[13.4253232,52.5281298],[13.4252869,52.5281256],[13.4250269,52.5280952],[13.4249513,52.5279951],[13.4248545,52.5278778],[13.4246639,52.5279077],[13.4245148,52.5279015],[13.4244692,52.5279127],[13.4244549,52.527899],[13.424005,52.5278817],[13.4238276,52.5278979],[13.4238093,52.5278996],[13.4236421,52.527915],[13.4235526,52.5278604],[13.4227522,52.5273728],[13.4225581,52.5272545],[13.4219887,52.5269076],[13.421484,52.5266002],[13.4202197,52.5258298],[13.4201611,52.5257942],[13.4197532,52.5255456]]]},"id":"berlin::friedrichshain"},{"type":"Feature","properties":{"id":"berlin::tiergarten","name":"Tiergarten","cityId":"berlin","city":"Berlin","country":"Germany","parentName":null,"displayName":"Tiergarten, Mitte, Berlin, Deutschland","source":{"provider":"Nominatim / OpenStreetMap","datasetUrl":"https://nominatim.openstreetmap.org/search","query":"Tiergarten, Berlin, Germany"}},"geometry":{"type":"Polygon","coordinates":[[[13.3300432,52.5100754],[13.3326448,52.5092446],[13.3333346,52.5090252],[13.3338987,52.5088458],[13.333968,52.5089759],[13.3344029,52.5089069],[13.3345511,52.5088336],[13.3346464,52.5087691],[13.3347329,52.5086957],[13.3347964,52.5086208],[13.3348335,52.5085579],[13.3348497,52.5085289],[13.3348715,52.5084611],[13.3348783,52.5082935],[13.3348708,52.5082403],[13.3348376,52.5081473],[13.3347999,52.5080837],[13.3347778,52.5080554],[13.334746,52.5080146],[13.3341946,52.5072904],[13.333867,52.5068818],[13.3337324,52.5066962],[13.3337867,52.5066703],[13.333815,52.5066932],[13.3339919,52.5066121],[13.3339383,52.5065688],[13.3339103,52.5065462],[13.3338593,52.506505],[13.3341565,52.5063629],[13.3343069,52.5063339],[13.3344398,52.5062807],[13.334538,52.5062309],[13.33462,52.5061791],[13.3346654,52.5061303],[13.3347402,52.5061815],[13.3349241,52.5060952],[13.3349717,52.5060735],[13.3351858,52.5059765],[13.3351961,52.5059718],[13.3352289,52.5059568],[13.3352502,52.5059471],[13.3352666,52.5059395],[13.3354075,52.5058809],[13.3355834,52.5058267],[13.3356933,52.5058075],[13.3357443,52.5057986],[13.3358823,52.505781],[13.3362178,52.5057519],[13.336363,52.5057391],[13.3366015,52.5057207],[13.3366998,52.5057165],[13.3367197,52.5057158],[13.3368565,52.5057198],[13.3369049,52.5057211],[13.3370014,52.505728],[13.3371235,52.5057436],[13.3372724,52.5057627],[13.3375282,52.5057955],[13.3381883,52.5058694],[13.3382358,52.5058748],[13.3382599,52.5058776],[13.3383515,52.5058882],[13.3385796,52.5059151],[13.3386125,52.5059212],[13.3386261,52.5059237],[13.3386407,52.5059263],[13.3387914,52.5056224],[13.3388505,52.5055031],[13.3388903,52.5054269],[13.3389313,52.5053572],[13.3391048,52.5051171],[13.339196,52.5051353],[13.3394556,52.5051728],[13.3397341,52.5051919],[13.3400212,52.5051852],[13.3402909,52.5051628],[13.3409772,52.50507],[13.3414287,52.5049347],[13.3415076,52.504913],[13.3467191,52.503675],[13.3481545,52.503328],[13.3514081,52.5025413],[13.3534563,52.5020875],[13.3543221,52.5018957],[13.3543284,52.5019066],[13.3553828,52.5016374],[13.355376,52.5016262],[13.3560368,52.5014613],[13.3560411,52.50147],[13.3576374,52.5010619],[13.3585947,52.5007931],[13.3593198,52.5005864],[13.3595438,52.5005226],[13.3597194,52.5004724],[13.3598769,52.5004275],[13.3600254,52.5003819],[13.3603634,52.5002845],[13.3625368,52.499662],[13.3630442,52.4995624],[13.3636787,52.4994764],[13.3640551,52.4994246],[13.3688402,52.4987771],[13.369076,52.4987507],[13.3693432,52.4987207],[13.3695143,52.498879],[13.370362,52.4995305],[13.3705522,52.4996846],[13.3705545,52.4996818],[13.370587,52.4996836],[13.3708251,52.4998602],[13.3708884,52.4999544],[13.3713442,52.501634],[13.3714531,52.501758],[13.3717361,52.5020391],[13.3721632,52.5024872],[13.373043,52.5033823],[13.3736093,52.504164],[13.3742442,52.5034855],[13.3746784,52.5032356],[13.3747522,52.5032345],[13.3749797,52.5033759],[13.377639,52.5079091],[13.3776503,52.5079658],[13.3773676,52.5083413],[13.3771698,52.5085013],[13.3770867,52.5085675],[13.3769073,52.5087116],[13.3768429,52.5087668],[13.3767921,52.5088174],[13.3767531,52.5088636],[13.376723,52.5089049],[13.3766972,52.5089476],[13.3766729,52.5089993],[13.3766522,52.509055],[13.3765976,52.509293],[13.3766022,52.5093604],[13.3765973,52.5094216],[13.3765821,52.5095898],[13.376578,52.5096466],[13.3765736,52.5097067],[13.3765682,52.50975],[13.3765301,52.5099505],[13.3765633,52.5100881],[13.3765808,52.5101679],[13.3765954,52.5102406],[13.3766888,52.5106616],[13.3766943,52.5106866],[13.3767015,52.51072],[13.3767099,52.510759],[13.3770286,52.5123583],[13.3768188,52.5124089],[13.376822,52.5124798],[13.3768505,52.5129279],[13.3769876,52.5135825],[13.377373,52.5156371],[13.377218,52.515679],[13.3769605,52.5157626],[13.3768146,52.5158305],[13.3766945,52.5159349],[13.3766172,52.5160551],[13.3765769,52.5162016],[13.3765486,52.5163006],[13.376567,52.5163453],[13.3765915,52.516405],[13.3766687,52.5165095],[13.3767631,52.5165774],[13.3769262,52.516661],[13.3770721,52.5167236],[13.3771837,52.5167654],[13.3772438,52.5168229],[13.3772108,52.5169175],[13.3769867,52.5174033],[13.3768575,52.5176951],[13.3769827,52.51795],[13.3770025,52.519565],[13.3769629,52.5195876],[13.3767404,52.5196987],[13.3766847,52.5197326],[13.3765208,52.5198502],[13.3763704,52.5199859],[13.3761487,52.5203079],[13.3760324,52.5207919],[13.3759871,52.5209689],[13.3759305,52.5212096],[13.3758532,52.5213208],[13.3756428,52.5215768],[13.3756183,52.5216013],[13.3755709,52.521656],[13.375386,52.5218348],[13.3752891,52.5218957],[13.3750451,52.5220319],[13.3749421,52.5220875],[13.3747754,52.5221743],[13.3745857,52.5222656],[13.3744843,52.522313],[13.3742637,52.5224101],[13.3740076,52.5225074],[13.3739095,52.5225381],[13.3738034,52.5225738],[13.3736518,52.5226174],[13.3735791,52.5226334],[13.3733972,52.5226765],[13.3732179,52.5227069],[13.3730273,52.5227386],[13.3728545,52.5227564],[13.3726817,52.5227742],[13.3725625,52.5227835],[13.3724382,52.5227921],[13.3723078,52.5227958],[13.3721112,52.5228053],[13.3719072,52.5228041],[13.3717855,52.5228009],[13.3716857,52.5227978],[13.3715532,52.5227903],[13.371408,52.522778],[13.3712478,52.5227586],[13.3710605,52.5227298],[13.3709927,52.5227177],[13.3709561,52.5227112],[13.3709257,52.5227052],[13.3707963,52.5226793],[13.3707779,52.5226743],[13.3707285,52.5226608],[13.3705704,52.5226174],[13.3704026,52.5225666],[13.3703451,52.5225476],[13.3702132,52.5225032],[13.3700826,52.5224565],[13.3699826,52.5224158],[13.3698924,52.5223736],[13.3697289,52.5222871],[13.369709,52.5222765],[13.3696724,52.52225],[13.3695893,52.5221935],[13.3695111,52.5221345],[13.3694543,52.5220865],[13.3693828,52.5220208],[13.3693485,52.5219849],[13.369201,52.521831],[13.3691895,52.5218183],[13.3689551,52.5216177],[13.368948,52.5216115],[13.3688262,52.5215054],[13.3687034,52.521392],[13.3685292,52.5212097],[13.3683955,52.5210889],[13.3682544,52.5209718],[13.3681086,52.52086],[13.3680357,52.5208037],[13.3679605,52.5207491],[13.3678456,52.5206706],[13.3677363,52.5206063],[13.3675961,52.5205248],[13.3674977,52.5204749],[13.3673817,52.5204196],[13.3672403,52.5203585],[13.366898,52.5202309],[13.3667087,52.5201653],[13.3665305,52.5200998],[13.3662745,52.5200122],[13.3660196,52.5199315],[13.3657631,52.5198569],[13.3656299,52.5198217],[13.365493,52.5197887],[13.3653146,52.5196814],[13.3651738,52.5195967],[13.3645043,52.5194268],[13.3644669,52.5194209],[13.3641009,52.5194127],[13.364078,52.5194102],[13.3640494,52.5194053],[13.3637501,52.5193255],[13.3634038,52.5192316],[13.3630423,52.5191395],[13.362774,52.5190607],[13.3626663,52.5190355],[13.3626538,52.5190326],[13.3625645,52.5190003],[13.362447,52.5189613],[13.3622827,52.5189024],[13.3622135,52.5188645],[13.3621064,52.5188159],[13.3620464,52.5187988],[13.3620231,52.5187921],[13.3618691,52.5187112],[13.3616784,52.5185788],[13.3614795,52.5184581],[13.3612853,52.5183339],[13.361198,52.5182777],[13.3611244,52.5182364],[13.3609608,52.5181235],[13.3608929,52.5180778],[13.3608514,52.5180572],[13.3607143,52.5179896],[13.3606218,52.5179217],[13.3605239,52.5178594],[13.3604056,52.5177935],[13.3602468,52.5177279],[13.3600976,52.5176632],[13.3600059,52.5176312],[13.3598207,52.5175752],[13.3594555,52.5174642],[13.3593303,52.517436],[13.3590205,52.5173688],[13.3587113,52.5173056],[13.3585714,52.5172763],[13.358434,52.5172521],[13.358073,52.5171888],[13.3576407,52.5171292],[13.3573556,52.5170999],[13.3571454,52.5170807],[13.3569021,52.5170676],[13.3567003,52.5170647],[13.3563259,52.5170763],[13.3561837,52.5170847],[13.3559353,52.5171174],[13.3556707,52.5171523],[13.3552518,52.517217],[13.3549172,52.51727],[13.354572,52.5174171],[13.3545419,52.5174319],[13.3544244,52.5174895],[13.3542567,52.517563],[13.3540843,52.5176421],[13.3536662,52.5178386],[13.3533141,52.5180221],[13.3527966,52.5183113],[13.3526854,52.5183741],[13.352582,52.5184276],[13.3523194,52.5185655],[13.3521323,52.5186597],[13.3519277,52.5187528],[13.3514417,52.5189837],[13.3509995,52.5192017],[13.35078,52.5193262],[13.3503243,52.5196434],[13.3500938,52.5196615],[13.3500629,52.5196673],[13.349631,52.5196842],[13.3496183,52.5196087],[13.3494106,52.5196279],[13.349374,52.5196304],[13.3479391,52.5197152],[13.3476293,52.5192315],[13.3474935,52.5191245],[13.3473188,52.5190742],[13.347314,52.5189078],[13.3473093,52.5187957],[13.3472503,52.5187969],[13.3472354,52.5187974],[13.3472302,52.5187066],[13.3473032,52.518707],[13.3472976,52.5186232],[13.3472932,52.5184837],[13.3474086,52.5184794],[13.3473901,52.5182588],[13.3473877,52.518229],[13.3474531,52.5182277],[13.3474262,52.5179792],[13.3472389,52.5179869],[13.3472244,52.5178071],[13.3471967,52.5178047],[13.3467344,52.5177654],[13.3457284,52.5176747],[13.345677,52.5179771],[13.345655,52.5181257],[13.3457394,52.5181985],[13.3454509,52.5183011],[13.3453315,52.5181934],[13.3444515,52.5181201],[13.3446413,52.517275],[13.3442019,52.5172298],[13.3443037,52.5167945],[13.344397,52.5166197],[13.3442017,52.516558],[13.3439308,52.5164724],[13.3438895,52.5164508],[13.3437542,52.5163801],[13.3438046,52.516371],[13.3438633,52.5163603],[13.3441787,52.5163778],[13.3442018,52.5162428],[13.3443681,52.5162508],[13.3449584,52.5162885],[13.3453003,52.5163103],[13.3454195,52.5163135],[13.3456986,52.5161936],[13.3453521,52.5159881],[13.3452601,52.5159335],[13.3446855,52.5158998],[13.3442661,52.5158754],[13.3442413,52.515998],[13.3441716,52.5159938],[13.3440389,52.5159901],[13.3440507,52.5159275],[13.3440865,52.5157556],[13.3440303,52.5157518],[13.3438907,52.515743],[13.343693,52.5157301],[13.3436088,52.5157245],[13.3435268,52.5157378],[13.3434748,52.5157469],[13.3434134,52.5156632],[13.3433421,52.5156242],[13.343246,52.5155763],[13.342996,52.515547],[13.3430273,52.5154477],[13.3431347,52.5151062],[13.3422392,52.5150497],[13.3422312,52.5151296],[13.3422116,52.5152647],[13.34221,52.515322],[13.3422087,52.5153755],[13.3422083,52.5153891],[13.3422071,52.5155013],[13.3392421,52.5153142],[13.3388895,52.5154862],[13.3388635,52.5154945],[13.338838,52.5154949],[13.3388205,52.5154879],[13.3384276,52.5152064],[13.338299,52.5150995],[13.3392606,52.5151607],[13.3392893,52.5150266],[13.3393739,52.5145696],[13.3392191,52.5145549],[13.3380146,52.5146734],[13.3379868,52.5145251],[13.3379813,52.5143338],[13.3380914,52.5139227],[13.3378419,52.5139061],[13.3377444,52.5139027],[13.3371085,52.5138575],[13.336878,52.5138425],[13.3364183,52.5138125],[13.3360312,52.5137819],[13.3358553,52.5133009],[13.3317636,52.5130162],[13.3316517,52.5129344],[13.3316703,52.5128689],[13.3316518,52.5128124],[13.3316037,52.5128002],[13.3315537,52.5127923],[13.3314963,52.5127959],[13.3314591,52.5128072],[13.3314189,52.5128372],[13.3313954,52.5128846],[13.3306047,52.5128331],[13.3305551,52.5128311],[13.3306617,52.5126157],[13.3307348,52.5125345],[13.3308312,52.512463],[13.33098,52.5123883],[13.3311841,52.5123095],[13.3311851,52.5123092],[13.3314603,52.5122275],[13.3336415,52.5117404],[13.3337475,52.5117167],[13.3338385,52.5117115],[13.3339232,52.5117299],[13.3340267,52.5117154],[13.3337426,52.5114883],[13.3335785,52.5113838],[13.3333089,52.5112242],[13.3330422,52.5110917],[13.3328077,52.5109934],[13.3316584,52.5106048],[13.3300432,52.5100754]]]},"id":"berlin::tiergarten"}]}
