{"type":"FeatureCollection","features":[{"type":"Feature","properties":{"id":"boston::back-bay","name":"Back Bay","cityId":"boston","city":"Boston","country":"United States","parentName":null,"displayName":"Back Bay, Boston, Suffolk County, Massachusetts, United States"},"geometry":{"type":"Polygon","coordinates":[[[-71.0916686,42.3502429],[-71.0916614,42.3479991],[-71.0907266,42.3480282],[-71.0889057,42.3480634],[-71.0883588,42.3480739],[-71.0883385,42.3480743],[-71.0883292,42.3480745],[-71.088213,42.3480797],[-71.0881362,42.3480831],[-71.0881016,42.3480117],[-71.0880741,42.3479549],[-71.0880133,42.3478293],[-71.0879214,42.3476396],[-71.0880686,42.3475587],[-71.087829,42.3474488],[-71.0878106,42.3474106],[-71.0878051,42.3473993],[-71.0877906,42.3473693],[-71.0877546,42.3473004],[-71.0877254,42.3472443],[-71.0874065,42.3466323],[-71.0873437,42.3464967],[-71.0873227,42.3464517],[-71.0872848,42.3463705],[-71.0872839,42.3463687],[-71.0872648,42.3463297],[-71.0871892,42.3461757],[-71.0870787,42.3459506],[-71.0870539,42.3458997],[-71.0870214,42.3458334],[-71.0869398,42.3456668],[-71.0868621,42.3455081],[-71.0868371,42.3454571],[-71.086816,42.3454147],[-71.0868145,42.3454118],[-71.0868132,42.345409],[-71.0868099,42.3454024],[-71.0868051,42.3453926],[-71.0867877,42.345357],[-71.0867771,42.3453353],[-71.0867654,42.3453115],[-71.0866969,42.3451718],[-71.0866309,42.3450371],[-71.0865941,42.3449621],[-71.0861907,42.3441389],[-71.0861887,42.3441349],[-71.0861874,42.3441323],[-71.0861703,42.3440929],[-71.0861598,42.3440688],[-71.0861297,42.3439994],[-71.0860407,42.3437944],[-71.0858655,42.3434601],[-71.0858592,42.3434539],[-71.0858406,42.3434359],[-71.0857695,42.3433671],[-71.0857599,42.3433577],[-71.0857304,42.3433292],[-71.0856999,42.3432996],[-71.0850848,42.3428778],[-71.0850322,42.3428417],[-71.0849579,42.3427941],[-71.0849285,42.3427753],[-71.0848962,42.3427548],[-71.0840804,42.342191],[-71.083418,42.3417407],[-71.083307,42.3416607],[-71.0831418,42.3415367],[-71.0830107,42.3416398],[-71.0827967,42.3418207],[-71.0825109,42.3420659],[-71.0824529,42.3421135],[-71.0823666,42.3421845],[-71.0821963,42.3423244],[-71.0821532,42.3423598],[-71.0819253,42.342547],[-71.0818824,42.3425822],[-71.0818596,42.342601],[-71.0815378,42.3428653],[-71.081518,42.3428816],[-71.0812858,42.3430724],[-71.0812346,42.3431144],[-71.0811878,42.3431528],[-71.0811425,42.3431874],[-71.0808834,42.3433856],[-71.0808469,42.3434134],[-71.0808274,42.3434283],[-71.0805219,42.3436915],[-71.0800392,42.3441117],[-71.0799677,42.3441607],[-71.0798948,42.3442107],[-71.079582,42.3444696],[-71.0791626,42.3448119],[-71.0791604,42.3448136],[-71.0790328,42.3449178],[-71.0789983,42.3449459],[-71.0789667,42.3449717],[-71.0787169,42.3451755],[-71.078689,42.3451983],[-71.0782333,42.3455702],[-71.0782032,42.3455948],[-71.0781353,42.3456502],[-71.0781143,42.3456673],[-71.078012,42.3457508],[-71.0779388,42.3458105],[-71.0779254,42.3458214],[-71.0779153,42.3458296],[-71.0775477,42.3461296],[-71.0775459,42.3461311],[-71.0775337,42.346141],[-71.0773301,42.3463071],[-71.0773282,42.3463087],[-71.077325,42.3463113],[-71.0772619,42.3463627],[-71.077209,42.3464059],[-71.0769893,42.3465584],[-71.0767683,42.3467021],[-71.0767234,42.3467284],[-71.0766404,42.3467771],[-71.0765041,42.3468635],[-71.0764479,42.3469045],[-71.0763727,42.3469474],[-71.0763249,42.3469731],[-71.0763191,42.3469753],[-71.0762592,42.3469975],[-71.076191,42.3470228],[-71.0760255,42.3470832],[-71.0759566,42.3470879],[-71.0758148,42.3470844],[-71.0757144,42.3470917],[-71.0753874,42.3471483],[-71.0743641,42.3473191],[-71.0743552,42.3473206],[-71.0740841,42.3473454],[-71.0738416,42.3473674],[-71.0738377,42.3473677],[-71.0738149,42.3473697],[-71.0737045,42.3473797],[-71.0736877,42.3473812],[-71.0735667,42.3473921],[-71.073481,42.3473998],[-71.0734107,42.3474062],[-71.0733274,42.3474137],[-71.0732363,42.3474871],[-71.0731974,42.3475184],[-71.0731607,42.3475479],[-71.0731339,42.3475694],[-71.0731252,42.3475765],[-71.0731082,42.3475901],[-71.0730909,42.347604],[-71.0730884,42.3476061],[-71.072811,42.3478306],[-71.0725125,42.3480728],[-71.0723875,42.3481747],[-71.0723081,42.3482394],[-71.0722086,42.3483205],[-71.0720848,42.3484215],[-71.0720806,42.3484248],[-71.0719979,42.3484922],[-71.0719486,42.3485325],[-71.0717821,42.3486682],[-71.0717562,42.3486899],[-71.0716974,42.3487392],[-71.0716893,42.3487461],[-71.0715898,42.3488205],[-71.0714399,42.348941],[-71.0714119,42.3489635],[-71.0713835,42.3489863],[-71.0713761,42.3489923],[-71.0713647,42.3490015],[-71.0713074,42.3490475],[-71.0712602,42.3490855],[-71.0712224,42.3491159],[-71.0710839,42.3492272],[-71.0710746,42.3492347],[-71.0710372,42.3492648],[-71.0710252,42.3492744],[-71.0710122,42.3492849],[-71.0709943,42.3492993],[-71.0709683,42.3493201],[-71.0707685,42.3494808],[-71.0707089,42.3495285],[-71.070644,42.3495805],[-71.0704969,42.3496983],[-71.0702505,42.3498956],[-71.0701938,42.349941],[-71.070064,42.3500359],[-71.069899,42.3501566],[-71.070682,42.3519015],[-71.0725106,42.3554678],[-71.0730456,42.3552895],[-71.0732782,42.3558328],[-71.0750468,42.3553377],[-71.0753691,42.3560276],[-71.0756499,42.3568089],[-71.0757088,42.3567608],[-71.0757947,42.3568155],[-71.0756886,42.3569167],[-71.0757134,42.3569856],[-71.0760624,42.3566633],[-71.0759979,42.3566267],[-71.0758335,42.3567784],[-71.0757475,42.3567246],[-71.0758118,42.3566578],[-71.0760695,42.3564797],[-71.0764047,42.3563332],[-71.077365,42.3560754],[-71.0776138,42.356071],[-71.0779171,42.3559937],[-71.0784254,42.3557783],[-71.0845702,42.3541131],[-71.0848502,42.3539261],[-71.0852376,42.3534695],[-71.0851289,42.3534069],[-71.0847728,42.3534536],[-71.0847217,42.353351],[-71.0859275,42.3530585],[-71.0859438,42.3531096],[-71.0860189,42.3530909],[-71.0858415,42.3531563],[-71.0858759,42.3532189],[-71.0862962,42.3531045],[-71.086264,42.3530419],[-71.0860824,42.3530923],[-71.0861473,42.3530548],[-71.0861187,42.3530075],[-71.0871802,42.3527182],[-71.0886275,42.3523564],[-71.0901115,42.3521239],[-71.0901068,42.3521138],[-71.0899651,42.3517275],[-71.0897142,42.3513311],[-71.0894854,42.3508446],[-71.0916686,42.3502429]]]},"id":"boston::back-bay"},{"type":"Feature","properties":{"id":"boston::beacon-hill","name":"Beacon Hill","cityId":"boston","city":"Boston","country":"United States","parentName":null,"displayName":"Beacon Hill, Boston, Suffolk County, Massachusetts, United States"},"geometry":{"type":"Polygon","coordinates":[[[-71.0779522,42.3587351],[-71.0757134,42.3569856],[-71.0750462,42.355329],[-71.0745342,42.3554676],[-71.0733651,42.3557841],[-71.0733051,42.3557806],[-71.0730793,42.3553152],[-71.0730404,42.3553026],[-71.0729163,42.3553367],[-71.0727117,42.3553881],[-71.0724845,42.3554749],[-71.0723531,42.3552553],[-71.0722516,42.3550447],[-71.072109,42.3547532],[-71.0720958,42.3547267],[-71.0720629,42.3546549],[-71.0718839,42.3542796],[-71.0716963,42.353917],[-71.0716624,42.3538486],[-71.0715515,42.3536156],[-71.0715288,42.3535693],[-71.0714947,42.3535026],[-71.0714644,42.3534465],[-71.0714286,42.3533719],[-71.0713268,42.3531592],[-71.071287,42.3530781],[-71.0711712,42.3528376],[-71.0711597,42.3528142],[-71.0711341,42.3527599],[-71.0711009,42.3526902],[-71.07091,42.3523049],[-71.0708582,42.3521979],[-71.0708447,42.35217],[-71.070779,42.3520387],[-71.0707623,42.3520102],[-71.070706,42.3519142],[-71.0706987,42.3519017],[-71.0692035,42.3522641],[-71.0684109,42.3524835],[-71.0674592,42.3526343],[-71.0671978,42.3525727],[-71.0669503,42.3525457],[-71.0658614,42.3524654],[-71.0646733,42.3523874],[-71.0645658,42.3523803],[-71.0644714,42.35265],[-71.0642106,42.3533831],[-71.0640648,42.3537612],[-71.0633226,42.3551581],[-71.062864,42.3556286],[-71.0622159,42.3562543],[-71.0619859,42.3565012],[-71.0617467,42.3567017],[-71.0612665,42.3571568],[-71.0610878,42.3573876],[-71.0604931,42.3579869],[-71.06136,42.3582622],[-71.0616593,42.3583629],[-71.0616602,42.358763],[-71.0616601,42.3591631],[-71.061257,42.3609574],[-71.0617746,42.3611181],[-71.0618736,42.3611464],[-71.0619851,42.3611733],[-71.0620983,42.3611959],[-71.0622097,42.361214],[-71.0623103,42.3612274],[-71.0624167,42.3612387],[-71.0625405,42.3612483],[-71.0626853,42.361253],[-71.0628727,42.3612549],[-71.0699729,42.3611268],[-71.0706545,42.361161],[-71.0707785,42.3611672],[-71.0756831,42.3615429],[-71.0758622,42.3610344],[-71.0760926,42.3603804],[-71.0764275,42.3599247],[-71.0768096,42.3595044],[-71.0773337,42.3590844],[-71.0779522,42.3587351]]]},"id":"boston::beacon-hill"},{"type":"Feature","properties":{"id":"boston::north-end","name":"North End","cityId":"boston","city":"Boston","country":"United States","parentName":null,"displayName":"North End, Boston, Suffolk County, Massachusetts, United States"},"geometry":{"type":"Polygon","coordinates":[[[-71.0589329,42.3674231],[-71.0588467,42.3673005],[-71.0586145,42.3669811],[-71.058545,42.3669043],[-71.0585545,42.3668436],[-71.0583842,42.3651768],[-71.0583201,42.3642175],[-71.0579739,42.3638829],[-71.0571668,42.3630986],[-71.0556833,42.3620961],[-71.05452,42.3616455],[-71.0537631,42.3611813],[-71.0531583,42.3607694],[-71.0526032,42.3601181],[-71.0523626,42.3595211],[-71.0521319,42.3586847],[-71.0518517,42.3579675],[-71.0515732,42.3572183],[-71.0514285,42.35657],[-71.0515205,42.35589],[-71.0516144,42.355727],[-71.0516996,42.3555791],[-71.0519745,42.3552863],[-71.052137,42.3551942],[-71.0515654,42.354887],[-71.0512699,42.3545729],[-71.0511054,42.3547109],[-71.0510823,42.3546964],[-71.0506865,42.3544491],[-71.0505636,42.3546183],[-71.0504528,42.3547708],[-71.0504321,42.3547962],[-71.0504833,42.354822],[-71.050418,42.3549062],[-71.050342,42.3550042],[-71.0503157,42.3549934],[-71.0498846,42.35571],[-71.0498138,42.3558096],[-71.0496082,42.3561128],[-71.0495729,42.3561208],[-71.0495226,42.3561323],[-71.0494852,42.3561859],[-71.0495128,42.3562496],[-71.0495883,42.3562784],[-71.0496724,42.3562572],[-71.0497103,42.356203],[-71.0496837,42.3561416],[-71.049767,42.35604],[-71.0500121,42.3560842],[-71.0499783,42.3563229],[-71.0498805,42.3563151],[-71.0498589,42.356546],[-71.049858,42.3565553],[-71.0492254,42.3565581],[-71.0492256,42.3566103],[-71.0492012,42.3566389],[-71.0491884,42.3566736],[-71.0491838,42.3567056],[-71.0491884,42.3567397],[-71.0492035,42.3567722],[-71.0492263,42.3568013],[-71.0492265,42.3568519],[-71.0498581,42.3568511],[-71.0498679,42.356961],[-71.0489539,42.357184],[-71.048981,42.3572375],[-71.0489697,42.3572712],[-71.0489676,42.3573024],[-71.0489787,42.3573351],[-71.048995,42.3573616],[-71.0490222,42.3573863],[-71.0490533,42.3574061],[-71.0490912,42.3574806],[-71.0496943,42.3573368],[-71.0497553,42.3575732],[-71.0494769,42.3576507],[-71.0495321,42.357869],[-71.0494196,42.3578892],[-71.0494501,42.3579661],[-71.0493363,42.3579859],[-71.0493745,42.3581282],[-71.049451,42.358347],[-71.0496655,42.3583261],[-71.0498665,42.3582837],[-71.0501591,42.3582229],[-71.0502596,42.3586035],[-71.0497479,42.3587259],[-71.0496589,42.3589361],[-71.0495881,42.3589446],[-71.0494329,42.358871],[-71.0493025,42.3588894],[-71.049285,42.3588373],[-71.0492213,42.3588526],[-71.0492274,42.3588964],[-71.0489392,42.3589196],[-71.0489295,42.3588828],[-71.0484406,42.3589682],[-71.0485168,42.3592407],[-71.0483753,42.3592625],[-71.0484625,42.3595707],[-71.0493341,42.3594362],[-71.0504522,42.3592699],[-71.0506905,42.3592107],[-71.0506837,42.3592702],[-71.0505717,42.3593177],[-71.0506617,42.3596447],[-71.0506402,42.3596486],[-71.0505899,42.3596561],[-71.0500924,42.3597361],[-71.0500125,42.3597489],[-71.0497806,42.3597866],[-71.0497522,42.3598228],[-71.0497321,42.3598485],[-71.0494835,42.3598861],[-71.0492079,42.3599317],[-71.0491706,42.3599378],[-71.0488313,42.3599938],[-71.0487723,42.3600052],[-71.0487162,42.360016],[-71.048597,42.360039],[-71.0485946,42.3600233],[-71.0485819,42.3599406],[-71.0482652,42.3599844],[-71.0482699,42.3600052],[-71.0482279,42.3600115],[-71.0482236,42.3599893],[-71.0478692,42.3600241],[-71.0476585,42.360042],[-71.0476747,42.36013],[-71.0477034,42.3601282],[-71.0477083,42.360157],[-71.0476862,42.360158],[-71.0476954,42.3602106],[-71.047699,42.3602556],[-71.0477318,42.3603771],[-71.0476748,42.3603856],[-71.0476827,42.360428],[-71.0477111,42.3604249],[-71.0477163,42.360453],[-71.0476881,42.3604572],[-71.0477091,42.3606285],[-71.047945,42.3605964],[-71.0479392,42.3605755],[-71.0479771,42.3605694],[-71.0479841,42.3605911],[-71.0481319,42.3605694],[-71.0483456,42.3605412],[-71.0483397,42.3605199],[-71.0483784,42.3605151],[-71.0483845,42.3605361],[-71.048493,42.3605183],[-71.0484837,42.360487],[-71.0484792,42.3604739],[-71.0488034,42.3603938],[-71.0491126,42.3603299],[-71.0492307,42.3603068],[-71.0492593,42.3603883],[-71.0492677,42.3604101],[-71.0492814,42.3604565],[-71.049323,42.3605849],[-71.0493749,42.3605824],[-71.049446,42.3605789],[-71.0496909,42.360627],[-71.0497161,42.3606972],[-71.0497444,42.3607002],[-71.0497678,42.3607026],[-71.0498267,42.3607052],[-71.0500738,42.3606544],[-71.0504712,42.3605817],[-71.0505081,42.3606863],[-71.0505485,42.3606802],[-71.0505445,42.3606664],[-71.0507857,42.3606223],[-71.0507928,42.3611763],[-71.0508184,42.3614939],[-71.0508302,42.3618079],[-71.0508012,42.3618064],[-71.0506279,42.3617358],[-71.0505438,42.3619153],[-71.0504846,42.3619412],[-71.0504173,42.3619229],[-71.0504023,42.3619507],[-71.0494934,42.3616785],[-71.0494755,42.361616],[-71.0495052,42.3616087],[-71.0494191,42.3613952],[-71.0486174,42.3615622],[-71.048534,42.3615796],[-71.0486012,42.3618125],[-71.0479216,42.3619478],[-71.0480274,42.3622356],[-71.0486711,42.3621049],[-71.0487937,42.36208],[-71.0488089,42.3621243],[-71.0491015,42.3620705],[-71.0501735,42.3623845],[-71.0502896,42.3624185],[-71.0506391,42.3625225],[-71.0506287,42.36254],[-71.0507963,42.3625915],[-71.0508074,42.3625962],[-71.0508174,42.362792],[-71.0508248,42.363002],[-71.0505085,42.3629141],[-71.0504614,42.3629713],[-71.0499679,42.3628256],[-71.0499813,42.3627879],[-71.0496895,42.3627097],[-71.0496928,42.3627003],[-71.0494611,42.362633],[-71.0494289,42.3626237],[-71.0494019,42.3626747],[-71.0491283,42.3625977],[-71.0490841,42.362673],[-71.0490626,42.3626671],[-71.0490197,42.3628008],[-71.049135,42.3628286],[-71.0492906,42.3628454],[-71.0492866,42.3628821],[-71.0493362,42.362891],[-71.0493281,42.3629395],[-71.0493201,42.3629871],[-71.0492893,42.363111],[-71.0492356,42.3632081],[-71.0490701,42.3631885],[-71.0490682,42.3632067],[-71.0490664,42.3632237],[-71.0490373,42.3635043],[-71.0497305,42.3635609],[-71.049681,42.3638133],[-71.0494523,42.3637983],[-71.0493903,42.3641152],[-71.0493263,42.3643818],[-71.0493029,42.364378],[-71.04925,42.3645402],[-71.0495976,42.3646063],[-71.0495753,42.3647204],[-71.0497679,42.3647616],[-71.0500168,42.364774],[-71.0508703,42.3648586],[-71.0508842,42.3650817],[-71.0508389,42.3650983],[-71.050783,42.3650977],[-71.0507809,42.3651276],[-71.0504264,42.3651197],[-71.0504258,42.3651521],[-71.0504007,42.3651516],[-71.0503755,42.3651511],[-71.0503768,42.3651163],[-71.0501968,42.3651139],[-71.0501963,42.3650981],[-71.0499093,42.3650888],[-71.0499091,42.3651052],[-71.0498264,42.3650998],[-71.0498344,42.3650824],[-71.0487979,42.3649018],[-71.04878,42.3652729],[-71.0488016,42.3653235],[-71.0492392,42.3653976],[-71.0492693,42.3652793],[-71.0495143,42.3653156],[-71.0496451,42.3653426],[-71.0497801,42.3653796],[-71.0497955,42.3655001],[-71.0497895,42.365695],[-71.0499589,42.3657529],[-71.0500535,42.3658349],[-71.0500472,42.3660116],[-71.0499926,42.3660143],[-71.0499899,42.3660425],[-71.0493122,42.3660237],[-71.0490975,42.3661581],[-71.0490975,42.3661958],[-71.0490775,42.3662193],[-71.0490693,42.3662415],[-71.0490811,42.3662657],[-71.0490911,42.3662832],[-71.0490957,42.3663356],[-71.0491202,42.3663416],[-71.0491239,42.3663645],[-71.0491612,42.3663638],[-71.0491608,42.3663566],[-71.0491593,42.3663329],[-71.0495814,42.3663517],[-71.0495878,42.3665078],[-71.0491488,42.3665755],[-71.0492253,42.366824],[-71.0493649,42.3668053],[-71.0493627,42.3667967],[-71.0493599,42.3667859],[-71.0497271,42.3667261],[-71.049921,42.3666945],[-71.049926,42.3667098],[-71.0500495,42.3666939],[-71.0504112,42.3666536],[-71.0504046,42.3666681],[-71.0503997,42.3666842],[-71.0503995,42.3666978],[-71.0504028,42.3667131],[-71.0504076,42.3667261],[-71.0501415,42.3668974],[-71.0494062,42.3670086],[-71.0493923,42.3670395],[-71.0493845,42.3670672],[-71.0493814,42.3670836],[-71.0493817,42.367104],[-71.0493831,42.3671224],[-71.0493863,42.3671435],[-71.0493922,42.3671622],[-71.0494007,42.3671797],[-71.04941,42.3671972],[-71.0494202,42.3672116],[-71.0494337,42.3672287],[-71.0494472,42.3672413],[-71.0494764,42.3672678],[-71.049898,42.3672068],[-71.0499389,42.3672648],[-71.0499322,42.3672707],[-71.0499257,42.3672807],[-71.0499218,42.3672954],[-71.0499265,42.3673114],[-71.0499384,42.3673251],[-71.0499523,42.3673317],[-71.0499672,42.3673368],[-71.0499873,42.3673374],[-71.0500265,42.367398],[-71.0496969,42.3676131],[-71.0496996,42.3676293],[-71.0497062,42.3676466],[-71.0497198,42.3676726],[-71.0497329,42.3676922],[-71.0497484,42.3677121],[-71.0497693,42.3677318],[-71.0497934,42.367752],[-71.0498208,42.3677698],[-71.049852,42.3677853],[-71.0498929,42.3678006],[-71.0499339,42.3678126],[-71.0508245,42.3672305],[-71.050833,42.3672379],[-71.0508389,42.3672435],[-71.050847,42.3672492],[-71.0508712,42.3672681],[-71.0508992,42.3672829],[-71.0509328,42.3672978],[-71.0509613,42.3673051],[-71.050987,42.3673104],[-71.051024,42.3673142],[-71.0510535,42.3673127],[-71.0510812,42.3673105],[-71.0511498,42.367369],[-71.0511701,42.3673862],[-71.0511991,42.3674109],[-71.0512281,42.3674356],[-71.0513413,42.3675321],[-71.0519607,42.3679796],[-71.0521978,42.3680708],[-71.0521468,42.3681389],[-71.0529368,42.3685457],[-71.0531354,42.3686274],[-71.0531815,42.3685718],[-71.0532412,42.3684999],[-71.0533647,42.3685526],[-71.0533334,42.3685913],[-71.0534174,42.3686226],[-71.0533387,42.3687187],[-71.0534462,42.3687589],[-71.0534877,42.3687053],[-71.0536522,42.3687367],[-71.0546023,42.3689321],[-71.0549477,42.3690022],[-71.0549195,42.3690592],[-71.0550516,42.3690974],[-71.0551226,42.368951],[-71.0555021,42.3690539],[-71.0560721,42.3690015],[-71.0564422,42.3689678],[-71.0567504,42.3689203],[-71.0568542,42.3688883],[-71.057056,42.3688271],[-71.0572748,42.3687557],[-71.0575487,42.3685712],[-71.0576487,42.3685096],[-71.0576172,42.368481],[-71.0576641,42.3683472],[-71.0577838,42.3682755],[-71.0579106,42.3681958],[-71.0581822,42.3680395],[-71.0582108,42.3680233],[-71.0581729,42.3679837],[-71.0582512,42.3679435],[-71.0584186,42.3679456],[-71.0586033,42.3679437],[-71.0586394,42.3679736],[-71.0587076,42.3679617],[-71.058741,42.3679415],[-71.0587907,42.3679611],[-71.0588146,42.3679237],[-71.0587761,42.3679079],[-71.0588111,42.3678743],[-71.0588293,42.367809],[-71.0588024,42.3677281],[-71.0587861,42.3676664],[-71.0587668,42.3675847],[-71.0587137,42.3675072],[-71.0588933,42.3674402],[-71.0589329,42.3674231]]]},"id":"boston::north-end"},{"type":"Feature","properties":{"id":"boston::south-end","name":"South End","cityId":"boston","city":"Boston","country":"United States","parentName":null,"displayName":"South End, Boston, Suffolk County, Massachusetts, 02118, United States"},"geometry":{"type":"Polygon","coordinates":[[[-71.0904613,42.3356539],[-71.0904424,42.3356311],[-71.0894825,42.3344696],[-71.0893326,42.3345478],[-71.0870889,42.3357174],[-71.0862717,42.3355229],[-71.0843137,42.3347551],[-71.0825669,42.333776],[-71.0810245,42.3329166],[-71.0798726,42.3323125],[-71.0793369,42.3320612],[-71.0791482,42.3319716],[-71.0783473,42.3316645],[-71.0777364,42.3314574],[-71.0772731,42.3313134],[-71.0769607,42.3312285],[-71.0764084,42.3311007],[-71.0759874,42.3310738],[-71.0756604,42.3310878],[-71.0755435,42.3310993],[-71.0753763,42.3311199],[-71.075169,42.3311559],[-71.074827,42.3312359],[-71.0739943,42.3315105],[-71.0734802,42.3317536],[-71.0730376,42.3319979],[-71.0726353,42.3322504],[-71.0721328,42.332634],[-71.0713106,42.3332862],[-71.0706927,42.333701],[-71.0704653,42.3338295],[-71.0683975,42.3349978],[-71.0676974,42.3351526],[-71.0671361,42.3352405],[-71.0665586,42.3352045],[-71.065953,42.3350668],[-71.0654537,42.3348744],[-71.0644024,42.3342432],[-71.0647114,42.334713],[-71.0649362,42.335187],[-71.0650383,42.3357389],[-71.0650047,42.3360881],[-71.0648662,42.3364929],[-71.0648164,42.337078],[-71.0646411,42.3376126],[-71.0644608,42.3381627],[-71.0637365,42.3397245],[-71.0632611,42.3407626],[-71.062505,42.3425064],[-71.0622121,42.3429133],[-71.0611609,42.3455618],[-71.061461,42.3457615],[-71.0616597,42.345863],[-71.0619609,42.346062],[-71.0632286,42.3463421],[-71.0645861,42.34662],[-71.0658708,42.3468902],[-71.0686388,42.3475147],[-71.068858,42.347585],[-71.0712808,42.3476155],[-71.0730664,42.3476273],[-71.0737658,42.3476389],[-71.076157,42.3476467],[-71.0760637,42.3474461],[-71.0760222,42.3473381],[-71.0763769,42.3472993],[-71.078018,42.3458315],[-71.0793596,42.3447459],[-71.0800239,42.3441797],[-71.080647,42.3436519],[-71.0812909,42.3431251],[-71.081956,42.3425974],[-71.0825662,42.3421112],[-71.0832129,42.3415889],[-71.0845841,42.3404695],[-71.0847749,42.3402633],[-71.0862154,42.339071],[-71.0879844,42.3375848],[-71.0904613,42.3356539]]]},"id":"boston::south-end"},{"type":"Feature","properties":{"id":"boston::seaport-district","name":"Seaport District","cityId":"boston","city":"Boston","country":"United States","parentName":null,"displayName":"The Westin Boston Seaport District, Summer Street, Seaport, South Boston, Boston, Suffolk County, Massachusetts, 02210, United States"},"geometry":{"type":"Polygon","coordinates":[[[-71.0445312,42.3453987],[-71.0444306,42.3453353],[-71.0442982,42.3452518],[-71.0443636,42.3451957],[-71.0439697,42.3449362],[-71.0435539,42.3453063],[-71.043451,42.3453964],[-71.0432673,42.3455391],[-71.0434818,42.3456763],[-71.0434331,42.345716],[-71.0433558,42.3457798],[-71.0432854,42.3458363],[-71.043269,42.3458497],[-71.0430876,42.3457353],[-71.0425002,42.3462403],[-71.0425837,42.3462919],[-71.0430463,42.3465364],[-71.0430954,42.3465269],[-71.0431324,42.3465144],[-71.0431607,42.3464986],[-71.043186,42.346482],[-71.0432127,42.3464605],[-71.0432298,42.3464386],[-71.0432416,42.3464159],[-71.043253,42.3463914],[-71.0432665,42.3463691],[-71.0432981,42.3463297],[-71.0433679,42.3462642],[-71.0433317,42.3462397],[-71.0434894,42.3461016],[-71.0435688,42.3460319],[-71.0435751,42.3460266],[-71.0436438,42.3459666],[-71.0437674,42.3458561],[-71.0438922,42.3459357],[-71.0439272,42.3459063],[-71.0445312,42.3453987]]]},"id":"boston::seaport-district"}]}
