{"type":"FeatureCollection","features":[{"type":"Feature","properties":{"id":"dallas::deep-ellum","name":"Deep Ellum","cityId":"dallas","city":"Dallas","country":"United States","parentName":null,"displayName":"Deep Ellum PID, Dallas, Dallas County, Texas, 75226, United States","source":{"provider":"Nominatim / OpenStreetMap","datasetUrl":"https://nominatim.openstreetmap.org/search","query":"Deep Ellum, Dallas, United States"}},"geometry":{"type":"Polygon","coordinates":[[[-96.7917694,32.7913556],[-96.7917445,32.7910906],[-96.7917399,32.79102],[-96.7916713,32.7899664],[-96.7916429,32.7896531],[-96.7916137,32.7890724],[-96.7915888,32.7888948],[-96.7915127,32.7884647],[-96.7914973,32.7883787],[-96.79147,32.7882263],[-96.7914619,32.788124],[-96.7914481,32.7879611],[-96.7914458,32.7879148],[-96.79145,32.7877708],[-96.7914608,32.7875007],[-96.7914604,32.7869928],[-96.7914603,32.7868445],[-96.7912878,32.7867566],[-96.7911309,32.7866271],[-96.7910258,32.7865379],[-96.7908862,32.7864214],[-96.7908244,32.7863697],[-96.7908045,32.7863532],[-96.7907463,32.7863046],[-96.7907055,32.7862692],[-96.7906774,32.7862459],[-96.7902918,32.785911],[-96.7899156,32.7855853],[-96.7898453,32.7855244],[-96.7899036,32.7854747],[-96.7902766,32.7851567],[-96.7905561,32.7849211],[-96.7905759,32.7849048],[-96.7907916,32.7847325],[-96.7908466,32.7846911],[-96.7906347,32.784469],[-96.790465,32.7843147],[-96.7903745,32.7842356],[-96.7902716,32.7842669],[-96.7900818,32.7843289],[-96.7899511,32.7843743],[-96.7898135,32.7844285],[-96.7896035,32.7845231],[-96.7893964,32.7846267],[-96.7891946,32.7847252],[-96.7890484,32.784796],[-96.788958,32.78484],[-96.7888093,32.7849142],[-96.7884411,32.7850978],[-96.7884081,32.7851142],[-96.7880005,32.7845415],[-96.7892608,32.7839149],[-96.7891866,32.7836634],[-96.7891528,32.7835489],[-96.7884191,32.7832772],[-96.7882649,32.7832603],[-96.7880571,32.7832265],[-96.7877673,32.7831633],[-96.787526,32.7830934],[-96.78729,32.7830145],[-96.7869574,32.7828679],[-96.7867173,32.7827348],[-96.7863338,32.7825161],[-96.7858241,32.7822771],[-96.7853427,32.7820934],[-96.7835664,32.7810075],[-96.7820245,32.7803641],[-96.7811167,32.7805251],[-96.7810461,32.780414],[-96.7809485,32.7802984],[-96.7808855,32.7803498],[-96.7806491,32.7805427],[-96.7805502,32.7806225],[-96.7804753,32.7806829],[-96.7802004,32.7809146],[-96.7801005,32.7810006],[-96.7799981,32.7810888],[-96.779921,32.7811527],[-96.7796397,32.7813858],[-96.7793203,32.7816504],[-96.7792717,32.7816907],[-96.7791258,32.7818116],[-96.7789761,32.7819428],[-96.7787972,32.782097],[-96.7787133,32.7821828],[-96.778627,32.7822802],[-96.7785448,32.782389],[-96.7784765,32.782511],[-96.7784194,32.7826418],[-96.7783901,32.7827533],[-96.7783625,32.7828758],[-96.7783549,32.7829735],[-96.7783556,32.7831061],[-96.7783659,32.7832577],[-96.778276,32.7832767],[-96.7776663,32.7834057],[-96.777356,32.7834714],[-96.7770439,32.7835332],[-96.776012,32.7837373],[-96.7756864,32.7837936],[-96.7754604,32.7838167],[-96.7753974,32.7838218],[-96.7753095,32.783829],[-96.775261,32.783833],[-96.775182,32.783817],[-96.775125,32.783814],[-96.775054,32.783819],[-96.774911,32.783839],[-96.77478,32.783875],[-96.774689,32.783907],[-96.7744899,32.7839849],[-96.774442,32.7839421],[-96.7740753,32.7836017],[-96.7737871,32.7833608],[-96.7735261,32.7831291],[-96.7729151,32.7825868],[-96.772859,32.782537],[-96.772792,32.7825909],[-96.7727779,32.7826023],[-96.7724112,32.7828973],[-96.7721877,32.783077],[-96.7721231,32.783129],[-96.7717257,32.7827942],[-96.771455,32.782581],[-96.771387,32.782541],[-96.7713108,32.7825073],[-96.7702961,32.7822268],[-96.7701021,32.7821736],[-96.7700488,32.7821589],[-96.7698584,32.7821067],[-96.768817,32.781821],[-96.7685149,32.7817405],[-96.7684542,32.7817258],[-96.7684194,32.7817985],[-96.7683895,32.781886],[-96.7682943,32.782161],[-96.7681659,32.7825189],[-96.7681566,32.7825452],[-96.7681244,32.7826306],[-96.7678011,32.7825483],[-96.7676599,32.7825122],[-96.7668624,32.7823088],[-96.7663939,32.782185],[-96.7663085,32.7821634],[-96.766135,32.7821171],[-96.7658191,32.7819821],[-96.7653397,32.7833756],[-96.7651641,32.7834896],[-96.7650327,32.7837151],[-96.7688361,32.7847366],[-96.7685652,32.7851267],[-96.7682031,32.7855845],[-96.7677464,32.786115],[-96.767971,32.786308],[-96.7683691,32.7866409],[-96.7690184,32.7871917],[-96.7692151,32.7873587],[-96.7694674,32.7875795],[-96.7698691,32.7879193],[-96.7699358,32.787963],[-96.7700202,32.7880048],[-96.7700447,32.7880213],[-96.7706309,32.7885202],[-96.770705,32.7885825],[-96.7707633,32.788535],[-96.7710878,32.7882702],[-96.7711573,32.7882129],[-96.7717457,32.7877275],[-96.7717982,32.787685],[-96.771858,32.7876354],[-96.7719627,32.7875486],[-96.7720175,32.7875064],[-96.7721022,32.7874355],[-96.7726391,32.7869831],[-96.7728333,32.786799],[-96.7729637,32.7866554],[-96.7730085,32.7866059],[-96.7730378,32.7865539],[-96.7731283,32.7864943],[-96.7732102,32.7863508],[-96.7733189,32.7861014],[-96.7733561,32.785967],[-96.7733612,32.7859439],[-96.7733704,32.7858619],[-96.773378,32.7858194],[-96.7734144,32.7856907],[-96.7734939,32.7857053],[-96.7735329,32.785721],[-96.7735715,32.7857587],[-96.773807,32.7858211],[-96.7739728,32.7858632],[-96.7740396,32.7858795],[-96.7741978,32.7859746],[-96.7752492,32.7862677],[-96.7766333,32.7866195],[-96.7772099,32.7867503],[-96.7783338,32.7868765],[-96.7792752,32.7869013],[-96.780493,32.7867931],[-96.7848194,32.7857175],[-96.7852029,32.7855078],[-96.7854687,32.7852396],[-96.7859855,32.784809],[-96.7865172,32.7843541],[-96.7865535,32.7843309],[-96.7866129,32.7843079],[-96.7866636,32.7844089],[-96.7867242,32.7845252],[-96.7868248,32.784662],[-96.7869295,32.7847736],[-96.7870529,32.7848866],[-96.7872958,32.7850838],[-96.787444,32.7851972],[-96.7876682,32.7853586],[-96.7877585,32.7854277],[-96.7878671,32.7855069],[-96.7881335,32.7857016],[-96.7884806,32.7859615],[-96.7889314,32.7862999],[-96.7890185,32.7863664],[-96.7891684,32.7864809],[-96.7894792,32.786722],[-96.7895782,32.7868014],[-96.7898609,32.7870425],[-96.7900824,32.7872497],[-96.790414,32.7875886],[-96.790489,32.7876661],[-96.7904449,32.7877034],[-96.7898023,32.788247],[-96.7896944,32.7883383],[-96.7894525,32.7885429],[-96.7893887,32.7885968],[-96.7893336,32.7886433],[-96.7890633,32.7888716],[-96.7889141,32.7889976],[-96.7887837,32.7891077],[-96.7885795,32.7892797],[-96.7885111,32.7893379],[-96.78858,32.7893915],[-96.7886648,32.7894502],[-96.7887176,32.7894796],[-96.7888233,32.7895299],[-96.7889203,32.7895706],[-96.7890383,32.7896014],[-96.7891439,32.7896225],[-96.789263,32.7896335],[-96.7893886,32.7896423],[-96.7895243,32.7896536],[-96.78966,32.789673],[-96.7897752,32.7897062],[-96.789882,32.789749],[-96.7900506,32.789846],[-96.7901717,32.7899333],[-96.7902239,32.7899711],[-96.7902776,32.7900126],[-96.790384,32.790098],[-96.7909129,32.7905624],[-96.7910816,32.7907105],[-96.7915084,32.7910853],[-96.7915527,32.7911313],[-96.791615,32.7911918],[-96.7917138,32.7912779],[-96.7917694,32.7913556]]]},"id":"dallas::deep-ellum"},{"type":"Feature","properties":{"id":"dallas::uptown","name":"Uptown","cityId":"dallas","city":"Dallas","country":"United States","parentName":null,"displayName":"Uptown PID, Dallas, Dallas County, Texas, United States","source":{"provider":"Nominatim / OpenStreetMap","datasetUrl":"https://nominatim.openstreetmap.org/search","query":"Uptown, Dallas, United States"}},"geometry":{"type":"Polygon","coordinates":[[[-96.8105932,32.7994932],[-96.8096426,32.7982248],[-96.8090213,32.7977042],[-96.8086951,32.7974235],[-96.8085806,32.7973265],[-96.8083967,32.797174],[-96.8083511,32.7971359],[-96.8083035,32.7970974],[-96.8074979,32.7964131],[-96.8074587,32.7963795],[-96.8074087,32.7963364],[-96.8067212,32.7957433],[-96.8065271,32.7955758],[-96.8060967,32.7952105],[-96.806292,32.7950023],[-96.8063081,32.7948896],[-96.8064735,32.7947383],[-96.8063375,32.794624],[-96.8061943,32.7944964],[-96.8061064,32.7944231],[-96.8057434,32.7941229],[-96.805618,32.7940195],[-96.8055153,32.7940195],[-96.8052783,32.7940195],[-96.8051706,32.7940217],[-96.8051514,32.793727],[-96.8051135,32.7931906],[-96.8051116,32.7931641],[-96.805106,32.7930841],[-96.8049895,32.7912141],[-96.8049876,32.7911568],[-96.804983,32.7908447],[-96.804978,32.7907843],[-96.8049759,32.7907305],[-96.8049779,32.7906965],[-96.8049769,32.790676],[-96.8049763,32.790593],[-96.804982,32.7903167],[-96.804991,32.7900481],[-96.8050164,32.7895557],[-96.8050274,32.7893767],[-96.8049343,32.7892912],[-96.8049116,32.7892708],[-96.8046788,32.7890713],[-96.8043188,32.7887629],[-96.8042997,32.7887465],[-96.8042335,32.7886897],[-96.8041606,32.7886304],[-96.8041248,32.7886013],[-96.8037141,32.7882668],[-96.803639,32.788201],[-96.8035523,32.7882768],[-96.8032259,32.7885623],[-96.8032066,32.78858],[-96.8031503,32.7886301],[-96.8030863,32.7886842],[-96.8028282,32.7889024],[-96.802551,32.7891367],[-96.802212,32.7894233],[-96.8021503,32.7894773],[-96.8020801,32.7895356],[-96.8017548,32.789814],[-96.8016422,32.7899104],[-96.8016112,32.7899363],[-96.8015588,32.7899786],[-96.8014974,32.7900308],[-96.801123,32.7903449],[-96.8007107,32.790687],[-96.8006327,32.7907525],[-96.8005168,32.790849],[-96.8004552,32.7908961],[-96.8004264,32.7909167],[-96.800304,32.791007],[-96.800151,32.791133],[-96.799801,32.791421],[-96.799184,32.7919522],[-96.7986932,32.7923519],[-96.7980342,32.7928764],[-96.797941,32.7929503],[-96.797882,32.7929983],[-96.7977808,32.7930789],[-96.79771,32.7931344],[-96.7976854,32.7931533],[-96.7974588,32.7933002],[-96.7972121,32.7934573],[-96.7969276,32.7936361],[-96.796521,32.793894],[-96.796069,32.794182],[-96.7950609,32.7948476],[-96.7948571,32.7949919],[-96.7947911,32.7950451],[-96.7947078,32.7951164],[-96.7946497,32.7951708],[-96.7945854,32.7952405],[-96.7944493,32.7953977],[-96.7942173,32.7957229],[-96.7941493,32.7958282],[-96.7939193,32.796222],[-96.7938439,32.796374],[-96.793817,32.7964334],[-96.7937007,32.7967369],[-96.7935992,32.797038],[-96.7935275,32.7972747],[-96.7934081,32.7978309],[-96.7934169,32.7980534],[-96.7934104,32.7984351],[-96.7934149,32.7988527],[-96.793423,32.79898],[-96.7934352,32.799149],[-96.7934378,32.799258],[-96.7934409,32.7993822],[-96.7934577,32.7998394],[-96.7934639,32.8002317],[-96.7934545,32.8007928],[-96.7934388,32.8011222],[-96.7934309,32.8015472],[-96.7934294,32.8015789],[-96.7934158,32.8019566],[-96.7934197,32.8023749],[-96.7934672,32.8029902],[-96.7935187,32.8033527],[-96.7935278,32.8034115],[-96.7935507,32.8035602],[-96.79358,32.8037609],[-96.7936003,32.803884],[-96.7936044,32.8039087],[-96.7936492,32.8041198],[-96.7936671,32.8042042],[-96.793724,32.8046965],[-96.7937521,32.8050138],[-96.793763,32.8051374],[-96.7937721,32.8055117],[-96.7937759,32.805607],[-96.7937754,32.8056675],[-96.7937731,32.8059229],[-96.793761,32.8062872],[-96.7937369,32.8066375],[-96.793719,32.8069182],[-96.7936949,32.8071514],[-96.7936811,32.8072433],[-96.7936382,32.8074763],[-96.793618,32.8075745],[-96.7936132,32.8075979],[-96.7935716,32.8077995],[-96.7935205,32.8080555],[-96.7934597,32.8083129],[-96.7933397,32.8087934],[-96.7932093,32.8091274],[-96.7930593,32.809458],[-96.7928214,32.8099416],[-96.7927763,32.810029],[-96.7940122,32.8104722],[-96.7940309,32.810441],[-96.7940779,32.8103626],[-96.7941598,32.8102233],[-96.7942214,32.810134],[-96.794304,32.8100457],[-96.7943789,32.8099751],[-96.7944343,32.8099276],[-96.7946772,32.8097325],[-96.7947252,32.8096929],[-96.794921,32.8095316],[-96.7949804,32.809582],[-96.7950164,32.8096125],[-96.7955925,32.8101013],[-96.7956364,32.8101386],[-96.7958451,32.8103191],[-96.7959047,32.8103663],[-96.7956555,32.8105751],[-96.7955891,32.8106436],[-96.7956758,32.8106745],[-96.7957086,32.8106874],[-96.795933,32.8107724],[-96.7962532,32.8108936],[-96.7965703,32.8110138],[-96.7968385,32.8111154],[-96.7968903,32.811135],[-96.7969579,32.8111606],[-96.7972397,32.8112673],[-96.7973486,32.8113085],[-96.7978008,32.8114798],[-96.79777,32.8115322],[-96.7976568,32.8117253],[-96.7975442,32.8119171],[-96.7986112,32.812343],[-96.7991001,32.8118505],[-96.7993338,32.8116324],[-96.7997187,32.8112461],[-96.7999879,32.8109586],[-96.8001376,32.8107808],[-96.800249,32.8106413],[-96.8003976,32.8104398],[-96.8006712,32.8099954],[-96.8007963,32.8097621],[-96.8008026,32.8097488],[-96.800984,32.8093674],[-96.8009983,32.8093357],[-96.8013361,32.8086288],[-96.8014771,32.808338],[-96.8017079,32.8078436],[-96.8017947,32.8076644],[-96.8018264,32.8075972],[-96.8018724,32.8075049],[-96.8019393,32.8073592],[-96.8021949,32.8067861],[-96.8023184,32.8065271],[-96.8023653,32.8064363],[-96.8028948,32.8053628],[-96.8031884,32.8047509],[-96.8032867,32.8045448],[-96.8034317,32.8042341],[-96.8035584,32.8039835],[-96.8037335,32.8037102],[-96.8038532,32.8035269],[-96.8039611,32.8033755],[-96.8040575,32.8032551],[-96.8041793,32.8031195],[-96.804371,32.8029468],[-96.8046892,32.8026971],[-96.8048114,32.8026056],[-96.8050033,32.8024751],[-96.805204,32.8023516],[-96.8053247,32.8022865],[-96.8054376,32.8022307],[-96.8055484,32.8021803],[-96.8057448,32.8021006],[-96.8061338,32.8019417],[-96.8069779,32.8015957],[-96.8073597,32.8014317],[-96.8074542,32.8013847],[-96.8075213,32.8013502],[-96.8075911,32.8013097],[-96.8086381,32.8006906],[-96.8088202,32.8005783],[-96.8088577,32.8005559],[-96.8091887,32.8003572],[-96.8095974,32.8001098],[-96.8097075,32.80004],[-96.809845,32.7999529],[-96.8100698,32.7998214],[-96.8103759,32.7996339],[-96.8105932,32.7994932]]]},"id":"dallas::uptown"}]}
