{"type":"FeatureCollection","features":[{"type":"Feature","properties":{"id":"lisbon::alfama","name":"Alfama","cityId":"lisbon","city":"Lisbon","country":"Portugal","parentName":null,"displayName":"Santo Estévão, Santa Maria Maior, Madalena, Lisboa, Portugal","source":{"provider":"Nominatim / OpenStreetMap","datasetUrl":"https://nominatim.openstreetmap.org/search","query":"Santo Estevao, Santa Maria Maior, Lisboa, Portugal"}},"geometry":{"type":"Polygon","coordinates":[[[-9.1298607,38.7093011],[-9.1289314,38.7083515],[-9.1286393,38.7080189],[-9.1252306,38.709869],[-9.1231478,38.7118706],[-9.1229249,38.7120865],[-9.1221903,38.712788],[-9.1229887,38.7132682],[-9.1235408,38.7136679],[-9.1236338,38.7137141],[-9.1236246,38.7131859],[-9.1239398,38.713396],[-9.1243604,38.7136493],[-9.1246777,38.7134225],[-9.1248869,38.7136452],[-9.1248982,38.7136573],[-9.1251005,38.7134844],[-9.1258428,38.7130412],[-9.1259692,38.7131203],[-9.1260336,38.7130387],[-9.1261437,38.7131017],[-9.1262865,38.7130393],[-9.1267616,38.7132361],[-9.1272105,38.7137341],[-9.1278884,38.713473],[-9.1282391,38.7139939],[-9.1285919,38.7137398],[-9.1287776,38.7131725],[-9.1290091,38.7128418],[-9.1290215,38.7128241],[-9.1292607,38.7128431],[-9.1295758,38.7124038],[-9.1288434,38.7121489],[-9.128411,38.7118493],[-9.1284093,38.7116858],[-9.1281666,38.7114548],[-9.1277631,38.7111291],[-9.1289318,38.7102347],[-9.1289929,38.7101578],[-9.1291598,38.7098754],[-9.1291897,38.70983],[-9.1292459,38.7097374],[-9.1294669,38.709574],[-9.1295232,38.709534],[-9.1298607,38.7093011]]]},"id":"lisbon::alfama"},{"type":"Feature","properties":{"id":"lisbon::chiado","name":"Chiado","cityId":"lisbon","city":"Lisbon","country":"Portugal","parentName":null,"displayName":"Sacramento, Santa Maria Maior, Madalena, Lisboa, Portugal","source":{"provider":"Nominatim / OpenStreetMap","datasetUrl":"https://nominatim.openstreetmap.org/search","query":"Sacramento, Santa Maria Maior, Lisboa, Portugal"}},"geometry":{"type":"Polygon","coordinates":[[[-9.1432398,38.712965],[-9.1429443,38.7120353],[-9.1428942,38.7117537],[-9.1429448,38.710524],[-9.1423203,38.7104647],[-9.1419595,38.7105651],[-9.1396087,38.710945],[-9.1396089,38.7110347],[-9.1396596,38.7128501],[-9.1398529,38.712812],[-9.1401948,38.7136136],[-9.1405236,38.7135413],[-9.14065,38.713514],[-9.1409469,38.7133428],[-9.1413842,38.713512],[-9.1416405,38.7134848],[-9.1417949,38.7134712],[-9.1419413,38.7134829],[-9.1427634,38.7130452],[-9.1432398,38.712965]]]},"id":"lisbon::chiado"},{"type":"Feature","properties":{"id":"lisbon::bairro-alto","name":"Bairro Alto","cityId":"lisbon","city":"Lisbon","country":"Portugal","parentName":null,"displayName":"Bairro Alto, Misericórdia, Lisboa, Portugal","source":{"provider":"Nominatim / OpenStreetMap","datasetUrl":"https://nominatim.openstreetmap.org/search","query":"Bairro Alto, Lisboa, Portugal"}},"geometry":{"type":"Polygon","coordinates":[[[-9.1478616,38.7161425],[-9.147791,38.7158399],[-9.1477248,38.7153938],[-9.1475327,38.7145069],[-9.1474912,38.7141182],[-9.1475917,38.7124759],[-9.1471986,38.7113585],[-9.1471306,38.711004],[-9.1471287,38.7109942],[-9.1469943,38.7109937],[-9.1449467,38.7106931],[-9.14456,38.7106394],[-9.1439368,38.7107091],[-9.1430286,38.7107987],[-9.1429749,38.7108654],[-9.1429716,38.7120098],[-9.1432289,38.712878],[-9.1439087,38.7139057],[-9.144298,38.714582],[-9.1446234,38.7151086],[-9.144749,38.7153223],[-9.144771,38.7153546],[-9.1447937,38.7153802],[-9.1448191,38.7154026],[-9.1449129,38.7154319],[-9.1453365,38.7155009],[-9.1473294,38.7160617],[-9.14767,38.7162878],[-9.1478616,38.7161425]]]},"id":"lisbon::bairro-alto"},{"type":"Feature","properties":{"id":"lisbon::principe-real","name":"Príncipe Real","cityId":"lisbon","city":"Lisbon","country":"Portugal","parentName":null,"displayName":"Mercês, Bairro Alto, Misericórdia, Lisboa, Portugal","source":{"provider":"Nominatim / OpenStreetMap","datasetUrl":"https://nominatim.openstreetmap.org/search","query":"Mercês, Misericórdia, Lisboa, Portugal"}},"geometry":{"type":"Polygon","coordinates":[[[-9.1544556,38.7155037],[-9.1542302,38.7151962],[-9.1540936,38.7150071],[-9.1535313,38.7142411],[-9.153409,38.7140004],[-9.1528057,38.7122406],[-9.1530044,38.7120728],[-9.1535556,38.7116092],[-9.1534475,38.7115687],[-9.1529687,38.7113232],[-9.1526249,38.7111746],[-9.1523123,38.7110669],[-9.1521333,38.7108692],[-9.1518646,38.7107267],[-9.1516758,38.7107061],[-9.1513828,38.710742],[-9.1507554,38.7108916],[-9.1495566,38.7110157],[-9.1495918,38.7111696],[-9.149804,38.7115065],[-9.1495857,38.7115859],[-9.1494383,38.7113377],[-9.1490489,38.7113972],[-9.1488763,38.7120343],[-9.1488345,38.7121884],[-9.1486715,38.7121806],[-9.1483945,38.7134401],[-9.1482929,38.7134525],[-9.1475859,38.7133799],[-9.1474824,38.7138967],[-9.1474863,38.7141035],[-9.1475579,38.7147267],[-9.1476953,38.7153047],[-9.1477138,38.7153716],[-9.1477727,38.7159311],[-9.1478155,38.7161354],[-9.1476814,38.7162539],[-9.1478034,38.7163657],[-9.1478685,38.7164119],[-9.14794,38.7164513],[-9.1480521,38.7165117],[-9.1481583,38.716567],[-9.1482083,38.7165931],[-9.1483545,38.7166695],[-9.1484432,38.7167108],[-9.14854,38.7167537],[-9.1494185,38.7171603],[-9.1501408,38.7160359],[-9.1500463,38.7153915],[-9.1507605,38.7154873],[-9.151628,38.7156899],[-9.1519442,38.7155946],[-9.152647,38.7167626],[-9.1535634,38.7160308],[-9.1544556,38.7155037]]]},"id":"lisbon::principe-real"},{"type":"Feature","properties":{"id":"lisbon::belem","name":"Belem","cityId":"lisbon","city":"Lisbon","country":"Portugal","parentName":null,"displayName":"Belém, Lisboa, Portugal","source":{"provider":"Nominatim / OpenStreetMap","datasetUrl":"https://nominatim.openstreetmap.org/search","query":"Belem, Lisboa, Portugal"}},"geometry":{"type":"Polygon","coordinates":[[[-9.2298356,38.6953276],[-9.229608,38.6951996],[-9.228931,38.6948249],[-9.2256713,38.6929987],[-9.224745,38.6925355],[-9.2242835,38.6923872],[-9.223705,38.6922696],[-9.2232031,38.6922253],[-9.2217878,38.6923353],[-9.2208709,38.6925467],[-9.2201745,38.6927727],[-9.2191442,38.6932406],[-9.2188793,38.6931961],[-9.2189029,38.6930009],[-9.2188442,38.6927628],[-9.2185871,38.6924814],[-9.2182251,38.6922651],[-9.2173762,38.6918316],[-9.2169847,38.6917188],[-9.2165,38.6917377],[-9.2162609,38.6918921],[-9.2160504,38.6917171],[-9.2161018,38.6914772],[-9.216017,38.6914123],[-9.2159024,38.6913994],[-9.2157983,38.6914563],[-9.2157409,38.6916358],[-9.2156286,38.6916746],[-9.2150301,38.6917101],[-9.2139257,38.6919296],[-9.2138699,38.6917372],[-9.2138055,38.69175],[-9.2138626,38.6919404],[-9.1992727,38.6945948],[-9.1992594,38.6945482],[-9.1991242,38.6945722],[-9.1991411,38.6946331],[-9.1985474,38.6947358],[-9.198536,38.694686],[-9.1983945,38.6947111],[-9.1984094,38.6947586],[-9.1978208,38.6948671],[-9.1978071,38.6948199],[-9.1976687,38.6948447],[-9.1976832,38.6948924],[-9.1966332,38.695081],[-9.1965899,38.6948392],[-9.1964788,38.6948605],[-9.1965768,38.6950913],[-9.1955342,38.6952769],[-9.1954888,38.6951015],[-9.1953204,38.6951328],[-9.1953753,38.6952994],[-9.1950203,38.6953625],[-9.1950033,38.695141],[-9.1949383,38.695143],[-9.1948858,38.6951537],[-9.1949049,38.695389],[-9.1935981,38.6956199],[-9.1935952,38.695487],[-9.1934795,38.6955103],[-9.1935166,38.6956349],[-9.1874977,38.6967223],[-9.188074,38.6985221],[-9.1892429,38.6982548],[-9.1908832,38.6979873],[-9.1910085,38.6979662],[-9.1911049,38.6979472],[-9.1911953,38.697928],[-9.1925302,38.6996206],[-9.1933773,38.7005761],[-9.1936823,38.7004207],[-9.1936918,38.7004467],[-9.1937425,38.7005038],[-9.1939361,38.7007219],[-9.1942899,38.7011026],[-9.1962656,38.7005578],[-9.1969025,38.7018732],[-9.1985112,38.7019796],[-9.1996077,38.7023564],[-9.19983,38.7008604],[-9.2007888,38.7010855],[-9.2011112,38.7012518],[-9.2025437,38.701672],[-9.2024536,38.7019931],[-9.2023132,38.7053976],[-9.2023017,38.705741],[-9.2025674,38.707553],[-9.2043846,38.7070607],[-9.2047939,38.7079575],[-9.2048,38.7080011],[-9.2048263,38.7081894],[-9.204767,38.7083694],[-9.2046047,38.7085519],[-9.2053529,38.7103633],[-9.2063477,38.7103904],[-9.2071457,38.7108717],[-9.2074528,38.7110474],[-9.2075357,38.7111312],[-9.2074968,38.7113086],[-9.2082873,38.7114715],[-9.2100843,38.7115076],[-9.209861,38.7126803],[-9.2096679,38.7129751],[-9.2092063,38.7134873],[-9.2089993,38.713373],[-9.2087278,38.7136346],[-9.208483,38.7135161],[-9.2083865,38.713622],[-9.2075992,38.71323],[-9.2071219,38.7136259],[-9.2069705,38.7136944],[-9.2068658,38.7138482],[-9.2071492,38.7139728],[-9.2065287,38.714861],[-9.2062506,38.7147433],[-9.2062326,38.7147824],[-9.2057582,38.7154677],[-9.2057343,38.715503],[-9.206401,38.7161317],[-9.2068671,38.7165272],[-9.2069312,38.7165932],[-9.2070974,38.7167602],[-9.2080735,38.7176933],[-9.2084559,38.7181251],[-9.2086074,38.7183126],[-9.2089323,38.7187213],[-9.2092109,38.7192359],[-9.2094312,38.7196415],[-9.215787,38.7177497],[-9.2180033,38.7171873],[-9.2198844,38.7168631],[-9.222284,38.7140056],[-9.2224402,38.7137611],[-9.2226178,38.7132939],[-9.2232461,38.7107434],[-9.223331,38.7100778],[-9.223148,38.7089282],[-9.2230133,38.7085449],[-9.2221987,38.7070797],[-9.2221427,38.7068116],[-9.2221894,38.7066643],[-9.2222436,38.7065696],[-9.2224621,38.7064035],[-9.2239051,38.7056854],[-9.2255315,38.7047084],[-9.2258255,38.7045002],[-9.2260696,38.7041903],[-9.2269866,38.6993652],[-9.2271335,38.6990209],[-9.2274574,38.6986632],[-9.2273465,38.6984002],[-9.2271644,38.6982652],[-9.2272483,38.6979997],[-9.2264072,38.697579],[-9.2272376,38.696808],[-9.2279135,38.6971109],[-9.2286844,38.6973676],[-9.2298356,38.6953276]]]},"id":"lisbon::belem"},{"type":"Feature","properties":{"id":"lisbon::baixa","name":"Baixa","cityId":"lisbon","city":"Lisbon","country":"Portugal","parentName":null,"displayName":"Baixa, Madalena, Lisboa, Portugal","source":{"provider":"Nominatim / OpenStreetMap","datasetUrl":"https://nominatim.openstreetmap.org/search","query":"Baixa, Lisboa, Portugal"}},"geometry":{"type":"Polygon","coordinates":[[[-9.1394875,38.7128412],[-9.1392665,38.7114463],[-9.1383098,38.7085182],[-9.1381603,38.708067],[-9.1359142,38.7086036],[-9.1351258,38.7088011],[-9.1351077,38.7087497],[-9.1346639,38.7087562],[-9.135756,38.7114748],[-9.1365887,38.7135395],[-9.1394875,38.7128412]]]},"id":"lisbon::baixa"}]}
