{"type":"FeatureCollection","features":[{"type":"Feature","properties":{"id":"melbourne::melbourne-cbd","name":"Melbourne CBD","cityId":"melbourne","city":"Melbourne","country":"Australia","parentName":null,"displayName":"Melbourne, City of Melbourne, Victoria, Australia","source":{"provider":"Nominatim / OpenStreetMap","datasetUrl":"https://nominatim.openstreetmap.org/search","query":"Melbourne CBD, Victoria, Australia"}},"geometry":{"type":"Polygon","coordinates":[[[144.9514311,-37.8131567],[144.9557746,-37.8225665],[144.9559906,-37.8230397],[144.9568626,-37.8226357],[144.9584093,-37.8218233],[144.9595423,-37.8212798],[144.9604387,-37.8208842],[144.96138,-37.82051],[144.9617091,-37.8204005],[144.9632592,-37.8200307],[144.9644317,-37.819794],[144.9650353,-37.8196766],[144.9658828,-37.819548],[144.9666548,-37.8194291],[144.967499,-37.819328],[144.968262,-37.819245],[144.9688079,-37.8204886],[144.970933,-37.82507],[144.97115,-37.825654],[144.971277,-37.826125],[144.97135,-37.826501],[144.971399,-37.82688],[144.971421,-37.82726],[144.971423,-37.827437],[144.971331,-37.828652],[144.971321,-37.829895],[144.97041,-37.830159],[144.970451,-37.830863],[144.969673,-37.831011],[144.969693,-37.831056],[144.969777,-37.831594],[144.970401,-37.831503],[144.970438,-37.831635],[144.970423,-37.83167],[144.970469,-37.831833],[144.969884,-37.83196],[144.970034,-37.832353],[144.9701604,-37.8326177],[144.9701855,-37.832671],[144.970216,-37.832734],[144.971607,-37.832335],[144.971723,-37.832727],[144.971768,-37.833129],[144.97174,-37.833531],[144.971645,-37.833912],[144.971691,-37.834262],[144.9710755,-37.8351286],[144.970825,-37.835448],[144.9706238,-37.8356889],[144.9703955,-37.835907],[144.9699461,-37.8362639],[144.969432,-37.836611],[144.968865,-37.836916],[144.968265,-37.837177],[144.967646,-37.837385],[144.967817,-37.837743],[144.967989,-37.837996],[144.9681,-37.838113],[144.968296,-37.838254],[144.968594,-37.838401],[144.968839,-37.838477],[144.969097,-37.838523],[144.969493,-37.838543],[144.96979,-37.838581],[144.970078,-37.838649],[144.970439,-37.838787],[144.970763,-37.838975],[144.971039,-37.839206],[144.971155,-37.839335],[144.971287,-37.839518],[144.97143,-37.839811],[144.971776,-37.841274],[144.971797,-37.841469],[144.971778,-37.841665],[144.971718,-37.841855],[144.97162,-37.842035],[144.971527,-37.842155],[144.971147,-37.842552],[144.971068,-37.842666],[144.970981,-37.842849],[144.970646,-37.844248],[144.970599,-37.844682],[144.970625,-37.845116],[144.970722,-37.845544],[144.970842,-37.845857],[144.970943,-37.846059],[144.971195,-37.846445],[144.971509,-37.846802],[144.971866,-37.84711],[144.972911,-37.847843],[144.973116,-37.847954],[144.973341,-37.848038],[144.973662,-37.848101],[144.973828,-37.848111],[144.974494,-37.848106],[144.974735,-37.848143],[144.97489,-37.848185],[144.975109,-37.848272],[144.975244,-37.848346],[144.976852,-37.849422],[144.977032,-37.849473],[144.977951,-37.849517],[144.97835,-37.850737],[144.978942,-37.852455],[144.979365,-37.85368],[144.979516,-37.853921],[144.979741,-37.854201],[144.980012,-37.854466],[144.980277,-37.854674],[144.980623,-37.854892],[144.981019,-37.855084],[144.981718,-37.855353],[144.982173,-37.855489],[144.982571,-37.855527],[144.982204,-37.854515],[144.982911,-37.854608],[144.982959,-37.854363],[144.982838,-37.854345],[144.982854,-37.854231],[144.982839,-37.854229],[144.982871,-37.854042],[144.982644,-37.854013],[144.98271,-37.853702],[144.982631,-37.853691],[144.982679,-37.853435],[144.982727,-37.853301],[144.982708,-37.853058],[144.9825584,-37.8526629],[144.982538,-37.852609],[144.98221,-37.852557],[144.982346,-37.851862],[144.982021,-37.85182],[144.981845,-37.851337],[144.982211,-37.851254],[144.982167,-37.851134],[144.982204,-37.851138],[144.98235,-37.850429],[144.984201,-37.850667],[144.984424,-37.8493412],[144.9845282,-37.8487214],[144.9845451,-37.8486207],[144.9845744,-37.8484467],[144.9845813,-37.8484056],[144.9845865,-37.8483298],[144.9845941,-37.8482253],[144.9845989,-37.848199],[144.9846548,-37.8478889],[144.984704,-37.8476082],[144.9847578,-37.847275],[144.9847708,-37.8471897],[144.9849006,-37.8463939],[144.9850243,-37.8456713],[144.9845106,-37.8456028],[144.980307,-37.845062],[144.97742,-37.837161],[144.97625,-37.83701],[144.976564,-37.83548],[144.9764458,-37.8354643],[144.975978,-37.835402],[144.975981,-37.835389],[144.975882,-37.835378],[144.975809,-37.835181],[144.975889,-37.834851],[144.978592,-37.835198],[144.978907,-37.833675],[144.983678,-37.834296],[144.984983,-37.827666],[144.9853438,-37.8277588],[144.9859392,-37.8279871],[144.9863889,-37.8282644],[144.9868384,-37.8286158],[144.9879214,-37.8296366],[144.988332,-37.827508],[144.9888033,-37.824615],[144.989097,-37.823119],[144.987091,-37.8228659],[144.986703,-37.822769],[144.985844,-37.822495],[144.985326,-37.822304],[144.984033,-37.82175],[144.98373,-37.821598],[144.982337,-37.820816],[144.978613,-37.818593],[144.978674,-37.818246],[144.978412,-37.818217],[144.978283,-37.818137],[144.97812,-37.818115],[144.978087,-37.818148],[144.977928,-37.818136],[144.976822,-37.8173814],[144.9766397,-37.8172598],[144.9762084,-37.8168358],[144.976186,-37.816814],[144.9759111,-37.8167114],[144.9757546,-37.8166535],[144.9756915,-37.8166312],[144.9755949,-37.8164137],[144.9754429,-37.8160798],[144.9753985,-37.8159804],[144.974712,-37.815887],[144.9748582,-37.8152451],[144.971363,-37.807728],[144.970936,-37.807518],[144.959936,-37.806339],[144.96009,-37.805445],[144.958471,-37.801929],[144.95883,-37.799861],[144.955082,-37.799446],[144.955034,-37.799652],[144.956715,-37.80099],[144.956719,-37.801677],[144.956635,-37.802165],[144.957477,-37.80397],[144.9585099,-37.8061571],[144.955994,-37.805879],[144.9553885,-37.8095201],[144.9559771,-37.8108053],[144.956446,-37.811754],[144.9563815,-37.811772],[144.9514311,-37.8131567]]]},"id":"melbourne::melbourne-cbd"},{"type":"Feature","properties":{"id":"melbourne::fitzroy","name":"Fitzroy","cityId":"melbourne","city":"Melbourne","country":"Australia","parentName":null,"displayName":"Fitzroy, City of Yarra, Victoria, 3065, Australia","source":{"provider":"Nominatim / OpenStreetMap","datasetUrl":"https://nominatim.openstreetmap.org/search","query":"Fitzroy, Victoria, Australia"}},"geometry":{"type":"Polygon","coordinates":[[[144.9732006,-37.80791],[144.9755071,-37.808163],[144.9774853,-37.8083733],[144.9825607,-37.8089071],[144.9829252,-37.8067626],[144.9829476,-37.8066326],[144.9829743,-37.8064779],[144.9846836,-37.7965614],[144.984976,-37.7948649],[144.985143,-37.793896],[144.9814329,-37.7935081],[144.97574,-37.792913],[144.975716,-37.793047],[144.9732006,-37.80791]]]},"id":"melbourne::fitzroy"},{"type":"Feature","properties":{"id":"melbourne::carlton","name":"Carlton","cityId":"melbourne","city":"Melbourne","country":"Australia","parentName":null,"displayName":"Carlton, City of Melbourne, Victoria, 3053, Australia","source":{"provider":"Nominatim / OpenStreetMap","datasetUrl":"https://nominatim.openstreetmap.org/search","query":"Carlton, Victoria, Australia"}},"geometry":{"type":"Polygon","coordinates":[[[144.958471,-37.801929],[144.96009,-37.805445],[144.959936,-37.806339],[144.970936,-37.807518],[144.971363,-37.807728],[144.9732006,-37.80791],[144.975716,-37.793047],[144.96839,-37.79226],[144.968277,-37.792277],[144.968187,-37.792324],[144.968037,-37.792508],[144.967885,-37.79266],[144.967632,-37.79285],[144.967308,-37.793014],[144.966986,-37.79312],[144.966644,-37.79318],[144.966061,-37.793226],[144.96558,-37.793206],[144.965205,-37.793147],[144.9651284,-37.7936093],[144.9650233,-37.7942435],[144.964617,-37.79684],[144.963975,-37.800426],[144.95883,-37.799861],[144.958471,-37.801929]]]},"id":"melbourne::carlton"},{"type":"Feature","properties":{"id":"melbourne::richmond-melbourne","name":"Richmond","cityId":"melbourne","city":"Melbourne","country":"Australia","parentName":null,"displayName":"Richmond District, Melbourne, City of Yarra, Victoria, Australia","source":{"provider":"Nominatim / OpenStreetMap","datasetUrl":"https://nominatim.openstreetmap.org/search","query":"Richmond, Victoria, Australia"}},"geometry":{"type":"Polygon","coordinates":[[[144.9732006,-37.80791],[144.9755071,-37.808163],[144.9774853,-37.8083733],[144.9825607,-37.8089071],[144.989983,-37.8096945],[144.9913462,-37.8098363],[144.9898274,-37.8184271],[144.9890952,-37.8231295],[144.9888033,-37.824615],[144.9879214,-37.8296366],[144.9886759,-37.8304638],[144.9898334,-37.8316238],[144.9906233,-37.8324438],[144.9911569,-37.8328941],[144.9917682,-37.8331311],[144.9928615,-37.8333564],[144.9935142,-37.8334612],[144.9943469,-37.8336221],[144.9947608,-37.833727],[144.9957709,-37.8340778],[144.9962675,-37.834239],[144.9965962,-37.8342952],[144.9967446,-37.8342954],[144.9969082,-37.8342817],[144.9976394,-37.8342165],[144.9985046,-37.8340647],[144.9993872,-37.8338922],[145.0000827,-37.8336817],[145.0007826,-37.8333677],[145.0010954,-37.8335185],[145.0014487,-37.8336042],[145.0018497,-37.8337135],[145.0022134,-37.833863],[145.0026189,-37.834083],[145.0031248,-37.8344234],[145.0033018,-37.8345037],[145.0035361,-37.834526],[145.0037463,-37.8344924],[145.0040158,-37.8343677],[145.0042013,-37.8341979],[145.0042686,-37.8340136],[145.0042906,-37.833715],[145.004263,-37.833484],[145.0040422,-37.8327059],[145.0038812,-37.8321187],[145.0038474,-37.8317888],[145.0037907,-37.8315331],[145.0042113,-37.8313557],[145.004464,-37.83127],[145.004713,-37.8312022],[145.0050431,-37.8311828],[145.0052834,-37.8312146],[145.005547,-37.8312673],[145.0061698,-37.8314681],[145.006453,-37.8315527],[145.0069864,-37.831712],[145.0077091,-37.8319535],[145.007971,-37.8320825],[145.0083098,-37.8323367],[145.0085571,-37.8325984],[145.0088037,-37.8330162],[145.0090278,-37.8333612],[145.0092864,-37.8335188],[145.0095141,-37.8335458],[145.0098303,-37.8334728],[145.0101302,-37.8332911],[145.0103501,-37.8330423],[145.0104653,-37.8327671],[145.01061,-37.8320354],[145.0107236,-37.8316916],[145.0108317,-37.8315184],[145.0110735,-37.8313144],[145.0116087,-37.8309687],[145.01218,-37.8306534],[145.0124427,-37.8305437],[145.0126421,-37.8305132],[145.0128841,-37.8305042],[145.013167,-37.8305242],[145.0134358,-37.8305832],[145.0137994,-37.8306918],[145.0142159,-37.830838],[145.014594,-37.8310274],[145.0154035,-37.8314754],[145.016213,-37.8319114],[145.0166524,-37.8321621],[145.0168303,-37.8322269],[145.0170191,-37.8322348],[145.0171703,-37.8321909],[145.0176425,-37.8319699],[145.0181967,-37.8317627],[145.0185494,-37.8316432],[145.0188084,-37.8316126],[145.0190377,-37.8316263],[145.0193763,-37.8316745],[145.0200775,-37.8318416],[145.0207056,-37.832001],[145.0213712,-37.8321538],[145.0215349,-37.8322131],[145.0217488,-37.8323084],[145.0219372,-37.8324546],[145.0221062,-37.832622],[145.0221943,-37.8327813],[145.0223478,-37.8332248],[145.0224616,-37.8336038],[145.0226051,-37.8338485],[145.0227585,-37.8340566],[145.0229144,-37.8341714],[145.0230994,-37.8342456],[145.0235995,-37.8343537],[145.0239159,-37.8343976],[145.0242312,-37.8344208],[145.0243779,-37.8344184],[145.0247017,-37.8343897],[145.025019,-37.8342765],[145.0251795,-37.8341907],[145.0256605,-37.8338649],[145.0264026,-37.8333047],[145.0271038,-37.8327303],[145.0275665,-37.8322108],[145.0282715,-37.8314082],[145.028355,-37.831219],[145.028345,-37.8311038],[145.0282899,-37.8309837],[145.0280156,-37.8307381],[145.027141,-37.8301898],[145.02645,-37.8297745],[145.025687,-37.8293822],[145.0248158,-37.8289391],[145.0237725,-37.8283511],[145.0232176,-37.8280668],[145.0230245,-37.8279094],[145.022872,-37.8276887],[145.0227103,-37.8272484],[145.0225644,-37.8267146],[145.0224825,-37.826313],[145.022455,-37.8262523],[145.0222793,-37.8259438],[145.0220025,-37.8255748],[145.0217683,-37.8253892],[145.0215519,-37.8252988],[145.0214144,-37.8252537],[145.0211169,-37.8252051],[145.0208938,-37.8252242],[145.0202988,-37.825403],[145.0195231,-37.8257302],[145.0186885,-37.8261505],[145.0184221,-37.8262108],[145.0182579,-37.8262025],[145.0180327,-37.8261638],[145.017733,-37.826036],[145.0171482,-37.8256058],[145.0169365,-37.825433],[145.01625,-37.8247],[145.01573,-37.82155],[145.01489,-37.81893],[145.01439,-37.81633],[145.01446,-37.81489],[145.0154103,-37.8121394],[145.01581,-37.81086],[145.01564,-37.81055],[145.01529,-37.81048],[145.01363,-37.81063],[145.00953,-37.81048],[145.00929,-37.81033],[145.00914,-37.80994],[145.00896,-37.808],[145.00853,-37.80759],[145.0078,-37.80731],[145.00693,-37.80719],[145.00442,-37.80729],[145.00055,-37.80713],[144.99996,-37.8066],[144.99928,-37.80537],[144.99949,-37.80487],[145.00015,-37.80429],[145.00162,-37.80425],[145.00405,-37.80527],[145.00475,-37.80532],[145.00647,-37.80474],[145.00759,-37.80409],[145.00764,-37.80331],[145.0042,-37.8009],[145.00271,-37.79967],[145.00117,-37.79876],[145.00002,-37.79829],[144.99939,-37.79766],[144.99927,-37.79722],[144.9995,-37.797],[145.00068,-37.79698],[145.00142,-37.79718],[145.00173,-37.79704],[145.00195,-37.79666],[145.0015532,-37.7961752],[145.0015241,-37.7959453],[145.0013,-37.79581],[145.0012318,-37.7952782],[145.00114,-37.79487],[145.00126,-37.79448],[145.00155,-37.79423],[145.0023483,-37.7938227],[145.0031,-37.79364],[145.00514,-37.79232],[145.00579,-37.79102],[145.00698,-37.79031],[145.00753,-37.79015],[145.00846,-37.78896],[145.00852,-37.78789],[145.00809,-37.78691],[145.007,-37.78619],[145.00508,-37.78546],[145.00423,-37.78437],[145.00342,-37.78337],[145.0023,-37.78299],[145.00168,-37.78314],[145.00035,-37.78457],[144.99899,-37.78542],[144.99782,-37.78563],[144.99646,-37.78524],[144.99559,-37.7847],[144.99418,-37.78353],[144.9923654,-37.7826938],[144.9916759,-37.7829097],[144.9906995,-37.7822433],[144.9905717,-37.7821731],[144.9903528,-37.7820583],[144.9902141,-37.7819917],[144.9900108,-37.7818985],[144.9898766,-37.7818375],[144.9897863,-37.7818],[144.9896857,-37.7817618],[144.9895456,-37.7817115],[144.9894489,-37.7816768],[144.9893419,-37.7816424],[144.9892897,-37.7816261],[144.9892423,-37.7816123],[144.9891875,-37.7815964],[144.9891476,-37.7815862],[144.9891236,-37.7815806],[144.9891032,-37.7815768],[144.9890729,-37.7815724],[144.9889258,-37.7815543],[144.9888332,-37.7815436],[144.9886927,-37.7815261],[144.9886226,-37.7815177],[144.9884917,-37.7815032],[144.9877995,-37.7814226],[144.9876441,-37.7814043],[144.9871568,-37.7813485],[144.9863781,-37.7812554],[144.9860428,-37.7812159],[144.9857767,-37.7811846],[144.9856879,-37.7811742],[144.9856695,-37.781172],[144.9854531,-37.7812112],[144.9854139,-37.7812069],[144.985328,-37.7811976],[144.9853312,-37.7811792],[144.9852778,-37.7811735],[144.9852746,-37.7811919],[144.9849788,-37.78116],[144.9845,-37.78108],[144.9840983,-37.7809274],[144.9838198,-37.780894],[144.9788195,-37.780295],[144.9782879,-37.7802313],[144.97811,-37.78021],[144.9757452,-37.7929144],[144.97572,-37.79305],[144.9736252,-37.8053704],[144.9732006,-37.80791]]]},"id":"melbourne::richmond-melbourne"},{"type":"Feature","properties":{"id":"melbourne::south-yarra","name":"South Yarra","cityId":"melbourne","city":"Melbourne","country":"Australia","parentName":null,"displayName":"South Yarra, City of Stonnington, Victoria, 3141, Australia","source":{"provider":"Nominatim / OpenStreetMap","datasetUrl":"https://nominatim.openstreetmap.org/search","query":"South Yarra, Victoria, Australia"}},"geometry":{"type":"Polygon","coordinates":[[[144.975809,-37.835181],[144.975882,-37.835378],[144.975981,-37.835389],[144.975978,-37.835402],[144.9764458,-37.8354643],[144.976564,-37.83548],[144.97625,-37.83701],[144.97742,-37.837161],[144.980307,-37.845062],[144.9845106,-37.8456028],[144.9850243,-37.8456713],[144.994131,-37.846863],[145.003186,-37.848102],[145.003871,-37.844782],[145.004719,-37.840502],[145.0050659,-37.8386319],[145.005082,-37.838545],[145.005733,-37.83532],[145.006453,-37.8315527],[145.0061698,-37.8314681],[145.005547,-37.8312673],[145.0052834,-37.8312146],[145.0050431,-37.8311828],[145.004713,-37.8312022],[145.004464,-37.83127],[145.0042113,-37.8313557],[145.0037907,-37.8315331],[145.0038474,-37.8317888],[145.0038812,-37.8321187],[145.0040422,-37.8327059],[145.004263,-37.833484],[145.0042906,-37.833715],[145.0042686,-37.8340136],[145.0042013,-37.8341979],[145.0040158,-37.8343677],[145.0037463,-37.8344924],[145.0035361,-37.834526],[145.0033018,-37.8345037],[145.0031248,-37.8344234],[145.0026189,-37.834083],[145.0022134,-37.833863],[145.0018497,-37.8337135],[145.0014487,-37.8336042],[145.0010954,-37.8335185],[145.0007826,-37.8333677],[145.0000827,-37.8336817],[144.9993872,-37.8338922],[144.9985046,-37.8340647],[144.9976394,-37.8342165],[144.9969082,-37.8342817],[144.9967446,-37.8342954],[144.9965962,-37.8342952],[144.9962675,-37.834239],[144.9957709,-37.8340778],[144.9947608,-37.833727],[144.9943469,-37.8336221],[144.9935142,-37.8334612],[144.9928615,-37.8333564],[144.9917682,-37.8331311],[144.9911569,-37.8328941],[144.9906233,-37.8324438],[144.9898334,-37.8316238],[144.9886759,-37.8304638],[144.9879214,-37.8296366],[144.9868384,-37.8286158],[144.9863889,-37.8282644],[144.9859392,-37.8279871],[144.9853438,-37.8277588],[144.984983,-37.827666],[144.983678,-37.834296],[144.978907,-37.833675],[144.978592,-37.835198],[144.975889,-37.834851],[144.975809,-37.835181]]]},"id":"melbourne::south-yarra"},{"type":"Feature","properties":{"id":"melbourne::st-kilda","name":"St Kilda","cityId":"melbourne","city":"Melbourne","country":"Australia","parentName":null,"displayName":"St Kilda, Melbourne, City of Port Phillip, Victoria, 3182, Australia","source":{"provider":"Nominatim / OpenStreetMap","datasetUrl":"https://nominatim.openstreetmap.org/search","query":"St Kilda, Victoria, Australia"}},"geometry":{"type":"Polygon","coordinates":[[[144.970653,-37.853553],[144.9710689,-37.8538532],[144.972425,-37.854832],[144.973328,-37.855503],[144.974661,-37.856589],[144.975221,-37.857068],[144.975498,-37.857346],[144.976061,-37.85786],[144.976533,-37.858323],[144.976327,-37.858471],[144.976437,-37.858587],[144.976439,-37.85871],[144.976218,-37.85884],[144.976691,-37.859329],[144.975667,-37.859935],[144.975813,-37.860091],[144.975673,-37.860173],[144.975692,-37.860194],[144.975566,-37.860269],[144.975399,-37.860093],[144.974219,-37.860791],[144.974323,-37.860901],[144.973223,-37.861576],[144.972512,-37.860897],[144.972706,-37.86142],[144.972771,-37.861742],[144.972778,-37.86197],[144.972759,-37.862159],[144.972736,-37.862256],[144.972691,-37.862348],[144.972334,-37.86277],[144.972269,-37.862916],[144.972067,-37.862905],[144.971883,-37.862934],[144.971457,-37.863143],[144.971009,-37.8634],[144.970982,-37.863677],[144.970936,-37.863915],[144.970828,-37.864283],[144.970763,-37.86441],[144.970788,-37.864486],[144.970847,-37.864512],[144.970939,-37.864527],[144.971029,-37.864569],[144.971162,-37.864689],[144.971322,-37.864886],[144.971414,-37.865024],[144.971289,-37.8651],[144.971623,-37.865453],[144.971746,-37.865734],[144.971858,-37.865899],[144.972054,-37.865984],[144.972194,-37.866133],[144.972352,-37.866216],[144.972589,-37.866444],[144.972714,-37.866491],[144.972878,-37.866601],[144.973051,-37.866813],[144.973286,-37.866922],[144.973445,-37.867033],[144.973531,-37.867113],[144.973938,-37.867709],[144.974108,-37.867853],[144.97419,-37.868005],[144.974275,-37.868068],[144.974463,-37.868168],[144.974683,-37.868462],[144.975086,-37.868914],[144.975294,-37.869274],[144.975377,-37.8694],[144.975079,-37.869641],[144.975205,-37.869788],[144.975259,-37.869897],[144.975414,-37.870096],[144.975457,-37.870194],[144.975468,-37.870483],[144.975511,-37.870685],[144.975556,-37.870805],[144.975568,-37.870909],[144.975528,-37.871087],[144.975534,-37.871347],[144.975466,-37.871559],[144.975373,-37.871665],[144.975274,-37.871721],[144.974755,-37.871897],[144.974111,-37.872074],[144.974067,-37.872113],[144.974074,-37.872167],[144.974054,-37.872195],[144.973961,-37.872256],[144.973881,-37.872266],[144.973795,-37.872159],[144.973662,-37.872081],[144.97361,-37.871986],[144.9735,-37.87194],[144.97342,-37.871932],[144.973361,-37.871952],[144.973318,-37.871999],[144.973286,-37.872093],[144.973294,-37.872233],[144.973341,-37.872308],[144.973413,-37.87237],[144.973386,-37.872412],[144.973329,-37.87243],[144.973306,-37.872454],[144.973342,-37.872476],[144.973515,-37.872461],[144.973598,-37.87249],[144.973715,-37.87258],[144.973877,-37.872767],[144.974081,-37.87308],[144.974331,-37.873779],[144.974378,-37.874449],[144.97444,-37.874621],[144.974364,-37.875958],[144.974464,-37.876291],[144.976877,-37.875341],[144.976838,-37.875049],[144.977522,-37.874953],[144.977484,-37.874419],[144.977499,-37.874402],[144.978067,-37.874356],[144.978837,-37.874158],[144.979277,-37.874118],[144.979314,-37.873968],[144.979893,-37.874037],[144.97993,-37.873851],[144.980442,-37.873816],[144.980516,-37.873459],[144.980862,-37.873322],[144.980706,-37.873071],[144.981273,-37.87314],[144.981291,-37.873168],[144.982106,-37.872852],[144.982358,-37.872847],[144.983062,-37.872573],[144.983112,-37.872656],[144.983559,-37.872486],[144.983691,-37.872697],[144.985973,-37.871825],[144.98572,-37.871419],[144.986232,-37.871219],[144.986155,-37.871095],[144.986175,-37.871087],[144.986091,-37.870952],[144.986757,-37.870693],[144.986709,-37.870615],[144.987546,-37.870301],[144.987842,-37.870781],[144.9886215,-37.8704788],[144.9887389,-37.8706627],[144.9887929,-37.8707519],[144.989655,-37.872129],[144.989672,-37.872034],[144.990172,-37.872093],[144.99021,-37.871856],[144.990246,-37.871853],[144.99028,-37.871702],[144.990441,-37.871721],[144.990509,-37.871318],[144.990524,-37.87132],[144.990571,-37.871148],[144.990558,-37.871146],[144.990576,-37.871051],[144.990326,-37.871022],[144.990643,-37.869283],[144.9907248,-37.869232],[144.9908013,-37.8692108],[144.9908234,-37.8690589],[144.990849,-37.86889],[144.990814,-37.868885],[144.990835,-37.868779],[144.990578,-37.868745],[144.990645,-37.868403],[144.990927,-37.868439],[144.9912003,-37.8669646],[144.991107,-37.8668506],[144.9911297,-37.8667125],[144.9912377,-37.8667255],[144.9914131,-37.8657852],[144.991198,-37.8657556],[144.991234,-37.8655569],[144.9912659,-37.865561],[144.9912841,-37.8654528],[144.9912412,-37.8653523],[144.991215,-37.865265],[144.991276,-37.864919],[144.991447,-37.864939],[144.991643,-37.863868],[144.991747,-37.863882],[144.991764,-37.863793],[144.991723,-37.863787],[144.991729,-37.863759],[144.991667,-37.86375],[144.991713,-37.863497],[144.991997,-37.863536],[144.992183,-37.862486],[144.991891,-37.862451],[144.991946,-37.862144],[144.991489,-37.862089],[144.991601,-37.861463],[144.992386,-37.861563],[144.99247,-37.861132],[144.992697,-37.86116],[144.9927216,-37.8610217],[144.993226,-37.858188],[144.993262,-37.857906],[144.992994,-37.857858],[144.9926,-37.857759],[144.992092,-37.8575856],[144.991742,-37.857412],[144.99098,-37.856966],[144.990677,-37.856806],[144.990341,-37.856667],[144.98992,-37.856544],[144.989563,-37.856478],[144.983322,-37.855657],[144.983499,-37.85466],[144.982911,-37.854608],[144.982204,-37.854515],[144.982571,-37.855527],[144.982173,-37.855489],[144.981718,-37.855353],[144.981019,-37.855084],[144.980623,-37.854892],[144.980277,-37.854674],[144.980012,-37.854466],[144.979741,-37.854201],[144.979516,-37.853921],[144.979365,-37.85368],[144.978942,-37.852455],[144.977254,-37.853364],[144.976978,-37.853481],[144.976693,-37.853566],[144.97642,-37.853619],[144.97613,-37.853647],[144.975784,-37.853644],[144.975392,-37.853602],[144.975294,-37.853571],[144.974288,-37.852189],[144.970653,-37.853553]]]},"id":"melbourne::st-kilda"}]}
