{"type":"FeatureCollection","features":[{"type":"Feature","properties":{"id":"milan::brera","name":"Brera","cityId":"milan","city":"Milan","country":"Italy","parentName":null,"displayName":"Brera, Municipio 8 di Milano, Milano, Lombardia, Italia"},"geometry":{"type":"Polygon","coordinates":[[[9.1795828,45.4725509],[9.180211,45.4720317],[9.1813243,45.4711432],[9.1816131,45.4708272],[9.1817738,45.4704855],[9.1818146,45.4702941],[9.181852,45.4701268],[9.1818235,45.4697898],[9.1817066,45.4695259],[9.181541,45.4692685],[9.1812473,45.4690306],[9.1821081,45.4683336],[9.1823256,45.4684612],[9.1824621,45.4683647],[9.1829441,45.4679854],[9.1827539,45.4678259],[9.183871,45.4669717],[9.1847054,45.4663356],[9.1852085,45.4659801],[9.1853102,45.4658911],[9.1856663,45.4656157],[9.1861842,45.4652083],[9.1865048,45.4654918],[9.1867783,45.4655996],[9.1878094,45.4655887],[9.1880852,45.4656052],[9.1883327,45.4658326],[9.1889329,45.4665195],[9.1890086,45.4665895],[9.1893976,45.4669716],[9.1899107,45.4673574],[9.1899833,45.4674225],[9.190008,45.4674472],[9.1903404,45.4677584],[9.1906724,45.4680732],[9.1908986,45.4682956],[9.1910524,45.4684445],[9.1916592,45.4690506],[9.1920397,45.4693739],[9.1924557,45.4697371],[9.1927205,45.4699997],[9.1934558,45.470755],[9.1941135,45.4713454],[9.1947272,45.4719238],[9.1948221,45.4720106],[9.1951315,45.4722924],[9.195027,45.4723802],[9.1950033,45.4724001],[9.195456,45.4728132],[9.1954736,45.4728784],[9.1957393,45.4733003],[9.1970481,45.475379],[9.1976806,45.4765435],[9.1984327,45.477675],[9.1969344,45.4783706],[9.1956665,45.4789607],[9.1948014,45.4793323],[9.1944233,45.4794947],[9.1924608,45.4797002],[9.192123,45.479725],[9.1922476,45.4803044],[9.1909893,45.4805055],[9.1908075,45.4805677],[9.1904636,45.4806948],[9.1900979,45.4807041],[9.1897319,45.4807206],[9.1882179,45.4808021],[9.1880013,45.4808135],[9.186981,45.4809584],[9.1865435,45.4810334],[9.1860313,45.4811314],[9.1845291,45.4815242],[9.1842742,45.4815933],[9.1823263,45.4821216],[9.182232,45.4821471],[9.1818332,45.4820114],[9.1824134,45.4812512],[9.1819514,45.4798983],[9.1815063,45.4783383],[9.1812333,45.4775736],[9.1812748,45.477275],[9.1814307,45.4763211],[9.1814312,45.4763211],[9.1815818,45.4753897],[9.1816595,45.4748111],[9.1818104,45.4738853],[9.1814275,45.4737941],[9.1805083,45.4731636],[9.1795828,45.4725509]]]},"id":"milan::brera"},{"type":"Feature","properties":{"id":"milan::navigli","name":"Navigli","cityId":"milan","city":"Milan","country":"Italy","parentName":null,"displayName":"Navigli, Milano, Lombardia, Italia"},"geometry":{"type":"Polygon","coordinates":[[[9.1549226,45.4485431],[9.1549444,45.4480487],[9.1552852,45.4480059],[9.1558904,45.447879],[9.1564778,45.4477108],[9.1568494,45.4475825],[9.1573399,45.4473703],[9.1577898,45.4471143],[9.1581453,45.4468812],[9.1585806,45.4465226],[9.159043,45.4460352],[9.1593273,45.4457175],[9.1597946,45.4452701],[9.1603287,45.4448784],[9.1609971,45.44447],[9.1618275,45.4440704],[9.1624047,45.4438673],[9.1629744,45.4436995],[9.1636812,45.4435375],[9.1643341,45.4434343],[9.1648977,45.4433805],[9.1658025,45.4433381],[9.167569,45.4432607],[9.1677608,45.4432535],[9.1726691,45.4430076],[9.1738709,45.4429573],[9.1758714,45.4428684],[9.1760499,45.4436603],[9.1761118,45.4438596],[9.1765057,45.4454485],[9.1765314,45.4455722],[9.1769014,45.4471516],[9.1769805,45.4474811],[9.1770382,45.4477758],[9.1773186,45.4489045],[9.177556,45.4499284],[9.1778583,45.4512419],[9.1779015,45.4514416],[9.1779518,45.4516314],[9.1781115,45.4522627],[9.1787658,45.4523238],[9.1789351,45.4523633],[9.1786765,45.4530053],[9.1772946,45.452931],[9.176648,45.4534441],[9.1758696,45.4541296],[9.1754557,45.4544152],[9.1748712,45.454847],[9.1744771,45.4551279],[9.1741669,45.4553518],[9.1734837,45.4558247],[9.1727279,45.4563083],[9.1717269,45.455579],[9.1713375,45.4558589],[9.1706246,45.4563347],[9.1694608,45.45717],[9.1687449,45.4575503],[9.1684006,45.4571533],[9.1685357,45.4570298],[9.1686634,45.4567886],[9.1689446,45.4564611],[9.1690861,45.4562964],[9.1693282,45.4558855],[9.1695539,45.4551762],[9.1695931,45.4548436],[9.1695873,45.4544893],[9.1695579,45.4541183],[9.1694963,45.4538236],[9.1691024,45.452687],[9.1688327,45.4521323],[9.1681953,45.4514973],[9.167543,45.451024],[9.1664621,45.4505567],[9.1659563,45.4504281],[9.1654354,45.4503157],[9.1629261,45.4500362],[9.1617785,45.449875],[9.1615304,45.4498474],[9.1561866,45.4487607],[9.1549226,45.4485431]]]},"id":"milan::navigli"},{"type":"Feature","properties":{"id":"milan::quadrilatero-doro","name":"Quadrilatero d'Oro","cityId":"milan","city":"Milan","country":"Italy","parentName":null,"displayName":"Quadrilatero d'Oro, Via Sant'Andrea, Duomo, Municipio 1, Milano, Lombardia, 20122, Italia"},"geometry":{"type":"Polygon","coordinates":[[[9.1954457,45.4685804],[9.195655,45.4684124],[9.1957141,45.4684454],[9.1957726,45.4684781],[9.1955995,45.4686483],[9.1955764,45.4686353],[9.1955686,45.4686433],[9.1954457,45.4685804]],[[9.1955195,45.4685891],[9.1955564,45.4686101],[9.1956217,45.4685501],[9.1955829,45.4685322],[9.1955195,45.4685891]]]},"id":"milan::quadrilatero-doro"}]}
