{"type":"FeatureCollection","features":[{"type":"Feature","properties":{"id":"phoenix::roosevelt-row","name":"Roosevelt Row","cityId":"phoenix","city":"Phoenix","country":"United States","parentName":null,"displayName":"Broadstone Roosevelt Row, Central City, Phoenix, Maricopa County, Arizona, United States","source":{"provider":"Nominatim / OpenStreetMap","datasetUrl":"https://nominatim.openstreetmap.org/search","query":"Roosevelt Row, Phoenix, United States"}},"geometry":{"type":"Polygon","coordinates":[[[-112.0692794,33.4598587],[-112.0692786,33.4593986],[-112.0692655,33.4592656],[-112.0692455,33.4591474],[-112.0692286,33.4590837],[-112.0692062,33.459022],[-112.0692008,33.4589822],[-112.0691977,33.4589295],[-112.0691924,33.4588999],[-112.0691338,33.4587868],[-112.0691169,33.4587631],[-112.0690938,33.4587438],[-112.0690591,33.4587354],[-112.0690256,33.4587349],[-112.0690206,33.4587348],[-112.068655,33.458714],[-112.0685811,33.4587108],[-112.0684929,33.4587108],[-112.0676302,33.4587092],[-112.0676021,33.4587108],[-112.0675786,33.4587211],[-112.0675566,33.45874],[-112.0675443,33.4587596],[-112.0675412,33.4587834],[-112.0675376,33.4592797],[-112.0675429,33.4592876],[-112.0675516,33.4592887],[-112.0676088,33.4592891],[-112.0678478,33.4592896],[-112.0681035,33.459292],[-112.0681008,33.4599343],[-112.0691804,33.4599348],[-112.0692079,33.459932],[-112.0692327,33.4599214],[-112.0692501,33.459908],[-112.0692676,33.4598878],[-112.0692794,33.4598587]]]},"id":"phoenix::roosevelt-row"},{"type":"Feature","properties":{"id":"phoenix::arcadia","name":"Arcadia","cityId":"phoenix","city":"Phoenix","country":"United States","parentName":null,"displayName":"Arcadia, Camelback East, Phoenix, Maricopa County, Arizona, United States","source":{"provider":"Nominatim / OpenStreetMap","datasetUrl":"https://nominatim.openstreetmap.org/search","query":"Arcadia, Phoenix, United States"}},"geometry":{"type":"Polygon","coordinates":[[[-111.986704,33.5048738],[-111.9867,33.5041454],[-111.9865414,33.5039772],[-111.9840217,33.5014606],[-111.9834005,33.5009621],[-111.978116,33.4970538],[-111.9774913,33.4966735],[-111.9740325,33.4947],[-111.973315,33.4942971],[-111.9726013,33.4938941],[-111.9714812,33.4932564],[-111.9710069,33.4930004],[-111.9705056,33.4927635],[-111.9701156,33.4925992],[-111.9697343,33.4924292],[-111.9689679,33.4921069],[-111.9637911,33.4899359],[-111.9631404,33.4897374],[-111.9624721,33.4895781],[-111.9619864,33.4894942],[-111.9618298,33.4894759],[-111.9616621,33.4894369],[-111.9613023,33.4893719],[-111.9610236,33.4893829],[-111.9607005,33.4894371],[-111.9605395,33.4894795],[-111.959955,33.4897029],[-111.9598078,33.4897922],[-111.9593529,33.4900662],[-111.9592299,33.4901452],[-111.9593075,33.4902677],[-111.9592941,33.491075],[-111.9580026,33.4910781],[-111.95738,33.4917978],[-111.9572132,33.4919155],[-111.9570504,33.4919845],[-111.9568965,33.4920464],[-111.9567113,33.4920485],[-111.9563835,33.4920108],[-111.9538918,33.4914064],[-111.9499391,33.4904782],[-111.9493847,33.4903963],[-111.9487833,33.4902939],[-111.9484741,33.4902606],[-111.9481648,33.49024],[-111.9472864,33.4902309],[-111.9456333,33.4903846],[-111.9447922,33.4904623],[-111.9439948,33.4905662],[-111.9435376,33.4906972],[-111.94314,33.4908454],[-111.9429079,33.4909543],[-111.937254,33.4938208],[-111.9362761,33.4943845],[-111.9358829,33.4946362],[-111.9356782,33.4947672],[-111.9348191,33.4953171],[-111.9348164,33.495418],[-111.9348136,33.4955277],[-111.934813,33.4955891],[-111.9348109,33.4956298],[-111.9348096,33.495676],[-111.9347978,33.4961258],[-111.9347766,33.496964],[-111.9347766,33.498543],[-111.9347837,33.5005086],[-111.934812,33.5013822],[-111.934819,33.5019676],[-111.9348617,33.502003],[-111.9348672,33.5020688],[-111.936843,33.5020418],[-111.9389219,33.501995],[-111.9424738,33.5019506],[-111.9426153,33.5019184],[-111.9428476,33.5019149],[-111.9430885,33.501942],[-111.9431082,33.5019409],[-111.9431254,33.5019399],[-111.9435457,33.5019373],[-111.9457315,33.5019429],[-111.9475306,33.5018974],[-111.9475617,33.5018743],[-111.9475833,33.5017295],[-111.9475746,33.4982389],[-111.9487756,33.4982269],[-111.9487733,33.4983914],[-111.948774,33.5018525],[-111.9518948,33.5018505],[-111.9554319,33.5018308],[-111.9582889,33.5017946],[-111.9604669,33.5017793],[-111.9609394,33.5017285],[-111.9612752,33.5017458],[-111.9619514,33.501757],[-111.9626067,33.5017446],[-111.9639322,33.501731],[-111.9644166,33.5017471],[-111.9646559,33.5017731],[-111.9648862,33.5018041],[-111.9652205,33.5018896],[-111.9654732,33.5019862],[-111.9658714,33.5021585],[-111.9661849,33.5023431],[-111.9669046,33.5027693],[-111.9673286,33.5011004],[-111.9683053,33.501648],[-111.9680622,33.5024869],[-111.9689542,33.5029808],[-111.969038,33.5030272],[-111.968775,33.5038176],[-111.9688523,33.5038721],[-111.9696296,33.5043204],[-111.9713652,33.5052981],[-111.9718112,33.5055357],[-111.9719315,33.5056019],[-111.9722692,33.5057878],[-111.972622,33.5059746],[-111.9733598,33.5063684],[-111.9740359,33.5067509],[-111.9743167,33.5069108],[-111.9744914,33.5070419],[-111.9755691,33.5076172],[-111.9762731,33.5080362],[-111.976515,33.5081677],[-111.9769067,33.5084005],[-111.97737,33.5086468],[-111.977814,33.5088373],[-111.9780919,33.5089311],[-111.9786582,33.5090503],[-111.978903,33.5090797],[-111.9793589,33.5091154],[-111.9801175,33.5091303],[-111.9802924,33.5091423],[-111.9816442,33.5092094],[-111.9827625,33.5092776],[-111.9831116,33.5092365],[-111.9835924,33.5092582],[-111.9835915,33.5092407],[-111.9846329,33.5070344],[-111.9847289,33.506962],[-111.9850842,33.5073644],[-111.9852014,33.5072924],[-111.9864507,33.5086695],[-111.9865203,33.5087232],[-111.9865948,33.5086614],[-111.9866118,33.5085421],[-111.9866325,33.5076848],[-111.9866631,33.5069365],[-111.9866801,33.506271],[-111.9867,33.5055459],[-111.986704,33.5048738]]]},"id":"phoenix::arcadia"},{"type":"Feature","properties":{"id":"phoenix::melrose-district","name":"Melrose District","cityId":"phoenix","city":"Phoenix","country":"United States","parentName":null,"displayName":"Melrose District, Encanto, Phoenix, Maricopa County, Arizona, United States","source":{"provider":"Nominatim / OpenStreetMap","datasetUrl":"https://nominatim.openstreetmap.org/search","query":"Melrose District, Phoenix, United States"}},"geometry":{"type":"Polygon","coordinates":[[[-112.0912201,33.4986286],[-112.0905339,33.4986226],[-112.089226,33.4986104],[-112.0870544,33.4985777],[-112.0846257,33.4985473],[-112.0833445,33.4985349],[-112.0831392,33.4989826],[-112.0828842,33.4994717],[-112.0827038,33.5000121],[-112.0826513,33.5002096],[-112.0826043,33.5005843],[-112.0825859,33.5009838],[-112.0825755,33.502012],[-112.0825535,33.5027918],[-112.0835361,33.5026114],[-112.0847047,33.5022705],[-112.0868061,33.5013434],[-112.0883435,33.5008949],[-112.0894027,33.5006804],[-112.0912144,33.5003939],[-112.0912201,33.4986286]]]},"id":"phoenix::melrose-district"},{"type":"Feature","properties":{"id":"phoenix::biltmore","name":"Biltmore","cityId":"phoenix","city":"Phoenix","country":"United States","parentName":null,"displayName":"Biltmore, Phoenix, Maricopa County, Arizona, 85016, United States","source":{"provider":"Nominatim / OpenStreetMap","datasetUrl":"https://nominatim.openstreetmap.org/search","query":"Biltmore, Phoenix, United States"}},"geometry":{"type":"Polygon","coordinates":[[[-112.0450955,33.4943186],[-112.0398408,33.4943799],[-112.0391511,33.4943879],[-112.0280428,33.494561],[-112.0127086,33.4947479],[-112.0126422,33.4992827],[-112.0124512,33.504108],[-112.0126837,33.5094453],[-112.0125924,33.5148515],[-112.0125757,33.5195582],[-112.0125841,33.5273169],[-112.0123599,33.5329573],[-112.0128414,33.5342722],[-112.0136633,33.5356078],[-112.016345,33.5356701],[-112.0188522,33.5353656],[-112.0182877,33.536632],[-112.0193171,33.5378015],[-112.0206016,33.5361459],[-112.0230906,33.5342778],[-112.0256656,33.5347468],[-112.0261424,33.5324494],[-112.0307773,33.5349455],[-112.0332663,33.5383955],[-112.0367859,33.5385596],[-112.0424693,33.5388247],[-112.0423973,33.5341338],[-112.0438668,33.5310195],[-112.0443732,33.5270816],[-112.0446306,33.5218354],[-112.0447468,33.5170664],[-112.0449046,33.5124911],[-112.0449627,33.507687],[-112.0443151,33.5028757],[-112.0450955,33.4943186]]]},"id":"phoenix::biltmore"},{"type":"Feature","properties":{"id":"phoenix::uptown","name":"Uptown","cityId":"phoenix","city":"Phoenix","country":"United States","parentName":null,"displayName":"Uptown Plaza, Alhambra, Phoenix, Maricopa County, Arizona, United States","source":{"provider":"Nominatim / OpenStreetMap","datasetUrl":"https://nominatim.openstreetmap.org/search","query":"Uptown, Phoenix, United States"}},"geometry":{"type":"Polygon","coordinates":[[[-112.0736404,33.5110809],[-112.073639,33.5105399],[-112.0736301,33.5099415],[-112.0735955,33.5097799],[-112.0735947,33.5095392],[-112.0736297,33.5094816],[-112.0736253,33.5094504],[-112.0736121,33.5094239],[-112.0735866,33.5094057],[-112.0735618,33.5093941],[-112.0735331,33.5093875],[-112.070758,33.5093573],[-112.0707849,33.5096434],[-112.0708654,33.5097664],[-112.0708956,33.5098342],[-112.0709496,33.5099564],[-112.0709857,33.5100658],[-112.0709992,33.5103013],[-112.071501,33.5102984],[-112.0714757,33.5111056],[-112.073562,33.5111257],[-112.0736027,33.5111147],[-112.0736237,33.5111044],[-112.0736404,33.5110809]]]},"id":"phoenix::uptown"}]}
