{"type":"FeatureCollection","features":[{"type":"Feature","properties":{"id":"rome::celio","name":"Celio","cityId":"rome","city":"Rome","country":"Italy","parentName":null,"displayName":"Celio","source":{"sourceId":"rome-official-urban-zones","provider":"Roma Capitale Geoportale","datasetUrl":"https://geoportale.comune.roma.it/geoserver/ows?service=WFS&version=2.0.0&request=GetFeature&typeNames=DIPDIT:ZoneUrbanistiche&outputFormat=json&srsName=EPSG:4326","datasetId":"DIPDIT:ZoneUrbanistiche","format":"wfs-geojson","matchField":"DENOMINAZIONE","labels":["Celio"]}},"geometry":{"type":"Polygon","coordinates":[[[12.50189704,41.88915971],[12.50202401,41.88914897],[12.50224643,41.88916282],[12.50238775,41.8891704],[12.50254713,41.88917837],[12.50271389,41.88921478],[12.50275328,41.88922338],[12.50297041,41.88929565],[12.50316098,41.88935383],[12.50327398,41.88939231],[12.50329436,41.88939908],[12.50337753,41.88942672],[12.50338999,41.88943086],[12.50361236,41.8890392],[12.50368193,41.88891667],[12.50416532,41.88806526],[12.50417284,41.88805201],[12.5044976,41.8874471],[12.50466295,41.88713912],[12.50466504,41.88713523],[12.50466987,41.88712624],[12.50481899,41.8871655],[12.50494437,41.88719525],[12.50515885,41.88725845],[12.50537668,41.88731271],[12.50559133,41.88737142],[12.50581217,41.88742575],[12.50594908,41.88746925],[12.50606844,41.88749886],[12.50617827,41.88753001],[12.50629195,41.88756225],[12.50651227,41.88763008],[12.50662041,41.88765902],[12.50664049,41.88766439],[12.50672108,41.88768415],[12.50692953,41.88774722],[12.50710505,41.88780506],[12.5072625,41.88786252],[12.50746929,41.88793317],[12.50747362,41.88793465],[12.50774053,41.88804401],[12.50774801,41.88804806],[12.50785858,41.88810799],[12.50787037,41.88811437],[12.50787723,41.88810133],[12.50798749,41.88789178],[12.50806586,41.88773588],[12.50814707,41.88758455],[12.50822226,41.88743291],[12.5082288,41.88741972],[12.5083001,41.88729068],[12.50835583,41.88717482],[12.50842748,41.88703228],[12.5084342,41.88701892],[12.50852444,41.88686779],[12.50861219,41.88670309],[12.50861368,41.88670232],[12.50862258,41.88669775],[12.50875377,41.88663039],[12.50877205,41.88662101],[12.50874737,41.88648088],[12.50875402,41.8864425],[12.50877068,41.8863463],[12.50879983,41.88620224],[12.50880424,41.88618043],[12.50899721,41.88611167],[12.50906634,41.88603864],[12.50911647,41.88598566],[12.50921468,41.88587208],[12.50923005,41.88585749],[12.50916234,41.88583594],[12.50913355,41.88582678],[12.50912287,41.88582338],[12.50910665,41.88581822],[12.50905626,41.88580217],[12.50901713,41.88578972],[12.50900113,41.88578462],[12.50895636,41.88577037],[12.50891828,41.88575784],[12.50893357,41.88573656],[12.50888972,41.88571759],[12.50889647,41.88569883],[12.50889438,41.88569068],[12.50888633,41.8856806],[12.50887585,41.88567136],[12.50886033,41.88566742],[12.50884712,41.88566624],[12.50883019,41.88566767],[12.50880555,41.88568154],[12.50878106,41.88572244],[12.50857469,41.88563691],[12.50859759,41.88560588],[12.50859928,41.88559331],[12.50859733,41.88558156],[12.50858447,41.88557138],[12.50856424,41.88556463],[12.50854147,41.88556144],[12.50851948,41.88556906],[12.50851717,41.88557204],[12.50845261,41.88554785],[12.50843368,41.88556995],[12.50833356,41.88553357],[12.5082887,41.88551727],[12.5082531,41.88550299],[12.50822209,41.88549188],[12.50820748,41.88548664],[12.50812473,41.88545698],[12.50803296,41.88543067],[12.50800904,41.8854217],[12.50789279,41.88537809],[12.50786063,41.88536839],[12.50772401,41.88531769],[12.50764325,41.88528712],[12.50762079,41.88527915],[12.50749466,41.88523436],[12.5074626,41.88522196],[12.50739218,41.88519596],[12.50737133,41.88518826],[12.50732003,41.88516933],[12.50723049,41.88514757],[12.50714158,41.88510962],[12.50711452,41.88509282],[12.50705834,41.88508079],[12.50702368,41.88508192],[12.50701765,41.88508212],[12.50701665,41.88508215],[12.50701174,41.88508231],[12.50699949,41.88510653],[12.50693981,41.88509172],[12.50690369,41.88509094],[12.50690139,41.88508819],[12.5067348,41.88503324],[12.50672517,41.88503303],[12.50663212,41.88501763],[12.50653717,41.88500192],[12.50645334,41.88498839],[12.50643965,41.88498728],[12.50639781,41.88498386],[12.50630318,41.88497613],[12.50607492,41.88495766],[12.50571311,41.88487144],[12.50566387,41.88484278],[12.50584629,41.88468198],[12.50586849,41.88466241],[12.50594724,41.88459299],[12.50596231,41.88459949],[12.50597718,41.884589],[12.50597488,41.88458625],[12.50596262,41.88457943],[12.50597749,41.88456633],[12.50599354,41.88457135],[12.50599622,41.8845642],[12.50598763,41.88455739],[12.50602322,41.88452601],[12.50604235,41.88453003],[12.50611762,41.88448484],[12.50612399,41.88447852],[12.5061322,41.88446158],[12.5061247,41.88445262],[12.50612374,41.88445232],[12.50601755,41.88441877],[12.50601153,41.88441864],[12.50599364,41.88441375],[12.50598378,41.88442879],[12.50595418,41.88442667],[12.50593309,41.88442144],[12.50593963,41.88440807],[12.50586819,41.88438581],[12.50586165,41.88439917],[12.50581401,41.88438463],[12.50582062,41.88436946],[12.50573732,41.88434244],[12.50573084,41.884354],[12.50569507,41.88434422],[12.50570402,41.88433091],[12.50559705,41.88429256],[12.5055905,41.88430592],[12.50555828,41.88429802],[12.5055673,41.88428291],[12.50550177,41.88426347],[12.50548697,41.88427215],[12.50545131,41.88425967],[12.50546026,41.88424636],[12.50543691,41.88423843],[12.50542658,41.88425008],[12.50523379,41.88418735],[12.50524387,41.88417586],[12.50516584,41.88413724],[12.50514888,41.88413422],[12.50513135,41.88412887],[12.50510124,41.88411968],[12.50507644,41.88416638],[12.50506733,41.88417071],[12.50504898,41.88416712],[12.50474174,41.88410528],[12.50472954,41.88410283],[12.50470798,41.88409849],[12.50470161,41.88409721],[12.50471763,41.88406056],[12.50460661,41.88403052],[12.50452639,41.88398728],[12.50448549,41.88396524],[12.50443555,41.88393832],[12.50440914,41.88392233],[12.50438393,41.88390707],[12.50429738,41.88385468],[12.50427872,41.88384338],[12.50420398,41.88379879],[12.5042106,41.88378525],[12.50421962,41.88377085],[12.50422593,41.88375843],[12.50421193,41.88374641],[12.50420574,41.88375078],[12.50407551,41.8836605],[12.50401018,41.88361521],[12.50400637,41.88361257],[12.50399299,41.88360213],[12.5038759,41.88352934],[12.50379341,41.88347273],[12.503612,41.88334825],[12.50346928,41.88325032],[12.50329843,41.88320696],[12.50319056,41.88319187],[12.5031581,41.88318734],[12.50307493,41.88317571],[12.50298416,41.88316707],[12.50297756,41.88320349],[12.50284481,41.88319048],[12.50277777,41.88318485],[12.50270628,41.88317885],[12.50262834,41.88320291],[12.50258656,41.88320821],[12.50253106,41.8832252],[12.50248962,41.88324042],[12.50248912,41.88324056],[12.50243025,41.88325761],[12.50241039,41.88326337],[12.50237342,41.88327326],[12.50220897,41.88331725],[12.50218769,41.88331589],[12.50219358,41.88328837],[12.50210802,41.88327903],[12.5021035,41.88330532],[12.50179823,41.88326544],[12.5017931,41.88328586],[12.50174695,41.88328252],[12.50174652,41.88327503],[12.50166587,41.88326967],[12.50165053,41.88326745],[12.5015586,41.88325705],[12.50129371,41.88322708],[12.50124383,41.8832205],[12.50121531,41.88321636],[12.50112114,41.88319297],[12.5010668,41.8831772],[12.50096153,41.88313879],[12.50089487,41.88311447],[12.50050998,41.88297181],[12.50048294,41.8829605],[12.50037851,41.8829222],[12.50008741,41.88280653],[12.50010676,41.88277994],[12.50000901,41.88274017],[12.49998736,41.88276995],[12.4999056,41.88274198],[12.49986124,41.88272681],[12.49968649,41.88266704],[12.49970995,41.8826309],[12.49960563,41.88259287],[12.4995809,41.88262745],[12.49949651,41.8826004],[12.4992592,41.88252705],[12.49927014,41.88250298],[12.49919701,41.88248391],[12.49916927,41.88252464],[12.49916194,41.88252412],[12.49910624,41.88251552],[12.49903829,41.88250594],[12.49885607,41.88249664],[12.49880424,41.88249399],[12.4987256,41.88248958],[12.49870426,41.88248371],[12.4987109,41.88248331],[12.49872254,41.88245691],[12.49870086,41.88245031],[12.49867211,41.88241501],[12.49866502,41.88240225],[12.49864061,41.88235778],[12.49862554,41.88236019],[12.49860818,41.88236298],[12.49857051,41.88236903],[12.49856413,41.8823702],[12.49837327,41.88240526],[12.49829797,41.8823541],[12.49827055,41.88233548],[12.49821678,41.88235234],[12.49806924,41.88239863],[12.49806004,41.8824045],[12.49793948,41.88248135],[12.49778192,41.88258148],[12.49763165,41.88267953],[12.49761498,41.88269041],[12.49743299,41.88279901],[12.49730925,41.88288187],[12.49717346,41.88296446],[12.49715711,41.88297576],[12.49701555,41.88307359],[12.49696929,41.88310151],[12.49692916,41.88312573],[12.49683303,41.88319568],[12.49672451,41.88327437],[12.49660643,41.88336635],[12.49653652,41.88345938],[12.4964659,41.88357041],[12.49641653,41.8836774],[12.49636699,41.88378889],[12.49631709,41.88390938],[12.49625462,41.8840431],[12.49619082,41.88419418],[12.49618491,41.88420818],[12.49613536,41.88431967],[12.49608192,41.88445359],[12.49605528,41.88452438],[12.49601805,41.88462331],[12.49599852,41.88467519],[12.49598107,41.88472156],[12.49590744,41.88483252],[12.49588233,41.88486069],[12.49581291,41.88493853],[12.49581163,41.88494103],[12.49576726,41.88502759],[12.49575089,41.88505574],[12.49571558,41.88511652],[12.49570092,41.88526029],[12.49569219,41.88527025],[12.49561578,41.88535749],[12.49550868,41.88547673],[12.49549558,41.88550346],[12.49544302,41.88561488],[12.49542038,41.88566109],[12.49536445,41.88577527],[12.4952926,41.88591779],[12.4952795,41.88594452],[12.4952149,41.88605568],[12.49514623,41.88619377],[12.49514303,41.88619952],[12.49506199,41.88634503],[12.49497739,41.88650528],[12.49492217,41.88660764],[12.49490324,41.88664359],[12.49486358,41.88671893],[12.49479474,41.88686152],[12.49471882,41.88703097],[12.49471538,41.88703714],[12.49463457,41.88718223],[12.49457315,41.88728895],[12.49451776,41.88739581],[12.494439,41.88756069],[12.49437989,41.88768548],[12.49430803,41.887828],[12.49430305,41.88783676],[12.49422714,41.88797033],[12.49414926,41.88811272],[12.49409228,41.88826006],[12.49402609,41.88841172],[12.49401887,41.88842508],[12.49396113,41.88853187],[12.49388945,41.88866989],[12.49382875,41.88883517],[12.49381112,41.88886247],[12.49377423,41.88891954],[12.49366009,41.88906792],[12.49363456,41.8891011],[12.49363869,41.88910495],[12.49368398,41.88914721],[12.49369825,41.88916079],[12.49374208,41.88920251],[12.49379593,41.88928924],[12.49384111,41.88936677],[12.49394333,41.88952661],[12.4939454,41.88953184],[12.49398994,41.8896447],[12.49403973,41.88975835],[12.49410582,41.8899174],[12.49416987,41.8900583],[12.49421125,41.89014934],[12.49421252,41.89015188],[12.49424757,41.89022218],[12.49432907,41.89037255],[12.49430007,41.890498],[12.49457739,41.89049505],[12.49462479,41.89048904],[12.49469851,41.89047968],[12.49479555,41.89046379],[12.49495032,41.89043565],[12.49514776,41.89039493],[12.49541179,41.89034666],[12.49553337,41.89032285],[12.49554164,41.89032123],[12.49574275,41.89028184],[12.49574461,41.89028147],[12.49584423,41.89026149],[12.49592496,41.89024529],[12.4960645,41.89022132],[12.49613797,41.89020799],[12.49628603,41.89018113],[12.49648949,41.89014054],[12.49668959,41.89010888],[12.49686844,41.89008126],[12.49697451,41.89006557],[12.49700574,41.89006109],[12.49702905,41.89005775],[12.49717178,41.89002935],[12.49729308,41.89000948],[12.49750574,41.88996458],[12.49773329,41.88992452],[12.49785494,41.88989565],[12.49796437,41.88987102],[12.49816783,41.88983043],[12.49837082,41.88978609],[12.49839272,41.8897813],[12.49859033,41.88973608],[12.49871526,41.8897119],[12.49877856,41.88969966],[12.49890305,41.88967535],[12.49900026,41.88965496],[12.4990357,41.88964718],[12.49913094,41.88962629],[12.49918766,41.88961583],[12.4992402,41.88960615],[12.49941151,41.88957506],[12.49946172,41.88956595],[12.49947601,41.88956269],[12.49967757,41.88951662],[12.49974706,41.88950382],[12.49989608,41.88947636],[12.50011477,41.88943159],[12.50034231,41.88939152],[12.50057286,41.88935151],[12.50067346,41.88933239],[12.50074285,41.88931919],[12.50091904,41.88928251],[12.5010914,41.88925633],[12.50115243,41.88924706],[12.50135252,41.8892154],[12.50157989,41.88917982],[12.50178247,41.88916172],[12.50189704,41.88915971]]]},"id":"rome::celio"},{"type":"Feature","properties":{"id":"rome::centro-storico","name":"Centro Storico","cityId":"rome","city":"Rome","country":"Italy","parentName":null,"displayName":"Centro Storico","source":{"sourceId":"rome-official-urban-zones","provider":"Roma Capitale Geoportale","datasetUrl":"https://geoportale.comune.roma.it/geoserver/ows?service=WFS&version=2.0.0&request=GetFeature&typeNames=DIPDIT:ZoneUrbanistiche&outputFormat=json&srsName=EPSG:4326","datasetId":"DIPDIT:ZoneUrbanistiche","format":"wfs-geojson","matchField":"DENOMINAZIONE","labels":["Centro Storico"]}},"geometry":{"type":"Polygon","coordinates":[[[12.48090307,41.91276913],[12.48091129,41.91271347],[12.48091972,41.91271366],[12.48093117,41.91266121],[12.48095895,41.91253399],[12.48097119,41.91247794],[12.48096534,41.91247331],[12.48100808,41.91225329],[12.48101802,41.9122021],[12.48107109,41.91198864],[12.48110688,41.91191792],[12.48113079,41.91192295],[12.48114983,41.91186224],[12.48115936,41.91183187],[12.48114511,41.91182665],[12.48117027,41.91177865],[12.48117942,41.91178075],[12.48121428,41.91166687],[12.48118042,41.91166492],[12.48119696,41.91161821],[12.48122654,41.91162002],[12.48123235,41.91159594],[12.48125179,41.91151539],[12.48122027,41.91151014],[12.48123279,41.91143281],[12.48127384,41.91131206],[12.48126248,41.91131108],[12.48125494,41.91131043],[12.48129683,41.91123615],[12.48133357,41.911171],[12.48133426,41.91116978],[12.48135977,41.91112455],[12.48136864,41.91110881],[12.48138631,41.91107924],[12.48139841,41.91105899],[12.4813764,41.91105431],[12.4813592,41.91105065],[12.48139405,41.91096591],[12.48141865,41.91090607],[12.4813968,41.9109009],[12.48144654,41.91077528],[12.48146735,41.91072271],[12.48149919,41.91064229],[12.48151499,41.91064222],[12.48152564,41.91064217],[12.48155196,41.91058601],[12.48153313,41.91057875],[12.48152552,41.9105758],[12.48154598,41.91052413],[12.48157241,41.91045737],[12.48158433,41.91042727],[12.48160635,41.91039041],[12.48162266,41.91036309],[12.48165798,41.91033483],[12.4816784,41.91034973],[12.48173042,41.9103053],[12.48172521,41.91030195],[12.48171073,41.91029262],[12.48170408,41.91028833],[12.48173402,41.9102536],[12.48181016,41.91019235],[12.4819306,41.91009545],[12.48194609,41.9101043],[12.48197341,41.9101199],[12.48203352,41.91007187],[12.48200801,41.91005674],[12.48199441,41.91004867],[12.48203897,41.91001633],[12.48206041,41.9100001],[12.48209749,41.90997205],[12.48225325,41.90986505],[12.48225526,41.9098668],[12.48227038,41.90987993],[12.48234087,41.90983177],[12.482326,41.90981736],[12.4825695,41.90964716],[12.48256993,41.9096475],[12.48258863,41.90966268],[12.48266329,41.90961596],[12.48264793,41.90959833],[12.48264552,41.90959557],[12.48271191,41.90955589],[12.48281668,41.90949326],[12.48291575,41.90943157],[12.48293848,41.90945458],[12.4830117,41.9094198],[12.48299191,41.90939423],[12.48299094,41.90939296],[12.48303794,41.90937166],[12.48312659,41.9093208],[12.48314638,41.90930945],[12.4832865,41.90922905],[12.48329942,41.90923948],[12.48331982,41.90925596],[12.48339396,41.90920985],[12.48338089,41.90919756],[12.48336592,41.90918346],[12.48343106,41.90914606],[12.48367043,41.90900865],[12.4836702,41.90900846],[12.48367685,41.90900492],[12.48371404,41.90898511],[12.48372368,41.90899254],[12.48374329,41.90900764],[12.48379606,41.90897484],[12.48377526,41.90895464],[12.48376898,41.90894853],[12.48378384,41.90894029],[12.48386417,41.90889369],[12.48393921,41.90885116],[12.48405389,41.90878769],[12.48407411,41.9088108],[12.48416401,41.90876426],[12.48415465,41.90875382],[12.48413893,41.90873631],[12.48415563,41.90872586],[12.48430024,41.9086354],[12.48439815,41.90854427],[12.48439849,41.908544],[12.48443199,41.90856565],[12.48448666,41.90851869],[12.48448329,41.90851653],[12.48445099,41.90849584],[12.48444859,41.9084942],[12.48444992,41.90849288],[12.48447476,41.90846804],[12.48451443,41.90842836],[12.48451448,41.90842831],[12.48457036,41.90837242],[12.48468739,41.90825539],[12.48469178,41.90825098],[12.48469512,41.90824761],[12.48478572,41.90815615],[12.48492088,41.9080197],[12.48492828,41.90802443],[12.4849345,41.9080284],[12.48494137,41.9080328],[12.48494554,41.90803546],[12.4849464,41.90803602],[12.48500105,41.90798913],[12.48500566,41.90798517],[12.48500127,41.90798229],[12.48499126,41.90797571],[12.48497757,41.90796673],[12.48498565,41.90795977],[12.48515214,41.90781642],[12.48520379,41.90777194],[12.48521242,41.90777757],[12.48521445,41.90777889],[12.48522327,41.90778465],[12.48524693,41.90780008],[12.48524553,41.90780141],[12.4852254,41.90782032],[12.48529649,41.90786727],[12.4853132,41.90785235],[12.48531873,41.90784741],[12.48541807,41.90791182],[12.48556338,41.90800604],[12.48554311,41.90802543],[12.48554009,41.90802832],[12.48558447,41.90805657],[12.48561877,41.9080784],[12.48564243,41.90805911],[12.48578531,41.90815211],[12.48591116,41.90823403],[12.48588377,41.90825613],[12.48594352,41.90830652],[12.4859812,41.90828032],[12.48599286,41.90829031],[12.48604593,41.90833569],[12.48610694,41.90838781],[12.48613245,41.90840963],[12.48621052,41.90847636],[12.48618279,41.90849484],[12.48624278,41.9085483],[12.48628796,41.90852128],[12.48653072,41.90871302],[12.48652362,41.90872096],[12.48650272,41.90874437],[12.48652036,41.90875449],[12.48655118,41.90877218],[12.48659558,41.90878981],[12.48660023,41.90877589],[12.48660801,41.90875262],[12.48693162,41.90886229],[12.48691699,41.90889097],[12.48699191,41.90891755],[12.48700546,41.90888858],[12.48708013,41.90891771],[12.48737498,41.90903275],[12.4874873,41.90912562],[12.48757793,41.90920055],[12.48760737,41.90923065],[12.48771316,41.90929681],[12.48785349,41.90937906],[12.48788881,41.90939976],[12.48790325,41.90940823],[12.4879036,41.90940842],[12.48792478,41.90942083],[12.48794707,41.9094339],[12.48796217,41.90944275],[12.48795278,41.90946416],[12.48798985,41.90947785],[12.48798903,41.90948657],[12.48808048,41.90950334],[12.48808889,41.90947948],[12.48814441,41.90947814],[12.48820008,41.90947679],[12.48823289,41.90947599],[12.48826266,41.90947527],[12.48828438,41.90947475],[12.48828781,41.90950419],[12.48829814,41.90951738],[12.48830112,41.90951844],[12.48831504,41.90951982],[12.48832446,41.90951958],[12.48832944,41.90951861],[12.48833413,41.90951592],[12.48833765,41.90951212],[12.48834017,41.90950623],[12.48834212,41.90949052],[12.48838542,41.90947071],[12.48825612,41.90938554],[12.48812615,41.90925535],[12.48799897,41.90915468],[12.48796442,41.90912297],[12.4878777,41.90905771],[12.48772002,41.90892818],[12.48760576,41.90884463],[12.48759697,41.90883767],[12.48754901,41.90879968],[12.48748883,41.90875201],[12.48736057,41.90864114],[12.48721795,41.90851194],[12.48711134,41.9083967],[12.48708962,41.90837322],[12.48707339,41.90835567],[12.4870236,41.90831856],[12.48691359,41.90820358],[12.4867917,41.90808384],[12.48678593,41.90807711],[12.48667353,41.90794617],[12.48661329,41.9078683],[12.48658388,41.90783515],[12.48654402,41.90779023],[12.48644694,41.90765302],[12.48633851,41.90749755],[12.48626125,41.90737734],[12.48625045,41.90736054],[12.48619961,41.90727387],[12.4861546,41.90719184],[12.48606425,41.90703676],[12.48598859,41.90689101],[12.4859615,41.90683668],[12.48591595,41.90674533],[12.48589486,41.90666832],[12.48588262,41.90662658],[12.48585765,41.90654143],[12.48584523,41.90639707],[12.4858409,41.90632461],[12.48584081,41.90632309],[12.48583888,41.9062909],[12.48583795,41.90627533],[12.48583846,41.90610874],[12.48584181,41.90594671],[12.48584516,41.90578468],[12.48584868,41.90561816],[12.48585331,41.90555755],[12.48585461,41.90554056],[12.48586106,41.90545633],[12.48587007,41.90530343],[12.48587843,41.905159],[12.48587853,41.90515728],[12.48587944,41.90514153],[12.48588527,41.90499307],[12.48588702,41.90487153],[12.48589408,41.90469158],[12.48589422,41.90469074],[12.48590205,41.90464222],[12.48586328,41.90452832],[12.48584801,41.90448344],[12.48581047,41.90436967],[12.48580761,41.90436098],[12.48574488,41.904193],[12.48574078,41.90418145],[12.48571088,41.90409738],[12.48568517,41.90402508],[12.48568057,41.90401132],[12.48563662,41.90387993],[12.48562081,41.9038241],[12.48559427,41.90373041],[12.48557117,41.90364904],[12.48554926,41.90357183],[12.48554583,41.90350475],[12.48554074,41.90340504],[12.48553715,41.90336996],[12.48553059,41.90330598],[12.48552549,41.90325611],[12.48552365,41.90319339],[12.48552033,41.90308039],[12.48550862,41.90291803],[12.48551332,41.90290802],[12.48554825,41.90283362],[12.48555466,41.90281998],[12.48548035,41.90280294],[12.48533573,41.90276977],[12.48549333,41.90274686],[12.48551696,41.90274342],[12.48562519,41.90271625],[12.48570247,41.90269144],[12.48583558,41.90264868],[12.48590781,41.90257556],[12.48604541,41.90245696],[12.48606065,41.90244382],[12.48616992,41.90234716],[12.48630525,41.90222811],[12.48631975,41.90221536],[12.48645322,41.90210845],[12.48646472,41.90209923],[12.48647843,41.90208825],[12.48655035,41.90209883],[12.4867035,41.90218771],[12.48670357,41.90218774],[12.48674816,41.90218872],[12.48675476,41.90218886],[12.4868108,41.90214831],[12.48685432,41.90211682],[12.48686952,41.90210582],[12.48690409,41.90211242],[12.4874558,41.90221773],[12.48772787,41.90227321],[12.48793998,41.90231578],[12.48838271,41.90240463],[12.48848455,41.90242036],[12.48864733,41.90241942],[12.48909438,41.90239319],[12.48929554,41.90240155],[12.48932304,41.90240269],[12.48945054,41.90237791],[12.48946881,41.90237436],[12.48951289,41.90224925],[12.48953321,41.90223281],[12.49023084,41.90166834],[12.49024972,41.90165306],[12.49026607,41.90163984],[12.49023322,41.90161847],[12.49015146,41.90156529],[12.49003135,41.9014771],[12.48991426,41.90138899],[12.48978211,41.90130054],[12.48964731,41.90120304],[12.48947424,41.90108218],[12.48935113,41.90099393],[12.48931842,41.90097204],[12.48921898,41.90090548],[12.4892126,41.90090088],[12.48905779,41.90078939],[12.48897894,41.90073472],[12.4889639,41.90072429],[12.4888702,41.9006547],[12.48870581,41.90054303],[12.48860325,41.90046874],[12.488489,41.90038519],[12.48848408,41.90038181],[12.48847838,41.90037789],[12.48833347,41.90027822],[12.48818397,41.90017139],[12.48808424,41.90010166],[12.48799071,41.90002757],[12.48781765,41.89990671],[12.48770382,41.89982585],[12.4876476,41.89978591],[12.48750979,41.89968833],[12.48741024,41.89961411],[12.48732841,41.89954928],[12.48732445,41.89954651],[12.48722868,41.89947955],[12.48714065,41.89941909],[12.48711232,41.89937511],[12.48705827,41.8992912],[12.4869694,41.89918284],[12.48690026,41.89909412],[12.4868392,41.89900605],[12.48679795,41.89891937],[12.48677484,41.89885475],[12.4867741,41.8988344],[12.48676924,41.89870001],[12.48676879,41.89857081],[12.48676877,41.89856561],[12.48676813,41.8984355],[12.48676767,41.89832574],[12.48677314,41.89818627],[12.48678074,41.89806937],[12.48678074,41.89803843],[12.48678073,41.8980061],[12.48678073,41.89799282],[12.48679754,41.89787161],[12.48680568,41.89782765],[12.48681665,41.89776846],[12.48682505,41.89774126],[12.48685117,41.89765665],[12.48688348,41.89755567],[12.48688551,41.89754934],[12.48692202,41.89744476],[12.48694323,41.897384],[12.48695217,41.89727741],[12.48695454,41.89724916],[12.48695883,41.89720878],[12.48695932,41.89720424],[12.48696869,41.89711889],[12.48696959,41.89710992],[12.48696977,41.89710815],[12.48697339,41.89707195],[12.48697859,41.89702004],[12.48698797,41.8969347],[12.48701398,41.89680919],[12.48703099,41.89670229],[12.48703398,41.89668355],[12.48703389,41.8966835],[12.48701115,41.8966718],[12.48700775,41.89667006],[12.48684198,41.89658478],[12.48674623,41.8965371],[12.48665282,41.89649058],[12.4865869,41.89643836],[12.48650669,41.89637481],[12.48649349,41.89636385],[12.48644505,41.89632364],[12.48638412,41.89627306],[12.48617372,41.89625945],[12.48600565,41.89624226],[12.48586039,41.8962274],[12.48583757,41.89622507],[12.48573497,41.8962156],[12.48569737,41.89621214],[12.48564541,41.89620735],[12.48554305,41.8962051],[12.48550083,41.89617489],[12.48545218,41.89614007],[12.4852764,41.8961033],[12.48489925,41.89602439],[12.48483255,41.89600166],[12.48472976,41.89596664],[12.48469697,41.89596057],[12.48466848,41.89595593],[12.48459087,41.89594327],[12.48449277,41.89596027],[12.48445409,41.89597473],[12.48436864,41.89600667],[12.48432969,41.89602541],[12.48429231,41.89601201],[12.48426651,41.89600275],[12.48414248,41.89595827],[12.4839466,41.89588192],[12.48375364,41.89579688],[12.48365631,41.89575398],[12.48363408,41.89572655],[12.48357743,41.89565665],[12.48350399,41.89556603],[12.48383813,41.89520489],[12.483847,41.89519531],[12.48391323,41.89512022],[12.48405153,41.89497466],[12.48420241,41.89489241],[12.48433186,41.8948187],[12.48449746,41.89472554],[12.48451674,41.89471469],[12.48464903,41.89464555],[12.48480876,41.894568],[12.48480473,41.89456751],[12.48471589,41.89455667],[12.48462883,41.89454604],[12.48447138,41.89448856],[12.48437857,41.89439647],[12.48429462,41.89430907],[12.48425332,41.89420657],[12.48424519,41.89418641],[12.48423358,41.89415759],[12.48420126,41.89407738],[12.48419594,41.89398271],[12.48420762,41.89391542],[12.48421452,41.89389306],[12.48423895,41.89380804],[12.48427242,41.89372322],[12.48432164,41.89362073],[12.48435156,41.89354935],[12.48436643,41.89347763],[12.48435883,41.89342743],[12.48435686,41.89341438],[12.48431364,41.8933639],[12.48423483,41.89329913],[12.48414928,41.89325223],[12.4840749,41.89322808],[12.48405066,41.89322528],[12.4840269,41.89322253],[12.48404102,41.8932203],[12.48406408,41.89313525],[12.48369648,41.89270259],[12.48355665,41.89253679],[12.48355062,41.89246011],[12.4835067,41.89242763],[12.48355657,41.89237622],[12.48345603,41.89228459],[12.4833989,41.89222992],[12.48335566,41.89218855],[12.48324859,41.8920975],[12.48313337,41.89200239],[12.4831229,41.89199595],[12.48312012,41.89199396],[12.48304885,41.89194285],[12.4830359,41.89193357],[12.48299981,41.89190769],[12.48285583,41.89181448],[12.482706,41.89171663],[12.48269254,41.89167581],[12.48270971,41.89162216],[12.48274707,41.89159146],[12.48279878,41.89157908],[12.48284642,41.89159364],[12.48297057,41.8916549],[12.48312128,41.89173025],[12.48322754,41.89178661],[12.48335417,41.89186143],[12.48342429,41.89184046],[12.48351549,41.89181994],[12.48362158,41.89188081],[12.48380353,41.89199719],[12.48380382,41.89199737],[12.48385409,41.89197285],[12.48387448,41.8919629],[12.48392069,41.8919369],[12.48406218,41.89186345],[12.48422244,41.89177241],[12.4843703,41.8916901],[12.48450963,41.89162245],[12.48453003,41.89161255],[12.48467754,41.89153923],[12.48483125,41.89146155],[12.48485714,41.89144399],[12.48488772,41.89142324],[12.48491483,41.89140485],[12.4849111,41.89134623],[12.48481104,41.89120319],[12.48480554,41.89119532],[12.48470883,41.89104911],[12.48466569,41.89098737],[12.48462895,41.89093479],[12.48452905,41.89079302],[12.48450471,41.89075721],[12.4844265,41.89064217],[12.48434042,41.89053222],[12.48433305,41.89052172],[12.48426338,41.89042246],[12.48425488,41.89040877],[12.4842249,41.890368],[12.48414046,41.89025316],[12.48408343,41.89017086],[12.48405306,41.89012857],[12.48404232,41.89011361],[12.48401772,41.89007937],[12.48392385,41.88993772],[12.48388411,41.88987789],[12.48383281,41.88980064],[12.48378197,41.88963742],[12.48376403,41.88957392],[12.48375177,41.88953051],[12.48374229,41.88949697],[12.48374005,41.88948855],[12.48369765,41.88932938],[12.48367587,41.88923177],[12.48366434,41.88918006],[12.4836197,41.88901248],[12.48359945,41.88890178],[12.48358745,41.88883616],[12.48357345,41.88873229],[12.48355077,41.88861922],[12.48347945,41.88851081],[12.48344557,41.88845931],[12.48342969,41.88843596],[12.48341139,41.88840903],[12.48334338,41.88829947],[12.48324119,41.88813963],[12.4832402,41.88813873],[12.48309579,41.88800586],[12.48294756,41.88786753],[12.48284307,41.88776617],[12.48272389,41.88765549],[12.48258434,41.88752635],[12.48257265,41.88751709],[12.4824416,41.88740164],[12.48240809,41.88737212],[12.48233676,41.88730929],[12.48225067,41.88723179],[12.48222909,41.88721237],[12.48218964,41.88724405],[12.48213321,41.88729592],[12.4821275,41.88730116],[12.4819523,41.88741786],[12.4819108,41.88747786],[12.4818655,41.88753356],[12.4818223,41.88758356],[12.4817519,41.88764036],[12.48149238,41.88781086],[12.48146202,41.8878308],[12.4812674,41.88795866],[12.4811707,41.88800436],[12.48115321,41.88801747],[12.48108939,41.88806533],[12.48105209,41.8880933],[12.48096286,41.88815268],[12.48096282,41.88815271],[12.48083749,41.888276],[12.48077359,41.88836115],[12.48076436,41.88837346],[12.48069406,41.88847548],[12.48067653,41.88848064],[12.48049004,41.88853558],[12.48048068,41.88853834],[12.48047998,41.88854213],[12.48047906,41.88854709],[12.48045006,41.88870427],[12.48041323,41.88887457],[12.48038455,41.88899101],[12.48037349,41.88904433],[12.48021579,41.88906835],[12.48005708,41.88907597],[12.48002259,41.88907762],[12.4797961,41.88909066],[12.47959671,41.88910429],[12.47956944,41.88910819],[12.47954562,41.88950486],[12.47954324,41.88954439],[12.47913268,41.88946279],[12.47890679,41.8894179],[12.47890644,41.88941783],[12.47882477,41.88944548],[12.47820714,41.88965462],[12.47763922,41.88984476],[12.47756332,41.88986975],[12.47725459,41.88997139],[12.47657723,41.89018614],[12.47559475,41.89049773],[12.47529742,41.89062627],[12.4751738,41.89078115],[12.47517346,41.89078172],[12.47514495,41.89082954],[12.4750996,41.8909056],[12.47467635,41.89094997],[12.47456709,41.89096142],[12.47454019,41.89096359],[12.47447943,41.89096849],[12.47441181,41.89097644],[12.47440923,41.89097674],[12.47438256,41.89097987],[12.47419415,41.89098712],[12.47415925,41.89098846],[12.47398253,41.89099571],[12.47396429,41.89099646],[12.47394498,41.89099725],[12.47359277,41.89105227],[12.47349021,41.89106829],[12.47316471,41.89114668],[12.47281632,41.8912298],[12.47273278,41.89124973],[12.47253793,41.89130724],[12.47224873,41.89139259],[12.47223586,41.89139639],[12.47171927,41.89158313],[12.47136047,41.89181837],[12.47129995,41.89186314],[12.47123581,41.8919106],[12.47092904,41.89213757],[12.47071085,41.89232187],[12.4702509,41.89267646],[12.4700759,41.89281564],[12.46972205,41.89309707],[12.46950694,41.89326474],[12.46914449,41.89354725],[12.46908161,41.89359626],[12.46860782,41.89395221],[12.4683829,41.89412118],[12.46836519,41.89413528],[12.4680673,41.89437255],[12.46800333,41.8944235],[12.46798863,41.8944363],[12.46776617,41.8946299],[12.46758923,41.89476108],[12.46745574,41.89486807],[12.46738696,41.89492321],[12.46735716,41.89494795],[12.46714394,41.89512498],[12.46713095,41.89513595],[12.46703483,41.89521713],[12.46664369,41.89555001],[12.46663258,41.89555947],[12.46623068,41.8958928],[12.4659983,41.89605427],[12.4659549,41.89608484],[12.46547966,41.89652011],[12.46537019,41.89662126],[12.46533733,41.89665067],[12.46533582,41.89665202],[12.46518224,41.89683468],[12.46512396,41.896904],[12.46484867,41.89723563],[12.46481604,41.89727623],[12.46470288,41.89741702],[12.46447024,41.89774726],[12.46441553,41.89782493],[12.46405784,41.89833484],[12.4638945,41.89857889],[12.46374159,41.89886368],[12.46364653,41.8990421],[12.46355112,41.89922117],[12.46354953,41.89922416],[12.463463,41.89965902],[12.46346915,41.8997341],[12.46347113,41.89975826],[12.46349276,41.89994528],[12.46349343,41.89995112],[12.46349358,41.89995238],[12.4635311,41.90007028],[12.46356114,41.90015737],[12.46362031,41.90032891],[12.46382427,41.90065762],[12.46410157,41.90096094],[12.46418025,41.90102948],[12.4643084,41.90114112],[12.4643231,41.90115045],[12.4645643,41.90129987],[12.46478001,41.9014082],[12.46494578,41.90148391],[12.46501432,41.90150343],[12.46508754,41.9015257],[12.46555296,41.90166724],[12.46576472,41.90173164],[12.46631409,41.90178677],[12.46645511,41.90180092],[12.46694714,41.90185681],[12.46701851,41.90186318],[12.46768589,41.90192265],[12.46817098,41.90197597],[12.46830101,41.90199026],[12.4683906,41.90200061],[12.469072,41.90207932],[12.46907726,41.90208027],[12.46975424,41.90220243],[12.46989452,41.90223705],[12.47045572,41.90237176],[12.47065877,41.9024205],[12.47130028,41.90258323],[12.47133871,41.90260209],[12.47178103,41.90276723],[12.47206931,41.90287485],[12.47207724,41.90287872],[12.47214366,41.9029111],[12.47263998,41.90315309],[12.47269816,41.9031945],[12.47278361,41.90325532],[12.47280127,41.90326583],[12.47280717,41.90326934],[12.47285392,41.90330087],[12.47289391,41.90332784],[12.47306257,41.90344157],[12.47327103,41.90358125],[12.47331107,41.90361754],[12.47341361,41.90371047],[12.4735677,41.90385345],[12.47358806,41.90387438],[12.47366617,41.90395468],[12.47392121,41.90421245],[12.47394788,41.90425151],[12.47398674,41.90430845],[12.47422832,41.90467849],[12.47423345,41.90468866],[12.47426757,41.90475632],[12.4743569,41.90493348],[12.47436452,41.90496967],[12.47438331,41.90506753],[12.47444704,41.90539925],[12.47448865,41.90564332],[12.47452265,41.9058512],[12.47447923,41.9062645],[12.47446292,41.90637221],[12.47438993,41.9066948],[12.47436187,41.90677401],[12.47434245,41.90682884],[12.47431994,41.90688768],[12.47423828,41.90710122],[12.47416299,41.90725265],[12.4740729,41.90743632],[12.47405811,41.90746648],[12.4739892,41.90760905],[12.47379663,41.90786938],[12.47376634,41.90791033],[12.47374975,41.90793391],[12.47362905,41.90810543],[12.47344499,41.90834003],[12.47339386,41.90840293],[12.47331195,41.9085037],[12.4732856,41.90854149],[12.47319421,41.90867259],[12.47312026,41.90877865],[12.47303197,41.90890774],[12.47288358,41.90912466],[12.47274646,41.90931526],[12.47269041,41.9093901],[12.47259056,41.90952345],[12.47256858,41.90956593],[12.4725514,41.90959914],[12.47246105,41.90975024],[12.47241516,41.90984379],[12.47234843,41.9099719],[12.47231081,41.91004412],[12.47224338,41.91018304],[12.47221567,41.91024014],[12.47221195,41.91024622],[12.47212868,41.91038232],[12.47202202,41.91056458],[12.47198977,41.9106179],[12.47198152,41.91063341],[12.47196373,41.91066686],[12.47194558,41.91070951],[12.47195698,41.91071256],[12.47207808,41.91074276],[12.47223276,41.91078153],[12.4726021,41.91087412],[12.47305408,41.91098742],[12.47343656,41.91108329],[12.47348253,41.91109482],[12.47364414,41.91113532],[12.47464247,41.91138557],[12.47468347,41.91139586],[12.47479507,41.91142337],[12.47487069,41.91144202],[12.47488724,41.91144629],[12.47490734,41.91139784],[12.47492911,41.91134536],[12.47497607,41.91135311],[12.47502227,41.91136074],[12.4750372,41.91133071],[12.47547793,41.91143885],[12.47555754,41.91145942],[12.4756924,41.91149436],[12.47577558,41.91151591],[12.47596691,41.91155131],[12.47619218,41.91159211],[12.47620949,41.91159525],[12.47623712,41.91159802],[12.47623534,41.91160388],[12.4762328,41.91161222],[12.47622866,41.91162788],[12.47692283,41.91170955],[12.47699569,41.91172096],[12.47705086,41.9117296],[12.47740948,41.91194479],[12.47743147,41.91195799],[12.47747776,41.9119799],[12.47750529,41.91199361],[12.47751828,41.91199838],[12.47753786,41.91197952],[12.47759772,41.91189771],[12.47762396,41.91189658],[12.47791776,41.91188403],[12.47815102,41.91202244],[12.47820106,41.91203665],[12.47889511,41.91223372],[12.47889378,41.91225224],[12.47889799,41.91227079],[12.4789024,41.91227827],[12.47893245,41.91229893],[12.4790348,41.91233861],[12.47925332,41.91242332],[12.47952323,41.91251606],[12.47955147,41.91252137],[12.47956713,41.91252189],[12.47958257,41.91251548],[12.47960562,41.91250581],[12.47977593,41.91256858],[12.48002834,41.91266161],[12.48004449,41.91263414],[12.48049439,41.91279171],[12.48058686,41.91283873],[12.48058031,41.9128521],[12.48059802,41.91286149],[12.48084138,41.91285342],[12.48087568,41.91285228],[12.48090307,41.91276913]]]},"id":"rome::centro-storico"},{"type":"Feature","properties":{"id":"rome::garbatella","name":"Garbatella","cityId":"rome","city":"Rome","country":"Italy","parentName":null,"displayName":"Garbatella","source":{"sourceId":"rome-official-urban-zones","provider":"Roma Capitale Geoportale","datasetUrl":"https://geoportale.comune.roma.it/geoserver/ows?service=WFS&version=2.0.0&request=GetFeature&typeNames=DIPDIT:ZoneUrbanistiche&outputFormat=json&srsName=EPSG:4326","datasetId":"DIPDIT:ZoneUrbanistiche","format":"wfs-geojson","matchField":"DENOMINAZIONE","labels":["Garbatella"]}},"geometry":{"type":"Polygon","coordinates":[[[12.49819238,41.86123444],[12.4982773,41.86092034],[12.49829883,41.86076069],[12.49830022,41.86057773],[12.4982863,41.86044446],[12.49828475,41.86043543],[12.4982676,41.8603354],[12.49820408,41.86014959],[12.49813744,41.85999517],[12.49799658,41.85978194],[12.49788745,41.85963802],[12.49774561,41.85949911],[12.49764577,41.85941116],[12.49730164,41.85916347],[12.49665959,41.85870913],[12.49645271,41.85856575],[12.49634863,41.85849362],[12.495813,41.85810593],[12.49551722,41.85789361],[12.49514899,41.8576268],[12.49458904,41.85722571],[12.49396355,41.85678888],[12.49353575,41.85648074],[12.49316737,41.85621821],[12.49278072,41.85593385],[12.49241965,41.85568005],[12.49174996,41.85520078],[12.49143741,41.85497807],[12.49088127,41.85457848],[12.4906374,41.85440874],[12.49007373,41.85400611],[12.48992131,41.85389413],[12.48925694,41.85342639],[12.48904309,41.8532716],[12.48871015,41.85303271],[12.4882171,41.85268309],[12.48763683,41.8522658],[12.48735583,41.85206807],[12.48646653,41.85143671],[12.4860981,41.85117702],[12.4852408,41.85055921],[12.4847257,41.85018765],[12.48416183,41.84979214],[12.4836654,41.84943242],[12.48280399,41.84882309],[12.4820433,41.84827886],[12.48102211,41.84755163],[12.48013653,41.84692601],[12.47932595,41.84634296],[12.47903903,41.84614908],[12.47902116,41.84618876],[12.47901422,41.8462037],[12.479014,41.84620416],[12.47896524,41.84630911],[12.47895565,41.84634062],[12.47887872,41.84628985],[12.47885518,41.84627432],[12.47882424,41.84624941],[12.47874863,41.8461969],[12.47870078,41.84616367],[12.47846199,41.84599074],[12.47823848,41.84584615],[12.47819422,41.84582103],[12.47816567,41.84580483],[12.47804532,41.84575329],[12.47794805,41.84572143],[12.47795915,41.84568946],[12.47782874,41.84565374],[12.47768238,41.84562351],[12.47755621,41.84561623],[12.47741198,41.84560856],[12.47729713,41.84561954],[12.47716388,41.84563913],[12.47703328,41.84566778],[12.47689967,41.84569636],[12.47688156,41.8457044],[12.47677403,41.84575214],[12.47676611,41.8457551],[12.47661512,41.84581168],[12.47661142,41.84581394],[12.47652256,41.84586818],[12.47642081,41.84592898],[12.47633587,41.84602168],[12.47623854,41.8461231],[12.47621486,41.84615703],[12.47618429,41.84620086],[12.47613643,41.84626945],[12.4760722,41.8463716],[12.47598938,41.84648685],[12.47591948,41.84665642],[12.47584374,41.84682136],[12.47579773,41.84691941],[12.47575154,41.84702196],[12.47570836,41.84712458],[12.47566235,41.84722263],[12.47561789,41.847326],[12.47558944,41.84739213],[12.47551352,41.84756157],[12.4754376,41.84773101],[12.47536487,41.84789601],[12.47535946,41.84790848],[12.47533124,41.84797366],[12.47522509,41.84794517],[12.475206,41.84793548],[12.47518286,41.84792374],[12.47515514,41.84790967],[12.47511992,41.84789179],[12.4749092,41.84778949],[12.47490621,41.84778382],[12.47485656,41.84770382],[12.47475857,41.84754588],[12.47475351,41.84753772],[12.47466114,41.8474102],[12.4746471,41.84739082],[12.47459086,41.8473287],[12.47454171,41.84727442],[12.47443137,41.84714622],[12.47437801,41.84708422],[12.47436767,41.84707345],[12.47421771,41.84691722],[12.47414754,41.84685227],[12.47410802,41.8468157],[12.47403501,41.84674812],[12.47385371,41.84659052],[12.47385365,41.84659047],[12.47376227,41.84651986],[12.47356771,41.84636952],[12.47346672,41.84630325],[12.47341151,41.84626701],[12.47321015,41.84613487],[12.47318081,41.84611562],[12.47316447,41.84610638],[12.47310239,41.84615948],[12.47308394,41.84617526],[12.47304998,41.84619778],[12.47300296,41.84621927],[12.47299728,41.84622186],[12.47297787,41.84623073],[12.47295335,41.84623727],[12.47288094,41.84625658],[12.4728393,41.84626768],[12.47276977,41.84633422],[12.47276548,41.84633834],[12.47275119,41.84635201],[12.47272171,41.84637325],[12.47270926,41.84638221],[12.47262697,41.84644148],[12.47275336,41.84654172],[12.47285865,41.84662058],[12.4730951,41.84679681],[12.47310144,41.84680154],[12.47318586,41.84687544],[12.47322886,41.84693043],[12.47332442,41.84702709],[12.47333309,41.84703629],[12.47343431,41.84714208],[12.4735527,41.84727076],[12.47361269,41.84735314],[12.47368737,41.84744484],[12.47380558,41.84765457],[12.47389757,41.84781233],[12.47399175,41.84797387],[12.47415792,41.8485719],[12.47418818,41.84872116],[12.47421091,41.84876899],[12.47422711,41.84880306],[12.47440961,41.8489156],[12.47454396,41.8489879],[12.47466057,41.84902099],[12.47477923,41.84904728],[12.47483975,41.84906069],[12.47498146,41.84932324],[12.47502451,41.84940802],[12.4751547,41.84983716],[12.47516609,41.84988314],[12.47522834,41.85013429],[12.47525298,41.85022417],[12.47525684,41.85023486],[12.47526048,41.85024496],[12.47526742,41.85025223],[12.47530501,41.85036211],[12.47534578,41.85043415],[12.47537627,41.85047976],[12.4754321,41.85055466],[12.47546809,41.85059073],[12.47548494,41.85060761],[12.47553945,41.85067652],[12.47560716,41.85076186],[12.47573292,41.85091457],[12.47575644,41.85094427],[12.47590448,41.85112475],[12.47595171,41.85118271],[12.47598277,41.85121995],[12.47611748,41.85138114],[12.4761526,41.85142514],[12.47622701,41.85151486],[12.47627527,41.85157418],[12.47631822,41.85162439],[12.47638403,41.85170848],[12.47642097,41.85175568],[12.47642808,41.85176477],[12.47644848,41.85178651],[12.47655526,41.85177662],[12.47669114,41.85176301],[12.47673967,41.85175816],[12.47679396,41.85174006],[12.47681523,41.85173298],[12.47681534,41.85173294],[12.47688765,41.85170884],[12.47689472,41.85171757],[12.47700229,41.85185032],[12.47710639,41.85199773],[12.47719139,41.85212183],[12.47719155,41.85212207],[12.4772378,41.85219301],[12.47724917,41.85221046],[12.47726649,41.85223703],[12.47730959,41.85231452],[12.47736529,41.85240773],[12.47741809,41.85251392],[12.47750139,41.85269535],[12.47751189,41.85271822],[12.47760539,41.85296633],[12.47766399,41.85318163],[12.47768629,41.85327796],[12.47771709,41.85341103],[12.47775519,41.85364983],[12.47777111,41.85374778],[12.47780149,41.85393463],[12.47785299,41.85429823],[12.4778629,41.85436672],[12.47793683,41.85487773],[12.47794838,41.85495763],[12.47796763,41.85508348],[12.47800919,41.85535519],[12.47809638,41.85592523],[12.47811674,41.85606395],[12.47817063,41.8564312],[12.47817618,41.85646903],[12.47819768,41.85658871],[12.4782068,41.85663945],[12.4782143,41.85668118],[12.47821843,41.85670416],[12.47823028,41.85677013],[12.47824685,41.85685905],[12.47822063,41.85686162],[12.47820888,41.8568625],[12.47815926,41.85686625],[12.47809402,41.85687117],[12.47786068,41.85689576],[12.47764912,41.85691786],[12.47746284,41.85693346],[12.47741236,41.85693769],[12.47732207,41.85694657],[12.47732875,41.85701204],[12.47734083,41.85703604],[12.47735068,41.85705508],[12.4773555,41.85706428],[12.47740322,41.85714915],[12.47742733,41.85719203],[12.47743069,41.85719798],[12.47748656,41.85729678],[12.47751653,41.85734979],[12.47755614,41.85741793],[12.47757427,41.85745003],[12.47759455,41.85748388],[12.47764428,41.85756686],[12.47768065,41.85762754],[12.47769106,41.85764288],[12.47769454,41.85764801],[12.47770584,41.85767302],[12.47772871,41.85772873],[12.4777413,41.85775791],[12.47776617,41.85783924],[12.47779665,41.85794339],[12.47785385,41.85815223],[12.47791954,41.85838412],[12.4779353,41.85844712],[12.47794079,41.85846904],[12.47795265,41.85851643],[12.47795944,41.8585436],[12.47797452,41.85860382],[12.47801501,41.85876554],[12.47806505,41.8589771],[12.47807418,41.8590157],[12.47811454,41.85917233],[12.47812568,41.85921496],[12.47819901,41.85949566],[12.47821265,41.85954907],[12.4782349,41.85963615],[12.47824962,41.85969252],[12.47828886,41.85984937],[12.47829314,41.85986648],[12.47830028,41.85990122],[12.4784173,41.85994965],[12.47848183,41.85997643],[12.47853696,41.85999931],[12.47858917,41.86002097],[12.47869697,41.8601134],[12.47881327,41.86021952],[12.47889186,41.86028879],[12.47898257,41.86036521],[12.47898515,41.86036738],[12.47899081,41.86037166],[12.47904657,41.86041376],[12.47922642,41.86051227],[12.47933578,41.86057586],[12.47934714,41.86058247],[12.4794799,41.86065292],[12.47958628,41.86070479],[12.47963726,41.86071041],[12.47966569,41.86070322],[12.47983985,41.86065917],[12.47986127,41.86069923],[12.47986818,41.860712],[12.47991447,41.86079744],[12.47994595,41.86085555],[12.48005922,41.86106465],[12.48006665,41.86107837],[12.48017172,41.8612723],[12.48023439,41.86138799],[12.48031756,41.86154151],[12.480318,41.86154233],[12.48039017,41.86167553],[12.48044101,41.86177298],[12.48046859,41.86182584],[12.48050526,41.86189613],[12.48056837,41.86200957],[12.48062386,41.86210934],[12.48064182,41.86214226],[12.48071201,41.862271],[12.48072177,41.86228889],[12.48082017,41.86246933],[12.48083923,41.86250429],[12.48088206,41.86258284],[12.48093516,41.86267244],[12.48098596,41.86276594],[12.48109666,41.86296764],[12.48127266,41.86332554],[12.48129096,41.86336274],[12.4813805,41.86355305],[12.48157409,41.86396448],[12.48166446,41.86415654],[12.48186177,41.86451574],[12.48226162,41.86524364],[12.48251273,41.86570075],[12.48252865,41.86572974],[12.48261815,41.86589244],[12.48264137,41.86593449],[12.48270085,41.86604224],[12.48271976,41.86607641],[12.48286865,41.86634554],[12.4831195,41.8668206],[12.48319355,41.86696084],[12.48328368,41.86712469],[12.48331148,41.86717522],[12.48333201,41.86721254],[12.48336638,41.86727502],[12.4834664,41.86745684],[12.48348563,41.86749178],[12.48352394,41.86756144],[12.48361374,41.86773724],[12.48371214,41.86792294],[12.48378744,41.86808934],[12.48382868,41.86820179],[12.48384894,41.86825704],[12.48388704,41.86840254],[12.48391394,41.86852904],[12.48393574,41.86863804],[12.48395114,41.86874435],[12.48395263,41.86875378],[12.48398664,41.86896865],[12.48401904,41.86920265],[12.48404034,41.86936615],[12.48406224,41.86954334],[12.48407366,41.86966498],[12.48407774,41.86970844],[12.48407594,41.86986304],[12.48407594,41.87000755],[12.48407594,41.87004055],[12.48407404,41.87006307],[12.48406455,41.87017599],[12.48406054,41.87022365],[12.48400604,41.87058595],[12.48397616,41.87069485],[12.48394253,41.87081744],[12.48389474,41.87099165],[12.483828,41.87117147],[12.48380993,41.87122015],[12.48378477,41.87127753],[12.48377766,41.87129375],[12.48373513,41.87139075],[12.48367448,41.87151394],[12.48360383,41.87165745],[12.48360011,41.87166443],[12.4835963,41.87167158],[12.48353125,41.8717936],[12.48350003,41.87185215],[12.48343029,41.87198408],[12.48340409,41.87203365],[12.48336421,41.87210907],[12.48333771,41.8721592],[12.48330883,41.87221384],[12.48327576,41.87227639],[12.48323585,41.87235188],[12.48323397,41.87235545],[12.4831989,41.87242178],[12.4830964,41.87261566],[12.48308487,41.87263748],[12.48307585,41.87265454],[12.48314303,41.87263915],[12.48318618,41.87262975],[12.4832042,41.87262582],[12.48331373,41.87260195],[12.48333815,41.87259619],[12.48336364,41.87259019],[12.48341612,41.87257782],[12.48347623,41.87256365],[12.48367873,41.87252185],[12.48383695,41.87249793],[12.48447523,41.87240141],[12.48487373,41.87234115],[12.48496191,41.87232782],[12.4850622,41.87231265],[12.48556473,41.87223666],[12.48556818,41.87223614],[12.48566773,41.87222108],[12.48579061,41.8722025],[12.48614704,41.8721486],[12.48649233,41.87209638],[12.48685759,41.87204114],[12.48724829,41.87198205],[12.4877322,41.87190886],[12.48790897,41.87188213],[12.48834511,41.87181616],[12.48847201,41.87179697],[12.4884878,41.87179458],[12.48879647,41.87174789],[12.48919672,41.87168735],[12.48920233,41.87168653],[12.48949423,41.87164375],[12.48980802,41.87159777],[12.48987531,41.8715879],[12.49091408,41.87143566],[12.49129345,41.87138006],[12.49129349,41.87138005],[12.49129354,41.87138004],[12.49166801,41.87132516],[12.49188889,41.87129616],[12.49194057,41.87128938],[12.49195981,41.87128685],[12.49220191,41.87125165],[12.49236031,41.87123303],[12.49241031,41.87122716],[12.49254428,41.87121824],[12.49259971,41.87121456],[12.49273261,41.87120426],[12.49284031,41.87119666],[12.49326651,41.87116696],[12.49335954,41.87116086],[12.49398051,41.87112016],[12.49429541,41.87107466],[12.49446491,41.87104756],[12.49465761,41.87102366],[12.49474701,41.87100846],[12.49490591,41.87098526],[12.49505761,41.87096476],[12.49520591,41.87094626],[12.49539071,41.87092566],[12.49553371,41.87091176],[12.49557604,41.87090763],[12.49571711,41.87089386],[12.49586081,41.87088326],[12.49593321,41.87087566],[12.49608168,41.87086381],[12.49607913,41.8708346],[12.49607818,41.87082364],[12.49607799,41.87082141],[12.4960772,41.87081213],[12.49607718,41.87081197],[12.49637605,41.87079621],[12.49635344,41.87047421],[12.49633014,41.8701892],[12.4963068,41.86980697],[12.49628374,41.86956486],[12.4962561,41.86924401],[12.49624064,41.8690521],[12.49622831,41.86882881],[12.49622938,41.86865441],[12.49623584,41.86844011],[12.49626451,41.86809762],[12.49630173,41.86778105],[12.4963529,41.86749909],[12.49638388,41.86734251],[12.49646748,41.86706269],[12.49669458,41.86629134],[12.49689928,41.86560386],[12.49710858,41.86489646],[12.49732298,41.86415628],[12.49750588,41.86353694],[12.49769512,41.86290201],[12.49788716,41.86224427],[12.49808302,41.86158661],[12.49819238,41.86123444]]]},"id":"rome::garbatella"},{"type":"Feature","properties":{"id":"rome::monti","name":"Monti","cityId":"rome","city":"Rome","country":"Italy","parentName":null,"displayName":"Monti, Municipio Roma I, Roma, Roma Capitale, Lazio, 00184, Italia","source":{"provider":"Nominatim / OpenStreetMap","datasetUrl":"https://nominatim.openstreetmap.org/search","query":"Monti, Rome, Italy"}},"geometry":{"type":"Polygon","coordinates":[[[12.4834056,41.8954764],[12.4836053,41.8953991],[12.4836322,41.895377],[12.4837173,41.8953082],[12.4838895,41.8951473],[12.483978,41.8950334],[12.4840385,41.8949915],[12.484127,41.8949372],[12.484334,41.8948303],[12.4847458,41.8946037],[12.4856963,41.8940826],[12.4860481,41.8938833],[12.4863159,41.8937336],[12.4869986,41.8933961],[12.4873401,41.8931922],[12.4874295,41.8931392],[12.4874985,41.8930986],[12.4875745,41.893054],[12.4876091,41.8930349],[12.4877572,41.8929528],[12.4880461,41.8927866],[12.488382,41.8926083],[12.4884578,41.8925683],[12.4885303,41.8925266],[12.4889075,41.8922596],[12.4890135,41.8921946],[12.4892558,41.8920402],[12.4894918,41.8919061],[12.4896696,41.8918195],[12.489921,41.8917006],[12.4902175,41.8915713],[12.4905612,41.8914231],[12.4908612,41.8913024],[12.4910194,41.8912723],[12.4911299,41.8912529],[12.4912497,41.8912353],[12.4914751,41.8912075],[12.4917054,41.8911836],[12.4918077,41.8911725],[12.4919183,41.8911616],[12.4921175,41.8911377],[12.4922181,41.891127],[12.4922668,41.8911205],[12.4923168,41.8911152],[12.4923786,41.891107],[12.4924615,41.8910952],[12.4925027,41.8910896],[12.4925718,41.8910773],[12.4926562,41.8910594],[12.4927258,41.8910414],[12.4928317,41.8910106],[12.4928762,41.890996],[12.4929299,41.8909782],[12.4932522,41.89087],[12.4935174,41.8907387],[12.4937448,41.8905882],[12.4937801,41.8905624],[12.4938187,41.8905295],[12.4938524,41.8904937],[12.4938802,41.8904613],[12.4938958,41.890438],[12.4939145,41.8904063],[12.4939279,41.8903758],[12.4939358,41.8903524],[12.4939431,41.8903226],[12.494228,41.8901468],[12.4943666,41.8900999],[12.4943887,41.8900928],[12.4954513,41.8897518],[12.4967937,41.8893311],[12.4969706,41.8892792],[12.4974766,41.8891252],[12.4979561,41.888972],[12.498068,41.8889392],[12.4981739,41.888909],[12.4997082,41.8884378],[12.4997731,41.8884179],[12.4998977,41.8883791],[12.5008879,41.8880668],[12.5022771,41.8876286],[12.5027411,41.8874903],[12.5027165,41.887442],[12.5026839,41.8873692],[12.5026624,41.8873173],[12.5026624,41.8872783],[12.5025999,41.8872752],[12.5025489,41.8872717],[12.5025065,41.8872688],[12.5024736,41.887266],[12.5024305,41.8872616],[12.5023595,41.8872532],[12.5022917,41.8872449],[12.5022093,41.8872166],[12.5021296,41.8871909],[12.5020613,41.8871731],[12.5018291,41.8871223],[12.5015449,41.8870601],[12.5013598,41.8870176],[12.5011974,41.8869774],[12.5007929,41.8868748],[12.5007365,41.8868589],[12.5006921,41.8868458],[12.5006486,41.886833],[12.5006005,41.8868185],[12.500549,41.8868017],[12.5003303,41.8867302],[12.4999135,41.8865986],[12.4995894,41.8864944],[12.4995584,41.8864849],[12.4994308,41.8864408],[12.4993063,41.8863957],[12.4992027,41.8863558],[12.4991261,41.886322],[12.4990691,41.8862965],[12.4989944,41.8862622],[12.4989339,41.886231],[12.4988742,41.8862013],[12.4988231,41.8861741],[12.4986641,41.8860906],[12.4986249,41.8860688],[12.4984227,41.8859554],[12.4983948,41.8859407],[12.4983695,41.8859286],[12.4983083,41.8858993],[12.4982364,41.8858672],[12.4981664,41.8858395],[12.4980956,41.885813],[12.4980378,41.885791],[12.4978656,41.8857279],[12.4977812,41.8856971],[12.4976995,41.885669],[12.4976128,41.8856407],[12.4975226,41.8856125],[12.4969317,41.8854321],[12.4966632,41.8853549],[12.4965172,41.885317],[12.496369,41.8852911],[12.4961954,41.8852746],[12.4959553,41.8852838],[12.4958995,41.8852859],[12.4958245,41.8852888],[12.4957761,41.8852907],[12.4957414,41.8852943],[12.4957077,41.885299],[12.4956805,41.8853039],[12.4956102,41.8853172],[12.4956574,41.8852064],[12.4956743,41.88517],[12.4956913,41.8851356],[12.4957071,41.8851079],[12.4957229,41.8850824],[12.4957398,41.8850604],[12.4957588,41.8850368],[12.4957802,41.8850133],[12.4958037,41.8849882],[12.4958283,41.884965],[12.4958518,41.8849412],[12.4958646,41.8849268],[12.4958789,41.8849085],[12.4958956,41.8848841],[12.4959117,41.8848582],[12.4959277,41.8848282],[12.4959431,41.8847985],[12.4959604,41.8847604],[12.495977,41.8847224],[12.4960498,41.8845232],[12.4960602,41.8844974],[12.4962102,41.8841265],[12.4963814,41.8837048],[12.4964089,41.8836423],[12.4964344,41.8835898],[12.4964598,41.8835445],[12.4964885,41.8835001],[12.496515,41.8834612],[12.4965487,41.883419],[12.4965803,41.8833825],[12.496614,41.8833495],[12.4966519,41.8833166],[12.4966943,41.8832836],[12.496741,41.8832507],[12.4969757,41.8830954],[12.4971813,41.8829696],[12.4973613,41.8828548],[12.4976394,41.8826829],[12.4977473,41.8825896],[12.4977822,41.8825599],[12.4979151,41.8824784],[12.4980196,41.8824142],[12.4982156,41.8823079],[12.4983139,41.882224],[12.4983897,41.8821682],[12.4984779,41.8821193],[12.4985762,41.8821185],[12.4985968,41.8821122],[12.4986178,41.882108],[12.4986418,41.8821062],[12.4986719,41.8821046],[12.4986988,41.8821054],[12.4986978,41.882116],[12.4986936,41.8821585],[12.4986934,41.8821606],[12.4986894,41.8821788],[12.4986776,41.8822327],[12.4986716,41.8822602],[12.4986409,41.8823205],[12.4986395,41.8823233],[12.4986343,41.8823518],[12.498634,41.8823534],[12.4986506,41.8823834],[12.4986521,41.8823861],[12.4986752,41.8824177],[12.4986768,41.8824198],[12.4987017,41.8824539],[12.4987292,41.8824624],[12.4987204,41.8824818],[12.4987426,41.8824914],[12.498956,41.882503],[12.4989709,41.8825038],[12.4991727,41.8825255],[12.4991973,41.8824844],[12.4992724,41.8825043],[12.4992625,41.8825318],[12.4995701,41.8826302],[12.4996009,41.8825932],[12.4997096,41.8826331],[12.4996835,41.8826697],[12.4998586,41.8827328],[12.4999814,41.882777],[12.5000046,41.882743],[12.5001166,41.8827914],[12.5000966,41.8828186],[12.5003829,41.8829447],[12.5006983,41.8830687],[12.5009641,41.8831641],[12.5011995,41.8832295],[12.5012183,41.8831803],[12.5013068,41.8831943],[12.5012948,41.8832442],[12.5014468,41.8832681],[12.5016819,41.8832923],[12.5016917,41.8832612],[12.5017762,41.8832692],[12.5017682,41.8833011],[12.5020917,41.883329],[12.5020994,41.8832782],[12.502192,41.8832881],[12.502181,41.8833367],[12.5026519,41.8831989],[12.5030855,41.8832071],[12.5031849,41.8832082],[12.5033015,41.883211],[12.5033904,41.8832388],[12.5034158,41.8832479],[12.5035244,41.8833253],[12.5036086,41.8833633],[12.5037475,41.8834511],[12.5042503,41.8838068],[12.5042219,41.8838261],[12.5046076,41.8840217],[12.5046195,41.8839935],[12.5047378,41.8840411],[12.5047141,41.8841027],[12.5050786,41.8841856],[12.5051922,41.8842208],[12.505204,41.8841961],[12.5060909,41.8844957],[12.5056421,41.8848542],[12.5058273,41.8849075],[12.5059059,41.8849286],[12.5060511,41.8849525],[12.50625,41.8849836],[12.5066339,41.8850404],[12.5070151,41.8851354],[12.507022,41.8851148],[12.5070507,41.8851114],[12.5070797,41.8851211],[12.5077371,41.8853554],[12.5079643,41.8854364],[12.5083692,41.8855808],[12.5084211,41.8856001],[12.5084469,41.8855597],[12.50851,41.8855824],[12.5085197,41.8855745],[12.5085331,41.8855702],[12.5085512,41.8855682],[12.5085698,41.8855701],[12.5085807,41.8855763],[12.5085876,41.8855835],[12.5085941,41.8855932],[12.5085958,41.8856044],[12.5085893,41.885622],[12.5085781,41.8856382],[12.5086868,41.8856777],[12.5087879,41.8857144],[12.5088067,41.8856889],[12.5088167,41.8856808],[12.5088275,41.8856755],[12.5088517,41.8856726],[12.5088707,41.8856774],[12.5088877,41.8856877],[12.508895,41.8856994],[12.5088952,41.8857109],[12.508891,41.8857195],[12.5089415,41.8857377],[12.5089224,41.8857657],[12.5089517,41.8857752],[12.5089807,41.8857846],[12.5090399,41.885803],[12.5090595,41.8858098],[12.5091062,41.8858253],[12.5091296,41.8858332],[12.5091528,41.8858404],[12.5092046,41.8858572],[12.5092275,41.8858648],[12.5092475,41.8858711],[12.5093172,41.8858937],[12.5093369,41.8859028],[12.509366,41.8859123],[12.5094233,41.8859309],[12.5094471,41.8859382],[12.5094242,41.8859745],[12.5094022,41.8859912],[12.5093818,41.8860039],[12.5093565,41.8860186],[12.5092534,41.8860769],[12.5092295,41.8860923],[12.5089004,41.8863302],[12.5088418,41.8863753],[12.5087907,41.8864122],[12.5087368,41.8864751],[12.5086765,41.8864612],[12.5086178,41.8864507],[12.5085809,41.8864453],[12.5085439,41.8864411],[12.50849,41.8864367],[12.5084326,41.8864355],[12.5083875,41.8864361],[12.5083358,41.8864378],[12.5082681,41.8864425],[12.5081905,41.886451],[12.5081193,41.8864597],[12.508073,41.8864666],[12.5080377,41.8864722],[12.5080039,41.8864784],[12.5079696,41.8864859],[12.5079413,41.8864922],[12.5079067,41.8865007],[12.5078632,41.8865115],[12.5077886,41.8865312],[12.5075089,41.88662],[12.5068256,41.8868412],[12.5063828,41.8869941],[12.5063335,41.8870105],[12.5063207,41.887015],[12.5063018,41.8870216],[12.5062703,41.8870305],[12.5061093,41.8870787],[12.5060642,41.8870912],[12.5060107,41.8871013],[12.5059277,41.8871132],[12.505845,41.8871215],[12.5057394,41.8871258],[12.5056185,41.8871219],[12.5055166,41.8871121],[12.5054192,41.8870982],[12.5051894,41.8870584],[12.5049973,41.8870267],[12.5049514,41.8870192],[12.5046256,41.8870807],[12.5046221,41.8871038],[12.5046169,41.8871296],[12.5046116,41.8871527],[12.5046011,41.8871824],[12.5045642,41.8872666],[12.5045575,41.8872856],[12.5042034,41.8879517],[12.5041501,41.8880473],[12.5037719,41.88873],[12.5035665,41.8890949],[12.5034496,41.8893026],[12.5034362,41.8893264],[12.5034196,41.8893559],[12.5034005,41.8893898],[12.5033933,41.8894027],[12.5033862,41.8894152],[12.5033547,41.8894686],[12.5033262,41.8895213],[12.5031313,41.8898618],[12.502931,41.890207],[12.5028686,41.890319],[12.5023906,41.8911934],[12.5022221,41.8914815],[12.5021739,41.8915639],[12.5020788,41.8917317],[12.5015563,41.8926537],[12.5014636,41.8928205],[12.5011126,41.8934486],[12.5010694,41.8935265],[12.5010015,41.8936458],[12.5007298,41.8941271],[12.5004925,41.89456],[12.5003337,41.8948411],[12.5003152,41.8948739],[12.5002585,41.8949782],[12.5002442,41.8950046],[12.5001929,41.8950907],[12.5001818,41.89511],[12.5000857,41.8952794],[12.5000565,41.8953312],[12.4998594,41.895683],[12.4997554,41.8958658],[12.499735,41.8959024],[12.4997115,41.8959461],[12.4993376,41.8966119],[12.4993093,41.8966627],[12.4992752,41.8967238],[12.4992538,41.896846],[12.499229,41.8969678],[12.499328,41.8972675],[12.4994098,41.897369],[12.4994252,41.8976331],[12.4994301,41.8977043],[12.4993419,41.897748],[12.4992641,41.8977877],[12.4984765,41.8981859],[12.4983749,41.8982363],[12.4981908,41.8983265],[12.4976425,41.8985733],[12.4976132,41.8985878],[12.4975793,41.8986052],[12.4975529,41.8986216],[12.4975295,41.898638],[12.4974872,41.8986723],[12.4973452,41.8985847],[12.4973176,41.8985655],[12.4972824,41.8985403],[12.4972513,41.8985159],[12.4972218,41.8984919],[12.4971466,41.8985187],[12.4964896,41.8987803],[12.4964226,41.8988033],[12.4963506,41.8988243],[12.4963051,41.8988497],[12.4962907,41.8988593],[12.4962542,41.8988829],[12.4962245,41.898897],[12.496118,41.8989588],[12.4959608,41.8990358],[12.4959191,41.8990579],[12.4958517,41.8990937],[12.4957634,41.8991404],[12.4952797,41.8994157],[12.4949114,41.8996224],[12.4948262,41.8996708],[12.4946688,41.8997593],[12.4945548,41.8998229],[12.4941396,41.900057],[12.4940662,41.9001005],[12.4939276,41.9001763],[12.4932328,41.9005697],[12.4930978,41.9006435],[12.4930093,41.900691],[12.4929779,41.9007088],[12.4923521,41.9010613],[12.490839,41.9019109],[12.490739,41.9019688],[12.4906758,41.9019253],[12.4902558,41.9016468],[12.4901571,41.9015776],[12.4897559,41.9012976],[12.489138,41.9008659],[12.489002,41.900769],[12.4886298,41.900504],[12.4884869,41.9004022],[12.4879408,41.9000046],[12.487927,41.8999945],[12.4873392,41.8995664],[12.4872875,41.8995295],[12.4872431,41.8994963],[12.4871628,41.8994316],[12.4871091,41.8993843],[12.4870773,41.8993508],[12.4870237,41.8992815],[12.486981,41.8992211],[12.486943,41.8991587],[12.4868983,41.8990782],[12.4868296,41.8989478],[12.4868024,41.8988957],[12.4867846,41.8988476],[12.486779,41.8988109],[12.4867774,41.8987825],[12.4867659,41.8984894],[12.486766,41.8984492],[12.4867669,41.8980055],[12.4867669,41.8979865],[12.486767,41.897961],[12.4867708,41.8979103],[12.4867778,41.8978579],[12.4867892,41.8978016],[12.4868037,41.8977437],[12.4868109,41.8977228],[12.4868717,41.897559],[12.4868984,41.8974866],[12.486909,41.897452],[12.4869232,41.8973952],[12.4869382,41.8973172],[12.4869474,41.8972497],[12.4869658,41.8970826],[12.4870042,41.8967583],[12.4870163,41.8966625],[12.4870394,41.8965806],[12.4870482,41.8965435],[12.4870524,41.8965098],[12.4870504,41.8964616],[12.487041,41.8964252],[12.4870323,41.8963934],[12.4870226,41.8963682],[12.4870114,41.8963459],[12.4869917,41.8963167],[12.4869633,41.8962851],[12.4869328,41.8962672],[12.4869022,41.8962584],[12.4868699,41.8962507],[12.4868295,41.8962464],[12.4867946,41.8962457],[12.4867527,41.8962466],[12.4866718,41.8962505],[12.4862534,41.8962715],[12.4860371,41.8962516],[12.4856444,41.8962187],[12.4856191,41.8962204],[12.4855938,41.8962245],[12.4855707,41.8962301],[12.4854369,41.8961331],[12.4852174,41.8960909],[12.4849314,41.8960217],[12.4848884,41.8960182],[12.4848436,41.8960195],[12.4848106,41.8960292],[12.4847814,41.8960302],[12.4847502,41.8960236],[12.4846973,41.8959903],[12.4846724,41.8959768],[12.4846268,41.8959589],[12.484576,41.8959488],[12.4845117,41.8959502],[12.484455,41.8959605],[12.4844022,41.8959822],[12.4843451,41.8960046],[12.4842732,41.8960128],[12.4841963,41.8960055],[12.4841299,41.8959873],[12.4840606,41.89595],[12.4840008,41.8959105],[12.483951,41.8958823],[12.4837352,41.8957777],[12.4836781,41.8957437],[12.4836306,41.8957],[12.4836049,41.8956565],[12.4835663,41.8956129],[12.4834056,41.8954764]]]},"id":"rome::monti"},{"type":"Feature","properties":{"id":"rome::prati","name":"Prati","cityId":"rome","city":"Rome","country":"Italy","parentName":null,"displayName":"Prati","source":{"sourceId":"rome-official-urban-zones","provider":"Roma Capitale Geoportale","datasetUrl":"https://geoportale.comune.roma.it/geoserver/ows?service=WFS&version=2.0.0&request=GetFeature&typeNames=DIPDIT:ZoneUrbanistiche&outputFormat=json&srsName=EPSG:4326","datasetId":"DIPDIT:ZoneUrbanistiche","format":"wfs-geojson","matchField":"DENOMINAZIONE","labels":["Prati"]}},"geometry":{"type":"Polygon","coordinates":[[[12.46478001,41.9014082],[12.4645643,41.90129987],[12.4643231,41.90115045],[12.4643084,41.90114112],[12.46418025,41.90102948],[12.46410157,41.90096094],[12.46382427,41.90065762],[12.46362031,41.90032891],[12.46356114,41.90015737],[12.4635311,41.90007028],[12.46349358,41.89995238],[12.46349343,41.89995112],[12.46349276,41.89994528],[12.46347113,41.89975826],[12.46328764,41.8997497],[12.46311018,41.89974128],[12.46309255,41.89974055],[12.46287249,41.89973152],[12.46278304,41.89972592],[12.46265005,41.89971759],[12.46265202,41.89972629],[12.46265517,41.89974022],[12.46265535,41.89974108],[12.4626744,41.8998367],[12.46268222,41.89987596],[12.46268939,41.89991192],[12.46270294,41.89997993],[12.46267765,41.89996922],[12.46262337,41.89994623],[12.46254586,41.89991341],[12.46244792,41.89987522],[12.46221927,41.89986566],[12.46206908,41.89985334],[12.46197648,41.89984872],[12.46190668,41.89984524],[12.46187463,41.89981752],[12.46185747,41.89981703],[12.46164643,41.89980436],[12.46092088,41.89976623],[12.46063517,41.89975488],[12.46052062,41.90003557],[12.46048894,41.90002699],[12.46014905,41.89993496],[12.45971284,41.89982885],[12.45940937,41.89975027],[12.45933072,41.8997299],[12.4593303,41.89973098],[12.45932618,41.89972985],[12.4592553,41.89971037],[12.45936658,41.89948826],[12.45939617,41.89942878],[12.45915258,41.89931085],[12.45859437,41.89901906],[12.45828471,41.89885081],[12.4582192,41.89887539],[12.45821883,41.89887553],[12.45804741,41.89893985],[12.45776605,41.8990454],[12.45752273,41.8991517],[12.45714529,41.89931659],[12.45713989,41.8993532],[12.45711965,41.89950167],[12.45702788,41.8999128],[12.45702131,41.89999609],[12.45713933,41.89999944],[12.45717809,41.90012692],[12.45719223,41.90017343],[12.45720958,41.90023045],[12.45715698,41.90024303],[12.45696615,41.90028868],[12.45696485,41.90033129],[12.45696167,41.90039366],[12.45690223,41.90039327],[12.45688443,41.90039242],[12.45671246,41.90038708],[12.4566908,41.90038722],[12.45661484,41.90038898],[12.45660505,41.90038921],[12.45660506,41.90038959],[12.45660507,41.90039093],[12.45660536,41.90043943],[12.45660886,41.90071496],[12.45661016,41.90081773],[12.45660286,41.90097416],[12.45660277,41.90097596],[12.45659556,41.90113033],[12.45659706,41.90114603],[12.45659872,41.90115084],[12.45660681,41.90116776],[12.45661726,41.90118033],[12.45664556,41.90118983],[12.45666946,41.90119433],[12.45669396,41.90119383],[12.45673247,41.90118583],[12.45679436,41.90117393],[12.45687753,41.90116579],[12.45695576,41.90115813],[12.45698116,41.90115632],[12.45702166,41.90115343],[12.45711786,41.90114673],[12.45715016,41.90114483],[12.45728946,41.90113983],[12.45736646,41.90114333],[12.45739539,41.90114652],[12.45749156,41.90115713],[12.45756474,41.90116963],[12.45758667,41.90117697],[12.45761507,41.90118662],[12.45763784,41.90119436],[12.45768662,41.90121092],[12.45776214,41.90123658],[12.45777103,41.9012396],[12.45792776,41.90131511],[12.45804498,41.90139876],[12.45814715,41.90148207],[12.45828668,41.90161124],[12.4582921,41.90162311],[12.45836155,41.901775],[12.45841642,41.9019113],[12.4584488,41.90200658],[12.45847552,41.90209272],[12.45852329,41.90225588],[12.45846321,41.90240314],[12.4584033,41.9025459],[12.45839887,41.90255584],[12.45833382,41.90270196],[12.45829996,41.90279577],[12.4582723,41.90288522],[12.45819629,41.90297809],[12.45817091,41.90301166],[12.45813268,41.90306223],[12.4581116,41.90308918],[12.45801839,41.90320829],[12.45779012,41.90322665],[12.45773107,41.90323236],[12.45771017,41.90324453],[12.45769323,41.90326977],[12.45767664,41.9033075],[12.45767698,41.90335376],[12.45767468,41.90351587],[12.45767543,41.90352435],[12.45768721,41.90365574],[12.45769372,41.90379547],[12.45770801,41.90396689],[12.45770845,41.90397556],[12.45771646,41.90413368],[12.45772437,41.904222],[12.45772899,41.90427354],[12.45773834,41.90441784],[12.45773794,41.9044278],[12.45773614,41.90447311],[12.45773494,41.90450332],[12.45774005,41.90460249],[12.45775046,41.90471979],[12.4577511,41.90472922],[12.45775999,41.90485959],[12.45776137,41.90497669],[12.4577753,41.90515712],[12.4577834,41.9053329],[12.45778901,41.90549513],[12.45778776,41.90552662],[12.45778752,41.90553268],[12.45778294,41.90564809],[12.45778075,41.90576468],[12.45778047,41.90577986],[12.45778024,41.90579212],[12.45765763,41.90582281],[12.4576419,41.90582674],[12.45764193,41.90582732],[12.45750039,41.90586494],[12.45725455,41.90592972],[12.4569406,41.90600929],[12.45686292,41.90602898],[12.45678702,41.90604698],[12.45642576,41.90613262],[12.45603763,41.90622653],[12.45573056,41.90630128],[12.45569932,41.90630889],[12.45564433,41.90654585],[12.45558494,41.90680754],[12.45557717,41.9068418],[12.45552324,41.90706552],[12.45551765,41.90708875],[12.45549723,41.90717346],[12.45543565,41.90743161],[12.45559796,41.9074737],[12.45558771,41.9075002],[12.45557758,41.90752639],[12.45548657,41.90792062],[12.45548364,41.90793555],[12.45532793,41.9087276],[12.45532401,41.90874144],[12.45528235,41.90888869],[12.4552272,41.90906307],[12.45518764,41.9092243],[12.45513922,41.90938082],[12.45511457,41.90947033],[12.4550869,41.90955977],[12.45508177,41.90957424],[12.45503938,41.9096938],[12.45499204,41.90982333],[12.4549633,41.90993976],[12.45493775,41.91005177],[12.45490404,41.91021762],[12.45480392,41.91030996],[12.45472542,41.91038927],[12.45485401,41.91041463],[12.45495815,41.91043222],[12.45497676,41.91043537],[12.4551895,41.9104671],[12.45534183,41.910502],[12.45549097,41.91054133],[12.45572123,41.91058696],[12.45594548,41.91063246],[12.45614244,41.91068186],[12.45631851,41.91072629],[12.45652433,41.91078038],[12.45674804,41.91083937],[12.45692052,41.91088324],[12.45694199,41.9108887],[12.45707324,41.91092313],[12.45718342,41.91095709],[12.45738605,41.91101562],[12.45756211,41.91106004],[12.45771143,41.91109487],[12.45781881,41.91112038],[12.45792045,41.91114453],[12.45803824,41.91117029],[12.4580579,41.91117459],[12.45819819,41.91120922],[12.45830352,41.91123807],[12.45832342,41.91124352],[12.4585381,41.9113023],[12.45874675,41.91136096],[12.45889891,41.91140035],[12.45904522,41.91143511],[12.45926008,41.9114894],[12.45947795,41.91154376],[12.45952578,41.91155382],[12.4596542,41.91158368],[12.45982725,41.91162804],[12.46004814,41.91168246],[12.46027221,41.91173245],[12.46049894,41.9117915],[12.46072886,41.91184612],[12.46093892,41.91189724],[12.46095276,41.91190061],[12.46115859,41.91195469],[12.46132048,41.91199902],[12.46133749,41.91200368],[12.46154916,41.9120624],[12.46169264,41.91209259],[12.46182709,41.91212258],[12.46190375,41.9121398],[12.46202725,41.91216753],[12.46226001,41.91222672],[12.46247487,41.912281],[12.46269275,41.91233535],[12.46282545,41.91237122],[12.46291045,41.9123942],[12.46299755,41.91241516],[12.46310162,41.91244021],[12.46311646,41.91244378],[12.46332247,41.91249336],[12.46352246,41.91254281],[12.46373751,41.9125926],[12.46396123,41.91265158],[12.46418531,41.91270156],[12.46438854,41.91275356],[12.46439717,41.91275577],[12.4646092,41.91280548],[12.46481823,41.91285513],[12.4650331,41.91290941],[12.46520285,41.91294671],[12.46521538,41.91294946],[12.46535266,41.91298401],[12.46547506,41.91301373],[12.46568391,41.91306788],[12.46587203,41.91311256],[12.46591083,41.91312242],[12.46606902,41.91316194],[12.46620347,41.91319192],[12.46641231,41.91324607],[12.46663055,41.91329141],[12.46671483,41.91331008],[12.46683374,41.91333642],[12.46685163,41.91334132],[12.46703993,41.9133815],[12.46722368,41.91342016],[12.46723125,41.91342175],[12.46724311,41.91342651],[12.46744612,41.91347602],[12.46765533,41.91352116],[12.46786719,41.91357537],[12.46807622,41.91362501],[12.46825531,41.91366949],[12.46843594,41.91371414],[12.46845531,41.91371893],[12.46867621,41.91377334],[12.46879457,41.91380108],[12.46888825,41.91382304],[12.46901951,41.91385746],[12.46909785,41.91387394],[12.46929305,41.91394354],[12.46936329,41.91397664],[12.46943757,41.91401164],[12.46950295,41.91404244],[12.46954895,41.91407864],[12.46970035,41.91421504],[12.46970376,41.91421834],[12.46970096,41.91423271],[12.46978669,41.91425713],[12.46983807,41.91427176],[12.46998458,41.91430201],[12.47020052,41.91432928],[12.47028148,41.91434007],[12.4704255,41.91435676],[12.47054543,41.91437291],[12.4706744,41.91438926],[12.47070784,41.91439],[12.47071054,41.91439006],[12.47071869,41.91433621],[12.47079302,41.91392398],[12.47080361,41.91386529],[12.47088621,41.91345285],[12.47088655,41.91345184],[12.47090322,41.9134037],[12.47104818,41.9129386],[12.47119225,41.912496],[12.47127713,41.91225472],[12.47133666,41.91212095],[12.47137154,41.91201273],[12.47138132,41.91198235],[12.47154342,41.91156823],[12.47154558,41.91156271],[12.47159742,41.91145459],[12.47176564,41.91110377],[12.47181439,41.91099801],[12.47192386,41.91076054],[12.47192967,41.9107469],[12.47194558,41.91070951],[12.47196373,41.91066686],[12.47198152,41.91063341],[12.47198977,41.9106179],[12.47202202,41.91056458],[12.47212868,41.91038232],[12.47221195,41.91024622],[12.47221567,41.91024014],[12.47224338,41.91018304],[12.47231081,41.91004412],[12.47234843,41.9099719],[12.47241516,41.90984379],[12.47246105,41.90975024],[12.4725514,41.90959914],[12.47256858,41.90956593],[12.47259056,41.90952345],[12.47269041,41.9093901],[12.47274646,41.90931526],[12.47288358,41.90912466],[12.47303197,41.90890774],[12.47312026,41.90877865],[12.47319421,41.90867259],[12.4732856,41.90854149],[12.47331195,41.9085037],[12.47339386,41.90840293],[12.47344499,41.90834003],[12.47362905,41.90810543],[12.47374975,41.90793391],[12.47376634,41.90791033],[12.47379663,41.90786938],[12.4739892,41.90760905],[12.47405811,41.90746648],[12.4740729,41.90743632],[12.47416299,41.90725265],[12.47423828,41.90710122],[12.47431994,41.90688768],[12.47434245,41.90682884],[12.47436187,41.90677401],[12.47438993,41.9066948],[12.47446292,41.90637221],[12.47447923,41.9062645],[12.47452265,41.9058512],[12.47448865,41.90564332],[12.47444704,41.90539925],[12.47438331,41.90506753],[12.47436452,41.90496967],[12.4743569,41.90493348],[12.47426757,41.90475632],[12.47423345,41.90468866],[12.47422832,41.90467849],[12.47398674,41.90430845],[12.47394788,41.90425151],[12.47392121,41.90421245],[12.47366617,41.90395468],[12.47358806,41.90387438],[12.4735677,41.90385345],[12.47341361,41.90371047],[12.47331107,41.90361754],[12.47327103,41.90358125],[12.47306257,41.90344157],[12.47289391,41.90332784],[12.47285392,41.90330087],[12.47280717,41.90326934],[12.47280127,41.90326583],[12.47278361,41.90325532],[12.47269816,41.9031945],[12.47263998,41.90315309],[12.47214366,41.9029111],[12.47207724,41.90287872],[12.47206931,41.90287485],[12.47178103,41.90276723],[12.47133871,41.90260209],[12.47130028,41.90258323],[12.47065877,41.9024205],[12.47045572,41.90237176],[12.46989452,41.90223705],[12.46975424,41.90220243],[12.46907726,41.90208027],[12.469072,41.90207932],[12.4683906,41.90200061],[12.46830101,41.90199026],[12.46817098,41.90197597],[12.46768589,41.90192265],[12.46701851,41.90186318],[12.46694714,41.90185681],[12.46645511,41.90180092],[12.46631409,41.90178677],[12.46576472,41.90173164],[12.46555296,41.90166724],[12.46508754,41.9015257],[12.46501432,41.90150343],[12.46494578,41.90148391],[12.46478001,41.9014082]]]},"id":"rome::prati"},{"type":"Feature","properties":{"id":"rome::testaccio","name":"Testaccio","cityId":"rome","city":"Rome","country":"Italy","parentName":null,"displayName":"Testaccio","source":{"sourceId":"rome-official-urban-zones","provider":"Roma Capitale Geoportale","datasetUrl":"https://geoportale.comune.roma.it/geoserver/ows?service=WFS&version=2.0.0&request=GetFeature&typeNames=DIPDIT:ZoneUrbanistiche&outputFormat=json&srsName=EPSG:4326","datasetId":"DIPDIT:ZoneUrbanistiche","format":"wfs-geojson","matchField":"DENOMINAZIONE","labels":["Testaccio"]}},"geometry":{"type":"Polygon","coordinates":[[[12.4806544,41.87627695],[12.48062808,41.87625903],[12.48061422,41.87626812],[12.48048282,41.87615564],[12.4804699,41.87615223],[12.48032997,41.87612241],[12.48032981,41.87612237],[12.48034245,41.87609435],[12.48025499,41.87606925],[12.48025294,41.87607319],[12.48024116,41.87609582],[12.4802385,41.8760946],[12.48003506,41.87600159],[12.47994625,41.87596099],[12.47996807,41.87593195],[12.47988243,41.87589622],[12.47988067,41.87589859],[12.47986208,41.87592366],[12.47985723,41.87592182],[12.47963563,41.87583792],[12.47962109,41.87583241],[12.4795441,41.87580327],[12.47956593,41.87577297],[12.47947977,41.87573957],[12.47947516,41.87574628],[12.47945794,41.87577132],[12.47945436,41.87576984],[12.47920234,41.87566504],[12.47915832,41.87564673],[12.47916688,41.87563688],[12.47917355,41.8756258],[12.47917394,41.87562516],[12.47917672,41.87562055],[12.47910876,41.87557846],[12.4790817,41.87560242],[12.47895207,41.87553126],[12.4788973,41.8755012],[12.47879829,41.87544685],[12.47879648,41.87544585],[12.47881132,41.87542483],[12.47881635,41.8754177],[12.47873386,41.87538109],[12.47872061,41.87539478],[12.47871516,41.8754004],[12.47871237,41.87540329],[12.47845161,41.87527028],[12.47845024,41.87526958],[12.4784787,41.87523698],[12.47848276,41.87523232],[12.47844272,41.87521139],[12.47838287,41.8751801],[12.47837839,41.87518392],[12.47834534,41.8752121],[12.47834515,41.875212],[12.47810951,41.87508014],[12.47808026,41.87506378],[12.47809083,41.87505067],[12.47810808,41.87502928],[12.47810988,41.87502704],[12.4780309,41.87497983],[12.47802762,41.87498229],[12.47802576,41.87498368],[12.47798685,41.87501286],[12.47792857,41.87498063],[12.47792746,41.87498002],[12.47793885,41.8749687],[12.47794186,41.8749657],[12.4778954,41.87494105],[12.47787956,41.87495392],[12.47782177,41.8749202],[12.477801,41.87490808],[12.47779217,41.87490293],[12.47776427,41.87488665],[12.47771176,41.874856],[12.47774588,41.87482542],[12.47769398,41.8747939],[12.47767146,41.87478022],[12.47765149,41.87479713],[12.47763979,41.87480703],[12.47763962,41.87480716],[12.47757713,41.87476676],[12.47754368,41.87474514],[12.47749727,41.87471513],[12.47749414,41.87471311],[12.47748728,41.87471671],[12.47748494,41.87471531],[12.47747984,41.87471741],[12.47740254,41.87467321],[12.47740844,41.87466481],[12.47737693,41.87464659],[12.47737454,41.87464521],[12.47737741,41.87464248],[12.4773873,41.87463309],[12.47739064,41.87462991],[12.47735196,41.8746031],[12.47724534,41.87452921],[12.47723364,41.87453631],[12.47704384,41.87440304],[12.47702119,41.87438713],[12.47700245,41.87437397],[12.47700094,41.87437291],[12.47700973,41.87435941],[12.47701145,41.87435677],[12.47701234,41.87435541],[12.47695534,41.87432104],[12.47694829,41.87431679],[12.47694581,41.8743153],[12.47694553,41.87431513],[12.47694384,41.87431411],[12.4769435,41.87431434],[12.47694272,41.87431486],[12.47692344,41.87432781],[12.47684524,41.87427931],[12.47685114,41.87426841],[12.47681844,41.87424991],[12.47681214,41.87425621],[12.47675784,41.87421851],[12.47668674,41.87417561],[12.47663699,41.87415063],[12.47661604,41.87414011],[12.47663684,41.87411441],[12.47655954,41.87406841],[12.47653424,41.87408941],[12.47648624,41.87406141],[12.47647334,41.87407321],[12.4763664,41.87401295],[12.47631173,41.87398215],[12.47628504,41.87396711],[12.47615571,41.8738727],[12.47613928,41.87386077],[12.47614858,41.8738523],[12.47615688,41.87384475],[12.47611196,41.87381368],[12.47610143,41.87382288],[12.47602804,41.87377221],[12.47589306,41.87367713],[12.47588768,41.87367334],[12.47587218,41.87366242],[12.47586965,41.87366065],[12.47585004,41.87364683],[12.4758392,41.8736392],[12.4758313,41.87363363],[12.47585504,41.87360791],[12.47578605,41.87356271],[12.47577994,41.87355871],[12.47576838,41.87356711],[12.47574935,41.87358094],[12.47574619,41.87358323],[12.47574286,41.8735858],[12.4754813,41.87344318],[12.47545867,41.87343044],[12.47547318,41.87341392],[12.47540241,41.87337823],[12.47538197,41.87340461],[12.47513319,41.8732892],[12.4750775,41.87326337],[12.47507994,41.87325964],[12.4750046,41.87322442],[12.47498293,41.87321428],[12.47486096,41.87316297],[12.47483487,41.87315389],[12.47482863,41.87315172],[12.47479149,41.87314027],[12.47467992,41.87311251],[12.47468222,41.87310626],[12.4745977,41.87308297],[12.47459437,41.87308803],[12.47454744,41.87307421],[12.47453575,41.87305821],[12.47451352,41.87302778],[12.47437829,41.87284273],[12.47420025,41.87283054],[12.47399616,41.87281494],[12.47388776,41.87280674],[12.47370356,41.87279224],[12.47349566,41.87277874],[12.47335796,41.87276634],[12.47317076,41.87275284],[12.47305896,41.87274664],[12.47287686,41.87273014],[12.47273926,41.87271774],[12.47269927,41.87271488],[12.4724964,41.87270042],[12.47204118,41.87266796],[12.47172944,41.87264572],[12.47171013,41.87271616],[12.47169781,41.87273766],[12.47168629,41.87276136],[12.47166898,41.87279697],[12.47166564,41.87280384],[12.47165984,41.87281578],[12.47161177,41.87291465],[12.47157162,41.87299515],[12.4714172,41.87330477],[12.47135918,41.87342756],[12.47115945,41.87384774],[12.47109374,41.87398929],[12.47094218,41.87431575],[12.47086993,41.87446725],[12.47071216,41.87480148],[12.4706431,41.87494855],[12.47052216,41.8752166],[12.47051436,41.8752339],[12.4705049,41.87525573],[12.47044477,41.87539446],[12.47040588,41.87554192],[12.47039163,41.87559592],[12.47027405,41.87590402],[12.47025676,41.87595344],[12.47017558,41.87618553],[12.47010385,41.87640008],[12.47001086,41.87688133],[12.46995575,41.87722429],[12.46994923,41.87726487],[12.46993475,41.87735503],[12.46993474,41.87735507],[12.46990646,41.87762723],[12.46990646,41.87762728],[12.46990917,41.87780731],[12.46991086,41.87791924],[12.46991087,41.87791927],[12.4699144,41.87799322],[12.46992396,41.87819353],[12.46992396,41.87819358],[12.46999095,41.87851434],[12.4699977,41.87854666],[12.47004113,41.87866168],[12.47006829,41.87873373],[12.47014114,41.87889095],[12.47015284,41.87892025],[12.4701547,41.87892428],[12.47015901,41.87893357],[12.47016718,41.87895116],[12.47021665,41.87905784],[12.47022859,41.87907809],[12.4702651,41.87914003],[12.47028166,41.87916813],[12.47036606,41.87931133],[12.47044168,41.87941692],[12.47046054,41.87944326],[12.47063048,41.87968053],[12.47064711,41.87969962],[12.47077332,41.8798445],[12.47088975,41.87997814],[12.47095954,41.88004817],[12.47118112,41.88027049],[12.47118115,41.88027054],[12.47129484,41.8803671],[12.47135541,41.88041856],[12.47136107,41.88042337],[12.47136967,41.88043068],[12.47145694,41.88050482],[12.47168456,41.88068666],[12.47206275,41.88098366],[12.47208064,41.88099771],[12.47208647,41.88100228],[12.47220501,41.88109536],[12.47233234,41.88119535],[12.47261575,41.88141247],[12.47296847,41.88168269],[12.47297935,41.88169102],[12.47334904,41.88197424],[12.47373018,41.88224273],[12.47381292,41.88230099],[12.47434953,41.88267895],[12.47434958,41.88267898],[12.47460032,41.88287035],[12.47475003,41.88296655],[12.47491577,41.88307304],[12.47513089,41.88319563],[12.47524113,41.88325844],[12.47533444,41.88318395],[12.47538503,41.88314652],[12.47545857,41.88309212],[12.47555171,41.88302212],[12.47562325,41.88296516],[12.47578119,41.88285607],[12.47594179,41.88275603],[12.4760838,41.8826691],[12.47625077,41.8825602],[12.47641129,41.88245886],[12.47642861,41.88244793],[12.47642997,41.88244707],[12.4766661,41.88237203],[12.47675334,41.88221923],[12.47680128,41.88213095],[12.47686317,41.88202811],[12.47696873,41.8818813],[12.47698779,41.88185465],[12.47706897,41.88174113],[12.47712374,41.88166614],[12.47717734,41.88159727],[12.47719037,41.88158052],[12.47729623,41.88143228],[12.47739672,41.8812885],[12.47750019,41.8811457],[12.47757319,41.88105148],[12.47765079,41.88094134],[12.47774564,41.88078493],[12.47784063,41.88062473],[12.4779194,41.88050336],[12.4779949,41.88037299],[12.47807986,41.88027246],[12.47816944,41.88016646],[12.47823481,41.88007128],[12.47826889,41.88002167],[12.47835231,41.87990751],[12.47844653,41.87976991],[12.4785012,41.87969069],[12.47854045,41.87963382],[12.47862552,41.87951466],[12.47872404,41.87936562],[12.47882995,41.87921899],[12.47894321,41.87906595],[12.47894391,41.87906497],[12.47901898,41.87895919],[12.47905063,41.87891459],[12.47918497,41.87873427],[12.47926747,41.87862802],[12.47929262,41.87859113],[12.47954879,41.87821544],[12.47963714,41.87811381],[12.47972229,41.87801662],[12.47973486,41.87800339],[12.47977779,41.87797244],[12.47986818,41.87790726],[12.47997671,41.87782859],[12.4801442,41.87770619],[12.48024051,41.87763175],[12.48032744,41.87756612],[12.4804889,41.87744359],[12.48051294,41.87742547],[12.48062239,41.87734295],[12.48064718,41.87732549],[12.48079005,41.87721605],[12.48087397,41.87715035],[12.48089858,41.87706084],[12.48083997,41.87701903],[12.4809099,41.876926],[12.4809152,41.87679103],[12.48095203,41.8767363],[12.48095999,41.87672448],[12.48100797,41.87665348],[12.48105419,41.87662706],[12.48107681,41.87661413],[12.48106544,41.8765975],[12.48105725,41.87658659],[12.48105379,41.87658199],[12.48104404,41.876569],[12.48104322,41.87656788],[12.48101848,41.87653397],[12.48101386,41.87652763],[12.48101034,41.8765228],[12.48071589,41.8763398],[12.48070101,41.87632764],[12.48068488,41.87631515],[12.48067009,41.87630379],[12.48066696,41.87630149],[12.48065182,41.87629037],[12.48065156,41.87629018],[12.48065469,41.87628778],[12.48066203,41.87628214],[12.48066169,41.87628191],[12.4806544,41.87627695]]]},"id":"rome::testaccio"},{"type":"Feature","properties":{"id":"rome::trastevere","name":"Trastevere","cityId":"rome","city":"Rome","country":"Italy","parentName":null,"displayName":"Trastevere","source":{"sourceId":"rome-official-urban-zones","provider":"Roma Capitale Geoportale","datasetUrl":"https://geoportale.comune.roma.it/geoserver/ows?service=WFS&version=2.0.0&request=GetFeature&typeNames=DIPDIT:ZoneUrbanistiche&outputFormat=json&srsName=EPSG:4326","datasetId":"DIPDIT:ZoneUrbanistiche","format":"wfs-geojson","matchField":"DENOMINAZIONE","labels":["Trastevere"]}},"geometry":{"type":"Polygon","coordinates":[[[12.46052062,41.90003557],[12.46063517,41.89975488],[12.46092088,41.89976623],[12.46164643,41.89980436],[12.46185747,41.89981703],[12.46187463,41.89981752],[12.46190668,41.89984524],[12.46197648,41.89984872],[12.46206908,41.89985334],[12.46221927,41.89986566],[12.46244792,41.89987522],[12.46254586,41.89991341],[12.46262337,41.89994623],[12.46267765,41.89996922],[12.46270294,41.89997993],[12.46268939,41.89991192],[12.46268222,41.89987596],[12.4626744,41.8998367],[12.46265535,41.89974108],[12.46265517,41.89974022],[12.46265202,41.89972629],[12.46265005,41.89971759],[12.46278304,41.89972592],[12.46287249,41.89973152],[12.46309255,41.89974055],[12.46311018,41.89974128],[12.46328764,41.8997497],[12.46347113,41.89975826],[12.46346915,41.8997341],[12.463463,41.89965902],[12.46354953,41.89922416],[12.46355112,41.89922117],[12.46364653,41.8990421],[12.46374159,41.89886368],[12.4638945,41.89857889],[12.46405784,41.89833484],[12.46441553,41.89782493],[12.46447024,41.89774726],[12.46470288,41.89741702],[12.46481604,41.89727623],[12.46484867,41.89723563],[12.46512396,41.896904],[12.46518224,41.89683468],[12.46533582,41.89665202],[12.46533733,41.89665067],[12.46537019,41.89662126],[12.46547966,41.89652011],[12.4659549,41.89608484],[12.4659983,41.89605427],[12.46623068,41.8958928],[12.46663258,41.89555947],[12.46664369,41.89555001],[12.46703483,41.89521713],[12.46713095,41.89513595],[12.46714394,41.89512498],[12.46735716,41.89494795],[12.46738696,41.89492321],[12.46745574,41.89486807],[12.46758923,41.89476108],[12.46776617,41.8946299],[12.46798863,41.8944363],[12.46800333,41.8944235],[12.4680673,41.89437255],[12.46836519,41.89413528],[12.4683829,41.89412118],[12.46860782,41.89395221],[12.46908161,41.89359626],[12.46914449,41.89354725],[12.46950694,41.89326474],[12.46972205,41.89309707],[12.4700759,41.89281564],[12.4702509,41.89267646],[12.47071085,41.89232187],[12.47092904,41.89213757],[12.47123581,41.8919106],[12.47129995,41.89186314],[12.47136047,41.89181837],[12.47171927,41.89158313],[12.47223586,41.89139639],[12.47224873,41.89139259],[12.47253793,41.89130724],[12.47273278,41.89124973],[12.47281632,41.8912298],[12.47316471,41.89114668],[12.47349021,41.89106829],[12.47359277,41.89105227],[12.47394498,41.89099725],[12.47396429,41.89099646],[12.47398253,41.89099571],[12.47415925,41.89098846],[12.47419415,41.89098712],[12.47438256,41.89097987],[12.47440923,41.89097674],[12.47441181,41.89097644],[12.47447943,41.89096849],[12.47454019,41.89096359],[12.47456709,41.89096142],[12.47467635,41.89094997],[12.4750996,41.8909056],[12.47514495,41.89082954],[12.47517346,41.89078172],[12.4751738,41.89078115],[12.47529742,41.89062627],[12.47559475,41.89049773],[12.47657723,41.89018614],[12.47725459,41.88997139],[12.47756332,41.88986975],[12.47763922,41.88984476],[12.47820714,41.88965462],[12.47882477,41.88944548],[12.47890644,41.88941783],[12.47890679,41.8894179],[12.47913268,41.88946279],[12.47954324,41.88954439],[12.47954562,41.88950486],[12.47956944,41.88910819],[12.47956954,41.88905877],[12.47956954,41.88905859],[12.47956956,41.88904864],[12.47956959,41.88903697],[12.47956961,41.88902714],[12.47968752,41.88848039],[12.47968482,41.88841936],[12.47968114,41.88833616],[12.47965829,41.88799795],[12.47961868,41.88782571],[12.47956566,41.88759516],[12.47944556,41.8872845],[12.47942345,41.88722731],[12.47941553,41.88721837],[12.47933402,41.88712629],[12.47926797,41.88704379],[12.4790992,41.88673839],[12.47902288,41.88661063],[12.478776,41.88635013],[12.47868731,41.88625654],[12.47852787,41.88608648],[12.47845887,41.88601287],[12.47822796,41.88575564],[12.47785167,41.88536463],[12.47762856,41.88513909],[12.47740147,41.88494828],[12.47733691,41.88489403],[12.47719596,41.88477904],[12.47683775,41.88448681],[12.47637595,41.88412543],[12.47624027,41.88402108],[12.47588175,41.88374533],[12.47531815,41.88331698],[12.47524113,41.88325844],[12.47523927,41.88325986],[12.47523359,41.88326423],[12.47520695,41.88328471],[12.47504564,41.88340273],[12.47488606,41.88352576],[12.47488096,41.88352969],[12.47479048,41.88360875],[12.47478928,41.88360974],[12.47472499,41.88356555],[12.47469605,41.88354567],[12.47468828,41.88354064],[12.47464006,41.88349606],[12.47461616,41.88347509],[12.47455162,41.88351726],[12.47416389,41.88379145],[12.47415431,41.88379822],[12.47401198,41.88389748],[12.47388076,41.883989],[12.47385264,41.88400861],[12.47384625,41.88401307],[12.47384301,41.8840152],[12.4735195,41.88422822],[12.47338051,41.88411868],[12.47338739,41.88406384],[12.47297637,41.88381365],[12.47294896,41.8838226],[12.47268504,41.88390879],[12.47263211,41.88392607],[12.47263169,41.88392621],[12.47261854,41.8839305],[12.47261248,41.88393248],[12.47261245,41.88393249],[12.47261112,41.88393292],[12.47225357,41.88404968],[12.47225331,41.88405069],[12.47225315,41.88405131],[12.47219058,41.88429604],[12.47218532,41.8843166],[12.4721833,41.88432451],[12.47218019,41.88433669],[12.47162004,41.88428979],[12.47156827,41.88428546],[12.47154372,41.8842834],[12.47102538,41.88424213],[12.47097328,41.88423799],[12.4709351,41.88423495],[12.47081381,41.88422529],[12.47079512,41.88422423],[12.47077221,41.88422293],[12.47075702,41.88422172],[12.47025401,41.88418064],[12.47022738,41.88417847],[12.47027736,41.88390966],[12.47025992,41.88390038],[12.47025286,41.88389662],[12.47023825,41.88388885],[12.47017398,41.88385466],[12.47017381,41.88385457],[12.47014219,41.88383775],[12.47011897,41.88382539],[12.47010546,41.88381821],[12.47001839,41.88377189],[12.47001595,41.88377059],[12.46999783,41.88376107],[12.4699952,41.88376225],[12.46977314,41.88386027],[12.46977254,41.88386055],[12.46971673,41.8838866],[12.46964478,41.88392018],[12.46960778,41.88387593],[12.46956676,41.88382687],[12.46945734,41.88369838],[12.46941763,41.88365366],[12.46934802,41.88357526],[12.46929099,41.88357129],[12.46918121,41.88356554],[12.4691741,41.88356517],[12.46893598,41.8835527],[12.46886897,41.88367599],[12.46886006,41.8836924],[12.46884991,41.88371106],[12.46858144,41.88365876],[12.46845599,41.88363432],[12.46843421,41.88363008],[12.4683596,41.88361554],[12.46831564,41.88360698],[12.46803865,41.88355712],[12.46794994,41.88354435],[12.46790035,41.88353721],[12.46780868,41.88352402],[12.46744173,41.88345778],[12.46728736,41.88342992],[12.46726997,41.88342678],[12.46714491,41.88340421],[12.46714474,41.88340071],[12.467144,41.88338506],[12.46714371,41.8833789],[12.46713338,41.88316039],[12.46712594,41.88300286],[12.46709511,41.88300103],[12.46680331,41.88298367],[12.46671428,41.88297837],[12.46654887,41.88296614],[12.46653225,41.88296491],[12.46637219,41.88295308],[12.46635753,41.88302525],[12.4662603,41.88302081],[12.46623427,41.88301973],[12.46617933,41.88301693],[12.46604165,41.88300989],[12.46599219,41.88285426],[12.46598862,41.88284302],[12.46593248,41.88261516],[12.46591571,41.88254711],[12.46590023,41.88250314],[12.46588273,41.88245348],[12.46586002,41.882389],[12.46585719,41.88239011],[12.46560208,41.88248963],[12.46545866,41.88254558],[12.46533716,41.88259298],[12.46524021,41.8826308],[12.46524023,41.88263233],[12.46524149,41.88272246],[12.46524418,41.88291448],[12.46466091,41.88290989],[12.46444725,41.88290822],[12.46445107,41.88287567],[12.46445299,41.88285929],[12.46446744,41.88273602],[12.46377276,41.8825366],[12.46377211,41.88253765],[12.46358276,41.88284309],[12.4634666,41.88303106],[12.46345458,41.88305051],[12.46340367,41.88313289],[12.46348394,41.88318429],[12.46350728,41.88316706],[12.46363146,41.88325707],[12.46372218,41.88332167],[12.46348229,41.88350918],[12.46348006,41.88351093],[12.46313057,41.88377292],[12.46289145,41.88395521],[12.46274126,41.88406969],[12.46240974,41.88430704],[12.46222347,41.8841691],[12.46224702,41.88414954],[12.46219323,41.88411097],[12.46218749,41.88410688],[12.46216253,41.88408895],[12.46181946,41.88422275],[12.46180242,41.8842294],[12.46138788,41.88439016],[12.46140283,41.88442612],[12.46141387,41.88445267],[12.46160705,41.88491728],[12.46163296,41.88497958],[12.46166649,41.88506022],[12.46178258,41.88506234],[12.4617847,41.88503321],[12.4620555,41.88503595],[12.46205541,41.88505648],[12.46205531,41.88508219],[12.46205509,41.88513574],[12.46205493,41.88517517],[12.46205453,41.88527637],[12.46205372,41.88548286],[12.46204963,41.88575248],[12.46204535,41.88603517],[12.46204476,41.8860864],[12.46204441,41.88611688],[12.46204157,41.88636387],[12.46204076,41.88643366],[12.46204051,41.88645572],[12.46204072,41.88647493],[12.46204115,41.88651553],[12.46176504,41.8865159],[12.46176382,41.8864858],[12.4616638,41.88648854],[12.46152899,41.88663163],[12.46151679,41.88664458],[12.46146299,41.88670168],[12.46137823,41.88679165],[12.46130894,41.88686392],[12.4611874,41.88699069],[12.46133226,41.88736319],[12.46143906,41.88763781],[12.46147266,41.8877242],[12.46151434,41.88773632],[12.46157524,41.88775403],[12.46159204,41.8877317],[12.46184264,41.88780047],[12.46172243,41.88797515],[12.46156745,41.88820036],[12.46156215,41.88820807],[12.4615526,41.88822194],[12.46155015,41.88822549],[12.46154277,41.88823622],[12.46154188,41.88823752],[12.46152612,41.88826039],[12.46152398,41.88826351],[12.46150485,41.88829513],[12.46147777,41.88833447],[12.46141696,41.88842519],[12.46141378,41.88842994],[12.46139414,41.88845923],[12.46137869,41.88848227],[12.46137541,41.88848716],[12.46136325,41.88850502],[12.46134626,41.88852995],[12.46132263,41.88856276],[12.46122343,41.88870637],[12.46111194,41.88867492],[12.46108627,41.88866768],[12.46096673,41.88863397],[12.460965,41.88860534],[12.46091013,41.88858983],[12.46084043,41.88863401],[12.46073252,41.88870241],[12.4602765,41.88898468],[12.46038936,41.88913014],[12.46065876,41.88945349],[12.46099319,41.88951974],[12.46090866,41.89008658],[12.46077021,41.89101498],[12.46056986,41.89100101],[12.46055872,41.89096026],[12.46043522,41.89093846],[12.46012408,41.89130635],[12.4600131,41.89143758],[12.46022444,41.89185805],[12.46029055,41.89186721],[12.46029862,41.89183706],[12.46046054,41.89187924],[12.46030704,41.89230855],[12.46007385,41.89272084],[12.45999021,41.8928406],[12.45985746,41.89303065],[12.45971768,41.89300151],[12.45972417,41.89298485],[12.45964811,41.89296965],[12.45933229,41.89333954],[12.45929381,41.89382056],[12.4595516,41.89386812],[12.45945634,41.89416058],[12.45942661,41.89425183],[12.45911012,41.89522342],[12.45909908,41.89525732],[12.45897973,41.89524324],[12.45897817,41.89521843],[12.45889929,41.89521287],[12.45867137,41.89557144],[12.45863598,41.89576083],[12.45861879,41.89585285],[12.45876396,41.89587086],[12.45874576,41.89591276],[12.4584857,41.89651139],[12.45837913,41.89649183],[12.45839301,41.89646355],[12.45833236,41.89644886],[12.45806578,41.89686613],[12.45801529,41.89723862],[12.45795325,41.89767857],[12.45793307,41.89782168],[12.45791588,41.89794362],[12.4579043,41.89805236],[12.45788573,41.89822661],[12.45788209,41.89826084],[12.45787002,41.89854495],[12.45806838,41.89863522],[12.45828471,41.89885081],[12.45859437,41.89901906],[12.45915258,41.89931085],[12.45939617,41.89942878],[12.45936658,41.89948826],[12.4592553,41.89971037],[12.45932618,41.89972985],[12.4593303,41.89973098],[12.45933072,41.8997299],[12.45940937,41.89975027],[12.45971284,41.89982885],[12.46014905,41.89993496],[12.46048894,41.90002699],[12.46052062,41.90003557]],[[12.47207085,41.88755861],[12.47207198,41.88755856],[12.47207243,41.88757537],[12.47207187,41.88756935],[12.47207085,41.88755861]]]},"id":"rome::trastevere"}]}
