{"type":"FeatureCollection","features":[{"type":"Feature","properties":{"id":"san-antonio::market-square","name":"Market Square","cityId":"san-antonio","city":"San Antonio","country":"United States","parentName":null,"displayName":"Market Square, 514, West Commerce Street, Cattleman's Square, San Antonio, Bexar County, Texas, 78207, United States","source":{"provider":"Nominatim / OpenStreetMap","datasetUrl":"https://nominatim.openstreetmap.org/search","query":"Market Square, San Antonio, United States"}},"geometry":{"type":"Polygon","coordinates":[[[-98.501067,29.4247563],[-98.5003677,29.4246791],[-98.4990077,29.4244498],[-98.4985916,29.4244153],[-98.498428,29.4243993],[-98.4983642,29.4244368],[-98.4983057,29.4250184],[-98.4982547,29.4253501],[-98.4982895,29.4254296],[-98.4985219,29.4255135],[-98.4987445,29.4255293],[-98.4991731,29.4255665],[-98.4994503,29.4255921],[-98.5000698,29.425617],[-98.5002362,29.4256203],[-98.5009417,29.4256864],[-98.501067,29.4247563]]]},"id":"san-antonio::market-square"}]}
