{"type":"FeatureCollection","features":[{"type":"Feature","properties":{"id":"san-diego::little-italy","name":"Little Italy","cityId":"san-diego","city":"San Diego","country":"United States","parentName":null,"displayName":"Little Italy, Banker's Hill, San Diego, San Diego County, California, United States","source":{"provider":"Nominatim / OpenStreetMap","datasetUrl":"https://nominatim.openstreetmap.org/search","query":"Little Italy, San Diego, United States"}},"geometry":{"type":"Polygon","coordinates":[[[-117.1727665,32.7298074],[-117.171173,32.7261454],[-117.1706897,32.7250316],[-117.1703511,32.7240337],[-117.1701783,32.7232656],[-117.1700779,32.7227176],[-117.1700125,32.7221754],[-117.1700008,32.719865],[-117.1657223,32.7198657],[-117.1655236,32.7198657],[-117.1654954,32.7198659],[-117.1638687,32.7198659],[-117.1639088,32.7233753],[-117.164,32.7234304],[-117.1642311,32.7235797],[-117.1643449,32.7236725],[-117.164544,32.7238351],[-117.1648919,32.724171],[-117.1670144,32.7264045],[-117.1680675,32.7276008],[-117.1705959,32.7304904],[-117.1727665,32.7298074]]]},"id":"san-diego::little-italy"},{"type":"Feature","properties":{"id":"san-diego::la-jolla","name":"La Jolla","cityId":"san-diego","city":"San Diego","country":"United States","parentName":null,"displayName":"La Jolla, San Diego, San Diego County, California, United States","source":{"provider":"Nominatim / OpenStreetMap","datasetUrl":"https://nominatim.openstreetmap.org/search","query":"La Jolla, San Diego, United States"}},"geometry":{"type":"Polygon","coordinates":[[[-117.282265,32.832622],[-117.2822251,32.8324582],[-117.282129,32.832336],[-117.2818583,32.8320563],[-117.281562,32.831616],[-117.281419,32.831302],[-117.281373,32.831088],[-117.281348,32.830987],[-117.281204,32.830411],[-117.281061,32.829669],[-117.280658,32.828492],[-117.280215,32.827585],[-117.280189,32.827492],[-117.279994,32.826787],[-117.279929,32.826435],[-117.2798862,32.8262129],[-117.279975,32.825456],[-117.2800546,32.8251185],[-117.2801405,32.8248427],[-117.2802108,32.8244837],[-117.2802802,32.8242754],[-117.2803671,32.8241375],[-117.2804714,32.8239238],[-117.2804711,32.8237104],[-117.2804194,32.8234896],[-117.2804192,32.8232937],[-117.2805757,32.8228825],[-117.2806788,32.822718],[-117.2809741,32.8223221],[-117.2810444,32.8220799],[-117.2810268,32.8219378],[-117.2809218,32.8218923],[-117.2806786,32.821892],[-117.2805575,32.8217852],[-117.2805404,32.821598],[-117.2804713,32.8215206],[-117.2803324,32.8214625],[-117.2803159,32.8213582],[-117.280193,32.8212378],[-117.2801925,32.8210803],[-117.2801065,32.8210601],[-117.2800026,32.8210892],[-117.2799497,32.8210417],[-117.2798974,32.8209427],[-117.2797593,32.8208214],[-117.2797646,32.8207926],[-117.2797759,32.8207303],[-117.279898,32.8206548],[-117.279898,32.8205916],[-117.2798122,32.8205698],[-117.2796905,32.8206385],[-117.2796041,32.820655],[-117.279516,32.8207297],[-117.2794463,32.820715],[-117.2793777,32.8207568],[-117.2792906,32.8207846],[-117.2791683,32.8207291],[-117.2787696,32.8204118],[-117.2785788,32.820144],[-117.2785442,32.82001],[-117.2783361,32.8199801],[-117.2782844,32.8198738],[-117.2780406,32.8198312],[-117.2778672,32.819875],[-117.2777969,32.8198699],[-117.2775545,32.8197031],[-117.2774184,32.8196484],[-117.2773466,32.8196196],[-117.2772416,32.8194708],[-117.2771369,32.8192746],[-117.2770336,32.8191598],[-117.2769573,32.8190635],[-117.276931,32.8189057],[-117.2769119,32.8188957],[-117.2768524,32.8189306],[-117.2768091,32.8189655],[-117.2766344,32.8188825],[-117.2763253,32.8188389],[-117.2761332,32.8187107],[-117.2760453,32.8186594],[-117.2760513,32.8186172],[-117.2761043,32.8185924],[-117.2761708,32.8185286],[-117.2761673,32.8184797],[-117.2761133,32.818469],[-117.2760152,32.8185309],[-117.2758795,32.8185788],[-117.2758368,32.8186042],[-117.2757744,32.8186036],[-117.2756591,32.8185907],[-117.2755549,32.8185472],[-117.2754948,32.8184887],[-117.275506,32.8184223],[-117.2755001,32.818363],[-117.2755401,32.8182941],[-117.2756617,32.818165],[-117.2756966,32.8180902],[-117.2756793,32.8180599],[-117.2754712,32.8181451],[-117.2753487,32.8182381],[-117.2751065,32.8185105],[-117.2749846,32.8185505],[-117.2748632,32.8185424],[-117.2746723,32.8185587],[-117.2744987,32.8184918],[-117.2742553,32.8183278],[-117.2738739,32.8179815],[-117.2735083,32.8175644],[-117.2733876,32.8174011],[-117.2733745,32.8173778],[-117.2732835,32.8172163],[-117.2731097,32.816853],[-117.2730619,32.8167],[-117.2730895,32.8165936],[-117.2732653,32.8164526],[-117.2735594,32.8160925],[-117.2736262,32.8160107],[-117.2736517,32.8159795],[-117.2737028,32.815943],[-117.273926,32.8157833],[-117.2740114,32.8156504],[-117.2740137,32.815558],[-117.2739878,32.8155017],[-117.2739083,32.8154807],[-117.2738521,32.8154878],[-117.2736245,32.8153764],[-117.2735149,32.8149032],[-117.2735099,32.8148818],[-117.2734916,32.8147617],[-117.2734857,32.8147412],[-117.2734217,32.8145539],[-117.2733873,32.8144514],[-117.2733706,32.8143443],[-117.273438,32.8143155],[-117.2734113,32.8142072],[-117.2734565,32.8141477],[-117.2734559,32.8141031],[-117.273432,32.8140833],[-117.2733717,32.8141241],[-117.2733077,32.8141499],[-117.2732445,32.8141617],[-117.2730839,32.8141822],[-117.2729352,32.8141705],[-117.2727451,32.8141107],[-117.2725216,32.8141197],[-117.2723284,32.8139543],[-117.2721719,32.813767],[-117.272068,32.8136114],[-117.2718948,32.813435],[-117.2715656,32.813208],[-117.2712686,32.8128615],[-117.2707517,32.8121898],[-117.2702629,32.8115639],[-117.2700195,32.8113389],[-117.2698288,32.8111254],[-117.2697247,32.8109518],[-117.26962,32.8106523],[-117.2695159,32.8101885],[-117.2691513,32.8094068],[-117.2690124,32.809164],[-117.2689082,32.8090328],[-117.2687519,32.8087896],[-117.2685435,32.8085818],[-117.2683363,32.8083115],[-117.2680233,32.8079572],[-117.2678658,32.807797],[-117.2676593,32.8076525],[-117.267398,32.8075501],[-117.2671032,32.8075141],[-117.2667559,32.8075706],[-117.2664777,32.8076276],[-117.2660615,32.8077591],[-117.2656016,32.8079441],[-117.264949,32.8076072],[-117.2646429,32.80735],[-117.2642362,32.8071457],[-117.2639244,32.8068544],[-117.263657,32.8064679],[-117.2633791,32.806093],[-117.2629963,32.8057407],[-117.262452,32.8056618],[-117.2622325,32.8056157],[-117.2619383,32.8055892],[-117.2614071,32.8058688],[-117.2612331,32.8059101],[-117.2611292,32.8059199],[-117.2610136,32.805915],[-117.2609433,32.8058972],[-117.2607102,32.8060137],[-117.2603099,32.8063793],[-117.2601553,32.8065258],[-117.2600229,32.806642],[-117.2605639,32.8070956],[-117.2611146,32.8075565],[-117.2613773,32.8077572],[-117.2616284,32.8078919],[-117.2616897,32.8079082],[-117.2619711,32.8079832],[-117.2621614,32.808],[-117.2623363,32.8079922],[-117.2625504,32.8079994],[-117.2626619,32.8080114],[-117.2627761,32.8080321],[-117.2629414,32.8080805],[-117.263092,32.8081445],[-117.263268,32.808235],[-117.26355,32.80846],[-117.2638872,32.8087499],[-117.2641707,32.8089936],[-117.2645551,32.8093154],[-117.2646031,32.8093604],[-117.264651,32.8094054],[-117.264734,32.8094724],[-117.2648267,32.8095434],[-117.265036,32.8097211],[-117.2655052,32.8101194],[-117.2645459,32.8103469],[-117.2645984,32.810393],[-117.2643653,32.8104251],[-117.2642864,32.8104688],[-117.2638391,32.8105668],[-117.2627828,32.8108031],[-117.2626804,32.810826],[-117.2617502,32.811056],[-117.260116,32.8114221],[-117.258205,32.8118344],[-117.256371,32.8122288],[-117.2564104,32.8123568],[-117.2559907,32.8130312],[-117.2495989,32.8143959],[-117.241821,32.816074],[-117.2264849,32.8194553],[-117.2303418,32.8231947],[-117.2309292,32.8238101],[-117.2317071,32.8248018],[-117.2322086,32.8257642],[-117.232678,32.8272022],[-117.2328282,32.8282232],[-117.232847,32.8321764],[-117.2329194,32.83315],[-117.2330669,32.833905],[-117.2333137,32.8346758],[-117.2336302,32.8354285],[-117.2349166,32.8382652],[-117.2360069,32.8407159],[-117.2361182,32.8410179],[-117.236306,32.8416703],[-117.2364361,32.8424241],[-117.2364857,32.8430855],[-117.236487,32.843526],[-117.2364602,32.8439463],[-117.2363943,32.8444427],[-117.2360315,32.846805],[-117.2358811,32.8476272],[-117.2358263,32.8479082],[-117.2355679,32.8486797],[-117.2353874,32.849096],[-117.2351495,32.8495547],[-117.2354132,32.8498147],[-117.2356452,32.8500332],[-117.2357199,32.8501063],[-117.2357832,32.8501682],[-117.2359644,32.8503363],[-117.2360837,32.8504704],[-117.2361884,32.8505932],[-117.2362504,32.8506849],[-117.2363171,32.8507836],[-117.236419,32.8509661],[-117.2365263,32.8512061],[-117.236572,32.851337],[-117.2366121,32.8514618],[-117.2366337,32.8515535],[-117.236687,32.85178],[-117.2367825,32.852282],[-117.2369286,32.8530943],[-117.2370037,32.8535066],[-117.2371177,32.8541364],[-117.2371727,32.8545454],[-117.2371815,32.854645],[-117.2372009,32.8550354],[-117.2372089,32.8552765],[-117.2372125,32.8553694],[-117.2372143,32.8563986],[-117.2372022,32.8570193],[-117.2372022,32.8573866],[-117.237194,32.8577653],[-117.2372063,32.8588984],[-117.2372063,32.8596521],[-117.237166,32.8600204],[-117.237111,32.8603133],[-117.237053,32.860516],[-117.2369367,32.8608529],[-117.236765,32.8612179],[-117.2366041,32.8615198],[-117.2364177,32.8619198],[-117.2363396,32.8621138],[-117.2362876,32.8622431],[-117.2362578,32.862357],[-117.236249,32.8623934],[-117.2362326,32.8624616],[-117.2362071,32.8625776],[-117.2361803,32.8627229],[-117.2361684,32.8628588],[-117.2361407,32.8631768],[-117.236132,32.8632761],[-117.2361481,32.8636084],[-117.236187,32.8638979],[-117.2362112,32.8640312],[-117.2362403,32.8641911],[-117.2363406,32.8644785],[-117.2364577,32.8647944],[-117.2367849,32.8655132],[-117.2372438,32.8665653],[-117.237353,32.8668301],[-117.237563,32.8673049],[-117.2377847,32.8678175],[-117.2379182,32.8681502],[-117.237971,32.8683526],[-117.2380517,32.8686625],[-117.2381389,32.8692029],[-117.2381665,32.8695751],[-117.2381595,32.8699783],[-117.2381423,32.8701508],[-117.2380809,32.8705236],[-117.2379931,32.8709868],[-117.2378745,32.8717541],[-117.2381348,32.8717075],[-117.2383905,32.8716519],[-117.2387942,32.8715005],[-117.239284,32.8712534],[-117.2398032,32.8709001],[-117.2403824,32.8704512],[-117.2406597,32.8702881],[-117.2408585,32.8702079],[-117.2412867,32.8701083],[-117.2416457,32.8700902],[-117.2419183,32.8701135],[-117.2424129,32.870261],[-117.2428396,32.8705029],[-117.2430552,32.8706854],[-117.2432648,32.8709183],[-117.2434342,32.8712301],[-117.2435436,32.871463],[-117.2436545,32.871833],[-117.2436853,32.872062],[-117.2436834,32.8726411],[-117.243685,32.8739643],[-117.2436727,32.8751093],[-117.2436542,32.8756631],[-117.2436973,32.876147],[-117.2438776,32.8772971],[-117.2439068,32.8775882],[-117.2439176,32.8777888],[-117.2438597,32.8861088],[-117.243922,32.8861098],[-117.2440131,32.8861103],[-117.244019,32.8861103],[-117.24436,32.8861105],[-117.244426,32.8861109],[-117.2445951,32.8861113],[-117.244776,32.8861118],[-117.2449688,32.8861123],[-117.2452427,32.8861233],[-117.245295,32.8861239],[-117.2454157,32.8861249],[-117.2454133,32.8860828],[-117.2499893,32.886096],[-117.2530942,32.8861222],[-117.2531675,32.8858689],[-117.2531328,32.8854854],[-117.2530262,32.8853554],[-117.2531283,32.8849504],[-117.2530467,32.8839035],[-117.2527885,32.8834108],[-117.2517624,32.8810762],[-117.2516862,32.8804998],[-117.2516867,32.8782247],[-117.2515788,32.8767673],[-117.2516508,32.8759744],[-117.2518396,32.8750456],[-117.2521363,32.8736184],[-117.2525695,32.8720044],[-117.2528135,32.8717457],[-117.2531092,32.8715119],[-117.2532149,32.8714007],[-117.2533347,32.8712747],[-117.2533871,32.8711964],[-117.2534041,32.8711273],[-117.2533345,32.871081],[-117.2532657,32.8711454],[-117.2532478,32.8711224],[-117.2532126,32.8709877],[-117.2532474,32.8706967],[-117.2533176,32.8704253],[-117.2534039,32.8702879],[-117.253473,32.8701242],[-117.253543,32.8698685],[-117.2535609,32.8696737],[-117.2537517,32.8687486],[-117.2537876,32.8686061],[-117.2538562,32.8684926],[-117.2539081,32.8683505],[-117.2539075,32.8680807],[-117.2541331,32.8677237],[-117.2542447,32.867493],[-117.2543992,32.8671758],[-117.2545108,32.8669307],[-117.2546138,32.8667577],[-117.2546653,32.8665486],[-117.2547237,32.8663438],[-117.2547461,32.866293],[-117.2547908,32.8661417],[-117.2552868,32.8636964],[-117.2554515,32.8628845],[-117.2564051,32.8600345],[-117.2585652,32.8561468],[-117.2596031,32.854694],[-117.2606504,32.8532281],[-117.2622134,32.8516606],[-117.2622973,32.8515991],[-117.2629184,32.8512279],[-117.2630573,32.8511104],[-117.2631619,32.8509668],[-117.2632649,32.8509512],[-117.2632484,32.8508244],[-117.2631793,32.8507809],[-117.2632661,32.8506854],[-117.2633873,32.8506127],[-117.2634563,32.8506291],[-117.2635261,32.8506121],[-117.2635621,32.8505509],[-117.2636651,32.8505331],[-117.2637175,32.8504339],[-117.2636999,32.8502737],[-117.2637339,32.8502119],[-117.2637867,32.84994],[-117.2637866,32.8498609],[-117.2641683,32.8493656],[-117.264377,32.8491387],[-117.264742,32.8488766],[-117.2649682,32.8487585],[-117.2653318,32.8486201],[-117.2654885,32.8485889],[-117.265679,32.8486116],[-117.2659397,32.8487021],[-117.2662347,32.848943],[-117.2664086,32.8490274],[-117.2665476,32.8490539],[-117.2666854,32.8490155],[-117.266912,32.8488596],[-117.2672585,32.848675],[-117.2673805,32.8486221],[-117.2675547,32.8485896],[-117.267704,32.8486686],[-117.2678666,32.8487547],[-117.2680414,32.8488143],[-117.2682319,32.84892],[-117.2686134,32.8490501],[-117.2688038,32.8490745],[-117.2689607,32.8491743],[-117.2690646,32.8492779],[-117.2691255,32.8493936],[-117.2692729,32.849375],[-117.2693946,32.8493921],[-117.269533,32.8495089],[-117.2697939,32.8496694],[-117.2698463,32.8497751],[-117.2698284,32.8497967],[-117.2698457,32.8499394],[-117.2700266,32.8501379],[-117.2700536,32.8501493],[-117.2700834,32.8501451],[-117.2701011,32.8501204],[-117.2701595,32.8501293],[-117.2702073,32.8501182],[-117.2702034,32.8501581],[-117.2702097,32.8501769],[-117.2702296,32.8501741],[-117.2702881,32.8501468],[-117.2703033,32.8501949],[-117.2703548,32.8502039],[-117.2703965,32.8501992],[-117.2704306,32.850163],[-117.2704424,32.8500781],[-117.2703807,32.8498154],[-117.2703371,32.849805],[-117.2702985,32.8496027],[-117.270349,32.8495057],[-117.2704181,32.849509],[-117.2705302,32.8496483],[-117.2706163,32.8498073],[-117.2707023,32.8499287],[-117.2708585,32.8501158],[-117.2709349,32.8501785],[-117.2710007,32.8501871],[-117.2710448,32.8502824],[-117.2711481,32.8503437],[-117.2712574,32.8504004],[-117.2713493,32.8504237],[-117.2714826,32.8504332],[-117.27161,32.8504918],[-117.2717389,32.8503507],[-117.271855,32.8502874],[-117.2719546,32.8502256],[-117.2720306,32.8502424],[-117.2722458,32.8504121],[-117.2722751,32.8503272],[-117.2724382,32.8502768],[-117.2726061,32.8502497],[-117.2727694,32.850329],[-117.2729244,32.8504296],[-117.2730076,32.8505379],[-117.2730471,32.8506399],[-117.2729188,32.8507454],[-117.2729421,32.8507815],[-117.2729596,32.8508085],[-117.2729976,32.8508673],[-117.2730337,32.8509124],[-117.2730592,32.8509441],[-117.2731391,32.8509996],[-117.2731489,32.8510193],[-117.2731385,32.8510431],[-117.2731961,32.851115],[-117.2732201,32.8512128],[-117.273328,32.8512728],[-117.2734159,32.8513131],[-117.2735475,32.8513255],[-117.2737028,32.8513706],[-117.273809,32.851357],[-117.2738881,32.8513289],[-117.2738667,32.8512331],[-117.2738989,32.8511565],[-117.2740274,32.8511779],[-117.2740705,32.8511385],[-117.2740676,32.8510991],[-117.2739881,32.8510129],[-117.2740476,32.8508628],[-117.2740719,32.8508408],[-117.2744943,32.8504499],[-117.2745508,32.8504073],[-117.2750495,32.8499814],[-117.275295,32.8496828],[-117.2754546,32.8495476],[-117.2755766,32.8495679],[-117.2757172,32.8495796],[-117.2757992,32.8495645],[-117.2758408,32.8494992],[-117.2759038,32.8495037],[-117.2759186,32.849462],[-117.2758877,32.8494124],[-117.2759052,32.8493865],[-117.2760715,32.8493832],[-117.2761707,32.8493516],[-117.2762552,32.8493347],[-117.2762713,32.8493077],[-117.2762203,32.8492795],[-117.2761197,32.8492829],[-117.2760661,32.8492525],[-117.2760142,32.8492175],[-117.2759964,32.8491128],[-117.2761586,32.8489122],[-117.276278,32.848795],[-117.2763652,32.8486565],[-117.276447,32.848492],[-117.2765851,32.848412],[-117.2765864,32.8483218],[-117.2768538,32.8482238],[-117.2771379,32.8480034],[-117.2772596,32.8478426],[-117.2773463,32.8476957],[-117.277468,32.8476179],[-117.277633,32.8475298],[-117.2776635,32.8476247],[-117.2778147,32.8475422],[-117.2778469,32.847736],[-117.2779139,32.8477585],[-117.278052,32.8476278],[-117.2780677,32.8475653],[-117.2780576,32.8475072],[-117.27812,32.847465],[-117.2781958,32.8474808],[-117.2782929,32.8475239],[-117.2784549,32.8476304],[-117.2785321,32.8477098],[-117.2785922,32.8477891],[-117.2786529,32.8478242],[-117.2786047,32.8478498],[-117.278538,32.8478758],[-117.2784611,32.8478918],[-117.2783913,32.8479039],[-117.2783999,32.8479376],[-117.2784713,32.8479268],[-117.2785446,32.8479098],[-117.2786283,32.847879],[-117.2786961,32.8478475],[-117.2787927,32.8477608],[-117.278853,32.8476774],[-117.2788948,32.8475952],[-117.2789092,32.8475302],[-117.2789143,32.8474652],[-117.278911,32.8473027],[-117.2789684,32.8472228],[-117.2789623,32.8471631],[-117.2788851,32.847055],[-117.2788851,32.8468963],[-117.2788201,32.8466093],[-117.2790653,32.8461117],[-117.2792381,32.8458901],[-117.2792039,32.8458413],[-117.2790476,32.8458674],[-117.2789778,32.8458645],[-117.2789086,32.8458115],[-117.2789257,32.8455963],[-117.2789787,32.8454073],[-117.2791454,32.8447761],[-117.2792027,32.8445122],[-117.2792045,32.8443826],[-117.2793432,32.8442535],[-117.2793879,32.8442174],[-117.2795511,32.8441353],[-117.2796725,32.8440823],[-117.2800365,32.8439723],[-117.2803671,32.8437624],[-117.2805235,32.8436838],[-117.2806445,32.843597],[-117.2808187,32.8435843],[-117.2809225,32.8435151],[-117.2808878,32.8434211],[-117.2807319,32.843432],[-117.2806963,32.8434148],[-117.2808014,32.8433135],[-117.2808873,32.8432636],[-117.2810096,32.8432378],[-117.2810352,32.8432232],[-117.2810631,32.8432072],[-117.2810811,32.8431969],[-117.2811245,32.8431721],[-117.281148,32.8431587],[-117.2812694,32.843011],[-117.2813211,32.8429033],[-117.2813055,32.8426889],[-117.2814783,32.8423341],[-117.2816166,32.8420908],[-117.2816101,32.8419659],[-117.2815996,32.8417658],[-117.2817908,32.8414238],[-117.2817736,32.8412969],[-117.2817915,32.841185],[-117.2818427,32.8410745],[-117.2818782,32.840998],[-117.2819646,32.8406507],[-117.2820692,32.840516],[-117.2821205,32.8404123],[-117.2821208,32.8402729],[-117.2820852,32.8402263],[-117.2822254,32.8399943],[-117.2822415,32.8397858],[-117.2821916,32.8395469],[-117.2821722,32.8394539],[-117.2820336,32.8390898],[-117.2818603,32.8388005],[-117.281756,32.8384852],[-117.2816858,32.8381442],[-117.2815732,32.8375531],[-117.2814919,32.8366933],[-117.281518,32.8361873],[-117.2816581,32.8349158],[-117.281763,32.834476],[-117.281987,32.834003],[-117.282063,32.8337939],[-117.2822353,32.8330861],[-117.282265,32.832622]]]},"id":"san-diego::la-jolla"}]}
