{"type":"FeatureCollection","features":[{"type":"Feature","properties":{"id":"vienna::innere-stadt","name":"Innere Stadt","cityId":"vienna","city":"Vienna","country":"Austria","parentName":null,"displayName":"Innere Stadt, Wien, 1010, Österreich"},"geometry":{"type":"Polygon","coordinates":[[[16.3552089,48.2085326],[16.3554428,48.207841],[16.3554887,48.207516],[16.3556177,48.2072247],[16.3557328,48.2070556],[16.3558875,48.2069081],[16.3573321,48.2058124],[16.3575481,48.2056454],[16.3576937,48.2055365],[16.35784,48.2054269],[16.3579802,48.205322],[16.3611211,48.2029589],[16.3611256,48.2029555],[16.361237,48.2028723],[16.3615382,48.2026474],[16.3617213,48.2025319],[16.3640387,48.2013262],[16.3640586,48.201177],[16.3646277,48.2008867],[16.3649243,48.2006995],[16.366006,48.1998505],[16.3659159,48.1998011],[16.3659409,48.1996821],[16.3659742,48.1995268],[16.3665184,48.199825],[16.3665967,48.1998655],[16.367195,48.2002259],[16.3676074,48.2004402],[16.3679344,48.2005728],[16.3682878,48.2006612],[16.3686066,48.2007054],[16.3691008,48.2007199],[16.3694796,48.2006655],[16.3737189,48.1996313],[16.3739662,48.1996362],[16.375215,48.1999528],[16.3766526,48.2003186],[16.3786346,48.2022508],[16.3789387,48.2025986],[16.3790775,48.2027104],[16.3790848,48.2027086],[16.3791543,48.2027676],[16.3792937,48.2028858],[16.3792984,48.2028837],[16.3801058,48.2035648],[16.3805108,48.203908],[16.3805805,48.2039675],[16.3807233,48.2040984],[16.38084,48.2042177],[16.3809627,48.2043536],[16.3810398,48.2044461],[16.3811176,48.2045462],[16.3818713,48.2055767],[16.3819055,48.2056211],[16.3819386,48.2056687],[16.3821406,48.2059449],[16.3821938,48.2060209],[16.3825427,48.2065032],[16.3825756,48.2065486],[16.3825925,48.2065719],[16.3826359,48.206633],[16.3826679,48.2066776],[16.3826893,48.2067075],[16.3827161,48.2067448],[16.3835562,48.2078962],[16.3838153,48.2082506],[16.3838247,48.2082634],[16.3838781,48.2083364],[16.383929,48.2084055],[16.3839411,48.208422],[16.3842917,48.2088901],[16.3843425,48.2089682],[16.3844083,48.2090776],[16.3844647,48.2092018],[16.3845,48.2092894],[16.3845268,48.2093967],[16.3845481,48.2095085],[16.3845583,48.2095598],[16.3845694,48.2096161],[16.38458,48.2096694],[16.3845984,48.2097543],[16.3846049,48.2097875],[16.3846105,48.2098191],[16.3847006,48.2102605],[16.3847736,48.2106439],[16.3848544,48.2110657],[16.3848407,48.2110669],[16.3848448,48.2110849],[16.3848508,48.2111131],[16.3848533,48.2111271],[16.3848556,48.2111398],[16.3848579,48.2111519],[16.384867,48.2112114],[16.3848801,48.211279],[16.3848893,48.2113281],[16.3848946,48.2113547],[16.3845071,48.2113936],[16.3844793,48.211542],[16.3844066,48.2116567],[16.3842505,48.2117642],[16.3840766,48.2118151],[16.383917,48.2118198],[16.3829286,48.2117265],[16.3824376,48.2116916],[16.3819552,48.2116759],[16.3815788,48.2116707],[16.3813019,48.2116741],[16.3810646,48.2116791],[16.3801144,48.2117366],[16.3795538,48.2117967],[16.3790386,48.2118721],[16.3785496,48.2119588],[16.378046,48.2120631],[16.3776787,48.2121566],[16.3773213,48.2122674],[16.3770396,48.2123689],[16.3767933,48.2124669],[16.3765444,48.2125783],[16.3762659,48.2127214],[16.3759558,48.2128966],[16.3756681,48.2130823],[16.375417,48.2132734],[16.3751909,48.213483],[16.3750037,48.2136848],[16.3748503,48.2138968],[16.3735127,48.2158294],[16.3733905,48.2159703],[16.3732108,48.2161498],[16.3730586,48.2162786],[16.372672,48.216591],[16.3723992,48.216802],[16.3717822,48.217276],[16.371518,48.2174714],[16.3713591,48.2175828],[16.3705928,48.2181828],[16.370149,48.2184891],[16.370089,48.2184449],[16.3700421,48.2184108],[16.3694303,48.2179656],[16.3694285,48.2179574],[16.3691466,48.2178233],[16.3689058,48.2177128],[16.3686641,48.2176019],[16.3684066,48.2174837],[16.3681243,48.2173541],[16.3677095,48.2171601],[16.3674136,48.217026],[16.3662822,48.2165039],[16.3651337,48.2159825],[16.3651302,48.2159751],[16.3646881,48.2157764],[16.3646874,48.2157676],[16.364266,48.2155772],[16.363082,48.2150325],[16.3627408,48.2148755],[16.3624812,48.2147561],[16.3609817,48.2140662],[16.3604177,48.213814],[16.3599959,48.2138687],[16.3599984,48.2138792],[16.3598096,48.2139045],[16.3598015,48.2138752],[16.3596116,48.2138972],[16.3596131,48.2139056],[16.3596097,48.2139061],[16.35948,48.213926],[16.3568662,48.214294],[16.3565102,48.2143408],[16.3564918,48.2142595],[16.3564369,48.2140168],[16.3559345,48.2118672],[16.355548,48.2101538],[16.3553642,48.2093891],[16.355351,48.2091009],[16.355211,48.2086487],[16.3552089,48.2085326]]]},"id":"vienna::innere-stadt"},{"type":"Feature","properties":{"id":"vienna::leopoldstadt","name":"Leopoldstadt","cityId":"vienna","city":"Vienna","country":"Austria","parentName":null,"displayName":"Leopoldstadt, Wien, 1020, Österreich"},"geometry":{"type":"Polygon","coordinates":[[[16.3674575,48.2251075],[16.3675889,48.2248433],[16.3677014,48.2245416],[16.3678088,48.224167],[16.3678892,48.2236976],[16.3678804,48.2225512],[16.3679638,48.2215549],[16.3681553,48.2206543],[16.3681785,48.2205879],[16.368354,48.2200858],[16.3685722,48.2197903],[16.3691878,48.2191461],[16.3696756,48.2187986],[16.3697005,48.2187537],[16.370149,48.2184891],[16.3705928,48.2181828],[16.3713591,48.2175828],[16.371518,48.2174714],[16.3717822,48.217276],[16.3723992,48.216802],[16.372672,48.216591],[16.3730586,48.2162786],[16.3732108,48.2161498],[16.3733905,48.2159703],[16.3735127,48.2158294],[16.3748503,48.2138968],[16.3750037,48.2136848],[16.3751909,48.213483],[16.375417,48.2132734],[16.3756681,48.2130823],[16.3759558,48.2128966],[16.3762659,48.2127214],[16.3765444,48.2125783],[16.3767933,48.2124669],[16.3770396,48.2123689],[16.3773213,48.2122674],[16.3776787,48.2121566],[16.378046,48.2120631],[16.3785496,48.2119588],[16.3790386,48.2118721],[16.3795538,48.2117967],[16.3801144,48.2117366],[16.3810646,48.2116791],[16.3813019,48.2116741],[16.3815788,48.2116707],[16.3819552,48.2116759],[16.3824376,48.2116916],[16.3829286,48.2117265],[16.383917,48.2118198],[16.3840766,48.2118151],[16.3842505,48.2117642],[16.3844066,48.2116567],[16.3844793,48.211542],[16.3845071,48.2113936],[16.3848946,48.2113547],[16.3849036,48.2114232],[16.3849157,48.2114536],[16.3849313,48.2114786],[16.3849694,48.2115187],[16.3849941,48.2115334],[16.3850638,48.2117766],[16.3850918,48.2118472],[16.3851492,48.2119177],[16.3852455,48.211994],[16.3854257,48.2120648],[16.3860319,48.2122929],[16.3864832,48.2124664],[16.3865617,48.2125735],[16.3866406,48.2126356],[16.3866417,48.2126365],[16.3868043,48.2127026],[16.3871675,48.2128421],[16.3874383,48.212917],[16.3879236,48.2130384],[16.3883691,48.2131175],[16.3888027,48.2131612],[16.3892349,48.2131825],[16.389647,48.213176],[16.3900579,48.2131492],[16.3903953,48.2131111],[16.3908259,48.213035],[16.3915326,48.2128909],[16.3923033,48.2126943],[16.3931358,48.2123726],[16.3937209,48.2120635],[16.3942561,48.2116641],[16.3946581,48.2112488],[16.3956534,48.2097274],[16.3961994,48.2087094],[16.3965158,48.2078611],[16.397082,48.2050464],[16.3973936,48.2044186],[16.3978408,48.2038574],[16.3983736,48.2034024],[16.398797,48.2030885],[16.3994891,48.2027366],[16.4003359,48.202475],[16.4039157,48.201825],[16.404979,48.2015825],[16.4058995,48.2012733],[16.4066582,48.2008865],[16.4073552,48.2003903],[16.4078547,48.1998829],[16.4085445,48.1989871],[16.4097751,48.1972113],[16.4100661,48.1968503],[16.4103604,48.1965465],[16.410865,48.1961194],[16.4118817,48.195365],[16.4134445,48.1943787],[16.4211488,48.1898533],[16.4220931,48.1893474],[16.4251003,48.1881117],[16.4301686,48.1866113],[16.4310992,48.1863419],[16.4386107,48.1842029],[16.451663,48.1803481],[16.4605003,48.1777857],[16.4672414,48.1757468],[16.4677727,48.1755726],[16.4683386,48.175369],[16.4694852,48.174939],[16.4758724,48.1724605],[16.4784741,48.1712739],[16.4790301,48.1710463],[16.4797577,48.1707483],[16.4797281,48.1706977],[16.482739,48.1696294],[16.4838791,48.1691128],[16.4841719,48.1689849],[16.4844916,48.1688524],[16.4854739,48.1684853],[16.4860142,48.1683315],[16.4878399,48.1677592],[16.4898926,48.1671036],[16.4915066,48.1665412],[16.4930469,48.1659298],[16.4946226,48.1652865],[16.4946641,48.1653265],[16.4952282,48.1650897],[16.497085,48.1662737],[16.4984617,48.1671813],[16.4924117,48.1707639],[16.4885141,48.1731901],[16.4850516,48.1753516],[16.4791211,48.1791524],[16.4738454,48.1825645],[16.4507882,48.1978986],[16.4367364,48.2075131],[16.4297298,48.2124399],[16.4258648,48.2151612],[16.4228069,48.2174031],[16.4212773,48.2185006],[16.4178652,48.2209513],[16.4162691,48.2221101],[16.4155324,48.2226691],[16.4086705,48.2278603],[16.4060609,48.2298632],[16.4037597,48.23167],[16.4016921,48.2333369],[16.3999414,48.2348052],[16.398134,48.2363479],[16.3952727,48.2348255],[16.3952832,48.2348168],[16.3928763,48.2335545],[16.3923408,48.2332751],[16.3900552,48.2320872],[16.3892605,48.2316746],[16.3874115,48.2307192],[16.3874126,48.2307099],[16.387021,48.2305039],[16.3867834,48.2303683],[16.3879148,48.2293718],[16.3881807,48.2281664],[16.3880499,48.2280722],[16.3879758,48.2279555],[16.3879656,48.2278318],[16.3847,48.2260849],[16.3833445,48.2256078],[16.3833051,48.2256004],[16.3832676,48.2255961],[16.3832231,48.2255989],[16.3831846,48.2256042],[16.383138,48.2256194],[16.383103,48.2256355],[16.383074,48.2256566],[16.383051,48.2256828],[16.3813061,48.2279137],[16.3804719,48.228313],[16.3801373,48.2283022],[16.3798446,48.2284433],[16.379366,48.2286756],[16.3789703,48.2288677],[16.3776716,48.2294971],[16.3775195,48.2295707],[16.3766953,48.2292994],[16.3766339,48.2292792],[16.3762505,48.2291536],[16.3735354,48.2282613],[16.3721614,48.2278334],[16.3709455,48.2266748],[16.3707049,48.2264456],[16.3704212,48.2261717],[16.3703725,48.2258255],[16.3697574,48.2256151],[16.3693506,48.225683],[16.368439,48.2253741],[16.3674575,48.2251075]]]},"id":"vienna::leopoldstadt"},{"type":"Feature","properties":{"id":"vienna::neubau","name":"Neubau","cityId":"vienna","city":"Vienna","country":"Austria","parentName":null,"displayName":"Neubau, Wien, 1070, Österreich"},"geometry":{"type":"Polygon","coordinates":[[[16.3368956,48.2058519],[16.3369052,48.205488],[16.3370141,48.2041934],[16.3371361,48.2027519],[16.3371632,48.2026746],[16.3371784,48.2025063],[16.3371426,48.2025048],[16.3371581,48.2023071],[16.3371741,48.2022202],[16.3372315,48.2018366],[16.3375945,48.2006104],[16.3379228,48.1997437],[16.3379393,48.1997449],[16.3379795,48.1996398],[16.33796,48.1996247],[16.3380108,48.1995034],[16.3385436,48.1981056],[16.3385744,48.1980138],[16.3385765,48.1977849],[16.3385929,48.1976788],[16.3386513,48.1974912],[16.3387154,48.1973256],[16.3387895,48.1971961],[16.3389936,48.1966553],[16.3390166,48.1965884],[16.3390252,48.1964866],[16.3390389,48.1964269],[16.3392406,48.1958746],[16.3392863,48.1958902],[16.339342,48.1959071],[16.3394071,48.1959238],[16.339478,48.1959398],[16.339581,48.1959508],[16.3396803,48.1959568],[16.3398359,48.1959583],[16.3400547,48.1959719],[16.3400818,48.1959749],[16.3403909,48.1960365],[16.3412571,48.1962019],[16.341808,48.1962902],[16.3419532,48.1963306],[16.3420679,48.1963681],[16.3421282,48.1963842],[16.3421745,48.1963873],[16.3422124,48.1963872],[16.3422838,48.1963855],[16.3423321,48.19639],[16.3423952,48.1964082],[16.3424464,48.1964421],[16.3424925,48.1964552],[16.342542,48.1964557],[16.3425974,48.1964433],[16.3426426,48.1964458],[16.3440162,48.1966848],[16.344301,48.1967369],[16.344397,48.1967572],[16.3448753,48.1968586],[16.3453088,48.1969504],[16.3456276,48.1970179],[16.3459705,48.1971007],[16.3460469,48.1971177],[16.3466884,48.19726],[16.3471366,48.197361],[16.3473121,48.1974021],[16.3473704,48.1974157],[16.3475074,48.1974497],[16.347702,48.1975026],[16.3481134,48.1976286],[16.3481979,48.1976531],[16.3485832,48.1977719],[16.349033,48.1979291],[16.3500539,48.1982826],[16.350123,48.1983097],[16.3502227,48.1983491],[16.3502847,48.1983736],[16.3503665,48.1984072],[16.3507051,48.1985505],[16.3511094,48.1987192],[16.3514033,48.1988405],[16.3514942,48.1988758],[16.3515558,48.1988997],[16.3525897,48.1992736],[16.3529406,48.1994093],[16.3530113,48.1994345],[16.3530975,48.1994652],[16.3535929,48.1996419],[16.3538614,48.1997219],[16.3542499,48.1998367],[16.3545445,48.199924],[16.3546283,48.1999488],[16.3547037,48.1999721],[16.3550855,48.2000901],[16.3556095,48.2002519],[16.3557699,48.2002912],[16.3559068,48.2003248],[16.3569095,48.2005605],[16.3570428,48.200592],[16.3582771,48.200884],[16.3585533,48.2009401],[16.3586041,48.2009504],[16.3586442,48.2009586],[16.3592263,48.2010867],[16.3595273,48.2011925],[16.3598122,48.2013111],[16.3600868,48.2014551],[16.360345,48.2016254],[16.3604589,48.2017207],[16.3605076,48.2017614],[16.3607487,48.201963],[16.3611978,48.202371],[16.3612594,48.2024269],[16.3613234,48.2024842],[16.3613644,48.2025208],[16.361474,48.2026047],[16.3615158,48.2026325],[16.3615382,48.2026474],[16.361237,48.2028723],[16.3611256,48.2029555],[16.3611211,48.2029589],[16.3579802,48.205322],[16.35784,48.2054269],[16.3576937,48.2055365],[16.3575481,48.2056454],[16.3573321,48.2058124],[16.3558875,48.2069081],[16.3557105,48.2068845],[16.3551296,48.2068071],[16.3544196,48.2067079],[16.3540736,48.2066649],[16.3539315,48.2066472],[16.3530738,48.2065221],[16.353042,48.2065172],[16.3520633,48.2063824],[16.3515929,48.206322],[16.3514408,48.2063184],[16.3512909,48.2063232],[16.350804,48.2063433],[16.3499751,48.2063774],[16.3497007,48.20639],[16.3496867,48.2063908],[16.3494456,48.2064049],[16.3493514,48.2064152],[16.349266,48.2064243],[16.3490018,48.2064583],[16.3489273,48.206471],[16.3478595,48.2066463],[16.3456095,48.2071121],[16.3452065,48.2071941],[16.344842,48.2072743],[16.3441955,48.2074059],[16.3440217,48.2074409],[16.3438752,48.20747],[16.3435406,48.2075366],[16.3434482,48.207556],[16.3433517,48.2075765],[16.3430227,48.2076463],[16.3430014,48.2076507],[16.3426225,48.2077299],[16.3425313,48.2077489],[16.3421754,48.2078263],[16.3416718,48.2079297],[16.3414049,48.2079864],[16.3394672,48.2083895],[16.3394293,48.2083975],[16.3393328,48.2084168],[16.339313,48.208421],[16.339293,48.2084251],[16.339216,48.2084409],[16.3391389,48.2084566],[16.3388673,48.2085127],[16.3386115,48.2085539],[16.3384515,48.2085779],[16.3383516,48.2084352],[16.3383398,48.2084173],[16.3382709,48.2084376],[16.3380447,48.2080869],[16.3380695,48.2080798],[16.3374938,48.2071917],[16.3374349,48.2071006],[16.3374768,48.2070885],[16.3370173,48.2063251],[16.3368956,48.2058519]]]},"id":"vienna::neubau"},{"type":"Feature","properties":{"id":"vienna::mariahilf","name":"Mariahilf","cityId":"vienna","city":"Vienna","country":"Austria","parentName":null,"displayName":"Mariahilf, Wien, 1060, Österreich"},"geometry":{"type":"Polygon","coordinates":[[[16.3373282,48.1908655],[16.3373684,48.1905829],[16.3373764,48.1905835],[16.3375004,48.190593],[16.3375751,48.1904053],[16.3379923,48.1894886],[16.3381778,48.189018],[16.3381873,48.188994],[16.3387236,48.1886538],[16.3388863,48.1885165],[16.3390566,48.1883152],[16.3395744,48.1883969],[16.3401255,48.1884312],[16.3412337,48.18844],[16.3417518,48.1884673],[16.3419906,48.1884907],[16.3421967,48.1885038],[16.3423347,48.1885125],[16.3423344,48.1885145],[16.3434981,48.1885884],[16.3437838,48.1886066],[16.3440329,48.1886224],[16.3446012,48.1886632],[16.3447292,48.1886706],[16.3448535,48.1886777],[16.3454084,48.1887271],[16.3483776,48.1892042],[16.348541,48.1892332],[16.3488562,48.189289],[16.3510088,48.1896737],[16.3513343,48.1897558],[16.3516004,48.189839],[16.3517935,48.1899098],[16.3519577,48.1899818],[16.3520883,48.1900481],[16.3522181,48.1901183],[16.3524244,48.1902457],[16.3526091,48.1903726],[16.352786,48.1905136],[16.3530265,48.1907148],[16.3531783,48.1908526],[16.353402,48.191088],[16.3534897,48.1911887],[16.3536691,48.1914104],[16.3539326,48.1917559],[16.3540579,48.1919561],[16.3542036,48.1922321],[16.3543067,48.1924707],[16.3543841,48.1926956],[16.3544403,48.192906],[16.3544658,48.1931079],[16.3544654,48.1933347],[16.3544381,48.1935679],[16.3543438,48.1942809],[16.3543298,48.1944319],[16.3543303,48.1945738],[16.3543478,48.1947128],[16.354387,48.1948579],[16.3544629,48.195044],[16.3545671,48.1952198],[16.3547076,48.1953882],[16.3548896,48.1955591],[16.3550279,48.1956755],[16.3551909,48.1957948],[16.3553596,48.1959059],[16.3554794,48.195974],[16.3556756,48.196084],[16.3558966,48.1961856],[16.3561454,48.1962834],[16.3563734,48.1963571],[16.3566055,48.1964223],[16.356873,48.1964797],[16.3570302,48.1965069],[16.3590289,48.1969007],[16.3591932,48.1969247],[16.359371,48.1967114],[16.359538,48.1967539],[16.359535,48.1967707],[16.360883,48.1970969],[16.3612743,48.1972143],[16.3614612,48.197281],[16.3616708,48.1973687],[16.3616777,48.1973627],[16.3616936,48.1973594],[16.3617677,48.197395],[16.3617661,48.197403],[16.3617618,48.1974102],[16.3620099,48.1975292],[16.3628598,48.1979847],[16.3630762,48.1981032],[16.3637805,48.1985096],[16.3659409,48.1996821],[16.3659159,48.1998011],[16.366006,48.1998505],[16.3649243,48.2006995],[16.3646277,48.2008867],[16.3640586,48.201177],[16.3640387,48.2013262],[16.3617213,48.2025319],[16.3615382,48.2026474],[16.3615158,48.2026325],[16.361474,48.2026047],[16.3613644,48.2025208],[16.3613234,48.2024842],[16.3612594,48.2024269],[16.3611978,48.202371],[16.3607487,48.201963],[16.3605076,48.2017614],[16.3604589,48.2017207],[16.360345,48.2016254],[16.3600868,48.2014551],[16.3598122,48.2013111],[16.3595273,48.2011925],[16.3592263,48.2010867],[16.3586442,48.2009586],[16.3586041,48.2009504],[16.3585533,48.2009401],[16.3582771,48.200884],[16.3570428,48.200592],[16.3569095,48.2005605],[16.3559068,48.2003248],[16.3557699,48.2002912],[16.3556095,48.2002519],[16.3550855,48.2000901],[16.3547037,48.1999721],[16.3546283,48.1999488],[16.3545445,48.199924],[16.3542499,48.1998367],[16.3538614,48.1997219],[16.3535929,48.1996419],[16.3530975,48.1994652],[16.3530113,48.1994345],[16.3529406,48.1994093],[16.3525897,48.1992736],[16.3515558,48.1988997],[16.3514942,48.1988758],[16.3514033,48.1988405],[16.3511094,48.1987192],[16.3507051,48.1985505],[16.3503665,48.1984072],[16.3502847,48.1983736],[16.3502227,48.1983491],[16.350123,48.1983097],[16.3500539,48.1982826],[16.349033,48.1979291],[16.3485832,48.1977719],[16.3481979,48.1976531],[16.3481134,48.1976286],[16.347702,48.1975026],[16.3475074,48.1974497],[16.3473704,48.1974157],[16.3473121,48.1974021],[16.3471366,48.197361],[16.3466884,48.19726],[16.3460469,48.1971177],[16.3459705,48.1971007],[16.3456276,48.1970179],[16.3453088,48.1969504],[16.3448753,48.1968586],[16.344397,48.1967572],[16.344301,48.1967369],[16.3440162,48.1966848],[16.3426426,48.1964458],[16.3425974,48.1964433],[16.342542,48.1964557],[16.3424925,48.1964552],[16.3424464,48.1964421],[16.3423952,48.1964082],[16.3423321,48.19639],[16.3422838,48.1963855],[16.3422124,48.1963872],[16.3421745,48.1963873],[16.3421282,48.1963842],[16.3420679,48.1963681],[16.3419532,48.1963306],[16.341808,48.1962902],[16.3412571,48.1962019],[16.3403909,48.1960365],[16.3400818,48.1959749],[16.3400547,48.1959719],[16.3398359,48.1959583],[16.3396803,48.1959568],[16.339581,48.1959508],[16.339478,48.1959398],[16.3394071,48.1959238],[16.339342,48.1959071],[16.3392863,48.1958902],[16.3392406,48.1958746],[16.3391615,48.1958469],[16.3392303,48.19555],[16.3392629,48.1954004],[16.339287,48.1953208],[16.339316,48.1952484],[16.3393908,48.1951518],[16.3394005,48.1950698],[16.3393956,48.194962],[16.3393751,48.1948574],[16.3393401,48.1947568],[16.3392794,48.1946341],[16.3390906,48.1942966],[16.3391907,48.194268],[16.3384075,48.1928753],[16.3383888,48.1928577],[16.3379918,48.1920913],[16.3377896,48.1918707],[16.3374884,48.1913521],[16.3375077,48.1913283],[16.337439,48.1911018],[16.3374217,48.1910155],[16.3374196,48.1910001],[16.337414,48.190872],[16.3373282,48.1908655]]]},"id":"vienna::mariahilf"},{"type":"Feature","properties":{"id":"vienna::wieden","name":"Wieden","cityId":"vienna","city":"Vienna","country":"Austria","parentName":null,"displayName":"Wieden, Wien, 1040, Österreich"},"geometry":{"type":"Polygon","coordinates":[[[16.359371,48.1967114],[16.3593751,48.1966702],[16.3594043,48.1966565],[16.3594296,48.1966382],[16.3594442,48.1966217],[16.3594711,48.1965889],[16.360279,48.1956038],[16.3604816,48.1953568],[16.3608641,48.1949026],[16.3608835,48.1948796],[16.3609367,48.1948464],[16.3619469,48.1942262],[16.3619917,48.1941987],[16.3618606,48.1940835],[16.3617554,48.193977],[16.3617097,48.1939332],[16.3617474,48.1939171],[16.3617794,48.1939016],[16.3618185,48.1938793],[16.3620785,48.1936835],[16.3622086,48.1935529],[16.3626594,48.193213],[16.3631186,48.1928619],[16.3636803,48.1924288],[16.3639811,48.1921999],[16.3640142,48.1921601],[16.3635613,48.1915446],[16.3634541,48.1914096],[16.3633552,48.1912945],[16.3631831,48.1911238],[16.3630282,48.1909711],[16.3628152,48.1907575],[16.3627861,48.1907283],[16.3627221,48.1906773],[16.3626737,48.1906164],[16.3626488,48.1905906],[16.3624628,48.1903983],[16.362235,48.1901696],[16.3621733,48.190138],[16.3622324,48.1901063],[16.3623501,48.1900066],[16.3629464,48.1894975],[16.3630602,48.1894018],[16.3643074,48.1883139],[16.364639,48.1880866],[16.3646775,48.1880603],[16.3647486,48.1880023],[16.3647876,48.1879705],[16.365248,48.1874938],[16.3653397,48.1874032],[16.3653478,48.1873952],[16.3653946,48.1873423],[16.365439,48.187296],[16.3654517,48.1872828],[16.3655536,48.1871772],[16.366116,48.186605],[16.3667273,48.1859845],[16.3667914,48.1859194],[16.3668481,48.18586],[16.3669104,48.1857986],[16.3669594,48.1857485],[16.3670202,48.185687],[16.3676565,48.18504],[16.3677082,48.1849904],[16.3677688,48.1849258],[16.3678222,48.18487],[16.3679209,48.1847671],[16.3681588,48.1845189],[16.3682205,48.1844544],[16.3682711,48.1844018],[16.3688339,48.1838352],[16.3717161,48.1847731],[16.3718984,48.1847436],[16.3719175,48.1847505],[16.3719319,48.1847333],[16.3719576,48.1847301],[16.3723462,48.1848047],[16.3724201,48.1847929],[16.3733331,48.1850903],[16.373344,48.1850731],[16.3735607,48.1851384],[16.3735329,48.1853883],[16.3735191,48.1856582],[16.3735496,48.1857361],[16.3736072,48.1858105],[16.3737394,48.185977],[16.3739627,48.186079],[16.3741627,48.1861065],[16.3751931,48.1864259],[16.3762199,48.1867488],[16.3765552,48.1868441],[16.3771579,48.1869816],[16.3775421,48.1871016],[16.3789226,48.1875168],[16.3795093,48.1877175],[16.3805488,48.187981],[16.3809988,48.1881182],[16.3811296,48.1884798],[16.3808328,48.1889864],[16.3807846,48.1890639],[16.3807315,48.1891543],[16.3806337,48.1893299],[16.3804338,48.1896858],[16.3800327,48.1903916],[16.3796556,48.1910598],[16.3795795,48.1911946],[16.3795396,48.191266],[16.3794413,48.191442],[16.3793092,48.1916787],[16.3792414,48.1917966],[16.3792059,48.1918582],[16.3791629,48.1919263],[16.3791129,48.1920036],[16.3791079,48.1920125],[16.3790884,48.1920414],[16.3785405,48.1928504],[16.3785012,48.1929084],[16.3771899,48.194451],[16.3771671,48.1944778],[16.3771154,48.1945398],[16.3770379,48.1946424],[16.3770307,48.1946528],[16.3769692,48.1947425],[16.375602,48.1969573],[16.3755574,48.1970311],[16.3752536,48.1975347],[16.3752109,48.1976055],[16.3752048,48.197616],[16.3751511,48.197703],[16.3751276,48.1977397],[16.3751106,48.1977745],[16.3750755,48.1978458],[16.3750648,48.1979042],[16.3750582,48.1979498],[16.3750528,48.1980487],[16.3750736,48.1982751],[16.3754473,48.1995294],[16.375215,48.1999528],[16.3739662,48.1996362],[16.3737189,48.1996313],[16.3694796,48.2006655],[16.3691008,48.2007199],[16.3686066,48.2007054],[16.3682878,48.2006612],[16.3679344,48.2005728],[16.3676074,48.2004402],[16.367195,48.2002259],[16.3665967,48.1998655],[16.3665184,48.199825],[16.3659742,48.1995268],[16.3659409,48.1996821],[16.3637805,48.1985096],[16.3630762,48.1981032],[16.3628598,48.1979847],[16.3620099,48.1975292],[16.3617618,48.1974102],[16.3617661,48.197403],[16.3617677,48.197395],[16.3616936,48.1973594],[16.3616777,48.1973627],[16.3616708,48.1973687],[16.3614612,48.197281],[16.3612743,48.1972143],[16.360883,48.1970969],[16.359535,48.1967707],[16.359538,48.1967539],[16.359371,48.1967114]]]},"id":"vienna::wieden"}]}
