{"type":"FeatureCollection","features":[{"type":"Feature","properties":{"id":"washington-dc::georgetown","name":"Georgetown","cityId":"washington-dc","city":"Washington, DC","country":"United States","parentName":null,"displayName":"Georgetown, Ward 2, Washington, District of Columbia, United States","source":{"provider":"Nominatim / OpenStreetMap","datasetUrl":"https://nominatim.openstreetmap.org/search","query":"Georgetown, Washington, District of Columbia, USA"}},"geometry":{"type":"Polygon","coordinates":[[[-77.0795487,38.9022399],[-77.0794219,38.9022641],[-77.0792119,38.9022835],[-77.0790568,38.9022796],[-77.0789068,38.9022251],[-77.0787768,38.9022057],[-77.0786117,38.9022096],[-77.0783117,38.9022368],[-77.0781466,38.9022173],[-77.0779616,38.9021551],[-77.0776915,38.90205],[-77.0774703,38.9020289],[-77.0774465,38.9020266],[-77.0770964,38.9020411],[-77.0769014,38.9020228],[-77.0766142,38.9019089],[-77.0761812,38.9017931],[-77.0755111,38.9015713],[-77.075166,38.9014467],[-77.0747109,38.9012988],[-77.0743958,38.9012599],[-77.0740908,38.9012405],[-77.0738357,38.901221],[-77.0736707,38.9011509],[-77.0735056,38.9010692],[-77.0732506,38.9010303],[-77.0730455,38.9009992],[-77.0727955,38.9009602],[-77.0725704,38.9009602],[-77.0720853,38.9009563],[-77.0715352,38.9009719],[-77.0711701,38.9009875],[-77.0709801,38.9010031],[-77.07085,38.9010381],[-77.07071,38.9010459],[-77.070495,38.9009525],[-77.0699999,38.9008123],[-77.0693247,38.9005788],[-77.0689846,38.900501],[-77.0687196,38.9003453],[-77.0668381,38.9014052],[-77.0657712,38.9012294],[-77.0638009,38.9009564],[-77.0620323,38.9006684],[-77.0606098,38.900358],[-77.0600908,38.9001223],[-77.0594036,38.8996922],[-77.0589903,38.8992771],[-77.0586498,38.8989028],[-77.0585432,38.8987603],[-77.0584665,38.8986487],[-77.0574566,38.8995785],[-77.0573412,38.8997407],[-77.0573084,38.8998397],[-77.0573034,38.8999739],[-77.0573172,38.9001111],[-77.0573273,38.9001738],[-77.0573865,38.9002806],[-77.05753,38.900407],[-77.0578674,38.9006431],[-77.058201,38.9008734],[-77.0583974,38.9010458],[-77.0584528,38.901133],[-77.0584667,38.9012055],[-77.0584541,38.9013593],[-77.0584201,38.9015151],[-77.0583521,38.9016787],[-77.0582199,38.9018835],[-77.0579719,38.9021872],[-77.0578746,38.9023234],[-77.0577156,38.9025469],[-77.0576126,38.9026899],[-77.0575426,38.9027878],[-77.0567904,38.9037059],[-77.0565316,38.9038802],[-77.0563768,38.9040125],[-77.0562543,38.90415],[-77.0556365,38.9049474],[-77.0553041,38.9054607],[-77.0547646,38.9064509],[-77.054642,38.9067714],[-77.0543274,38.9074764],[-77.0542339,38.9076082],[-77.0540747,38.9077655],[-77.0538915,38.9079316],[-77.05375,38.9080909],[-77.0536451,38.9082581],[-77.053568,38.9084065],[-77.0535137,38.9084754],[-77.0534177,38.9085403],[-77.0532029,38.9086691],[-77.0530298,38.9087576],[-77.0528579,38.9088097],[-77.0526886,38.9088303],[-77.0524776,38.9088274],[-77.0521276,38.9088166],[-77.0517144,38.9087703],[-77.0514945,38.9087654],[-77.0512052,38.908789],[-77.0508906,38.9088598],[-77.0506287,38.9089621],[-77.050586,38.9089788],[-77.0503637,38.9091155],[-77.0502184,38.9092315],[-77.0501173,38.9093691],[-77.0500781,38.909496],[-77.0500516,38.9095972],[-77.0500882,38.9097191],[-77.0501438,38.9097899],[-77.0502247,38.9098479],[-77.050509,38.9100308],[-77.0507061,38.9102304],[-77.0508691,38.9104153],[-77.051075,38.9106502],[-77.051199,38.9107858],[-77.0513138,38.9109029],[-77.0515931,38.911189],[-77.0518028,38.911367],[-77.0520518,38.9115528],[-77.0522653,38.911715],[-77.0523828,38.911835],[-77.0525243,38.9119451],[-77.0527,38.9120424],[-77.0529186,38.9121191],[-77.0532168,38.9122224],[-77.0535706,38.9123492],[-77.0539471,38.9124819],[-77.0543843,38.9126009],[-77.0547697,38.9127356],[-77.0550325,38.9128437],[-77.0552094,38.9129371],[-77.0552991,38.9130217],[-77.0554128,38.9131613],[-77.0555392,38.9133235],[-77.0556655,38.9134356],[-77.0558197,38.9135143],[-77.0559738,38.9135968],[-77.0561242,38.9137138],[-77.0563592,38.9138869],[-77.0569897,38.9142811],[-77.0576771,38.9147176],[-77.0580852,38.9150126],[-77.0582311,38.9151348],[-77.0583468,38.9152318],[-77.0585401,38.9153567],[-77.0586526,38.9154137],[-77.0587612,38.9154638],[-77.0588332,38.9155081],[-77.0588825,38.9155651],[-77.0589128,38.915628],[-77.0589533,38.915744],[-77.0589583,38.9158846],[-77.0589267,38.9160862],[-77.05888,38.9163339],[-77.0588105,38.9165905],[-77.0586893,38.9169813],[-77.0586538,38.9170939],[-77.0585868,38.9172384],[-77.0585123,38.917377],[-77.0584238,38.9175195],[-77.0583796,38.9175825],[-77.0582443,38.9177096],[-77.0588941,38.9181815],[-77.0590588,38.9183046],[-77.0592473,38.9183105],[-77.0598072,38.9183379],[-77.0601567,38.9183498],[-77.0611833,38.9183847],[-77.0612528,38.9183872],[-77.0633919,38.9184469],[-77.0634402,38.9184478],[-77.0636301,38.9184514],[-77.0636833,38.9184535],[-77.063781,38.9184578],[-77.0658032,38.9185824],[-77.0681555,38.9187182],[-77.0680992,38.9186458],[-77.067792,38.918293],[-77.067425,38.917832],[-77.0674027,38.9177979],[-77.067388,38.917759],[-77.06738,38.917706],[-77.067413,38.917632],[-77.067435,38.9176152],[-77.0674951,38.9175634],[-77.0678579,38.9173895],[-77.068098,38.9172744],[-77.0681581,38.9172456],[-77.0683549,38.9171513],[-77.0686392,38.9170151],[-77.0687491,38.9169624],[-77.0688326,38.9170633],[-77.0693666,38.9177062],[-77.0693893,38.9176869],[-77.0694111,38.9176629],[-77.0694274,38.9176384],[-77.0694391,38.9176105],[-77.0694453,38.9175892],[-77.06945,38.9175601],[-77.0694187,38.9166694],[-77.0694157,38.9166077],[-77.069411,38.9165483],[-77.0693681,38.9155434],[-77.0693632,38.9154799],[-77.0693296,38.9146355],[-77.0693269,38.9145712],[-77.0693252,38.9145341],[-77.0692894,38.9137329],[-77.0692865,38.9136688],[-77.0692825,38.9135938],[-77.0692496,38.9127553],[-77.0692455,38.9126839],[-77.0693579,38.9126732],[-77.0697449,38.91266],[-77.0709343,38.9126242],[-77.0710714,38.91262],[-77.0711469,38.9126189],[-77.0726083,38.9125996],[-77.0726855,38.9125986],[-77.0727794,38.9125982],[-77.0729387,38.9125965],[-77.0739197,38.9125871],[-77.074019,38.9125884],[-77.0741137,38.9125897],[-77.0744936,38.9125997],[-77.0746436,38.912604],[-77.0754434,38.912624],[-77.0755506,38.9126267],[-77.0756198,38.9126284],[-77.0760142,38.912638],[-77.0761021,38.91264],[-77.0761594,38.9126413],[-77.0767181,38.9126545],[-77.0771917,38.9126656],[-77.0776955,38.9126797],[-77.0778209,38.9126836],[-77.0780959,38.9126888],[-77.078302,38.912695],[-77.0783483,38.9126964],[-77.078529,38.9126991],[-77.0787229,38.9127013],[-77.0789369,38.9127001],[-77.079077,38.9126983],[-77.0792153,38.9126965],[-77.0792129,38.9126201],[-77.0792115,38.912382],[-77.0792095,38.9122572],[-77.0792019,38.9120682],[-77.0792003,38.9120432],[-77.0791952,38.9120185],[-77.0791872,38.911994],[-77.0791769,38.9119678],[-77.0791653,38.9119436],[-77.0791508,38.9119201],[-77.0791342,38.911901],[-77.0791124,38.9118791],[-77.0789973,38.9117853],[-77.0789752,38.9117661],[-77.0789559,38.9117416],[-77.0789399,38.9117178],[-77.0789226,38.9116877],[-77.0789016,38.91165],[-77.078499,38.9108889],[-77.0784742,38.9108418],[-77.0784486,38.9108014],[-77.078423,38.9107631],[-77.0783474,38.9107801],[-77.0783142,38.9107871],[-77.0782898,38.9107902],[-77.0782621,38.9107923],[-77.0782516,38.9107731],[-77.0779984,38.9103114],[-77.0778964,38.9101404],[-77.0777945,38.9098892],[-77.0777314,38.9094609],[-77.0776136,38.9091306],[-77.0775738,38.9085983],[-77.0779178,38.9081084],[-77.0778893,38.9066438],[-77.0789876,38.9065411],[-77.0790648,38.9059495],[-77.079239,38.904614],[-77.0795487,38.9022399]]]},"id":"washington-dc::georgetown"},{"type":"Feature","properties":{"id":"washington-dc::dupont-circle","name":"Dupont Circle","cityId":"washington-dc","city":"Washington, DC","country":"United States","parentName":null,"displayName":"Dupont Circle, Ward 2, Washington, District of Columbia, United States","source":{"provider":"Nominatim / OpenStreetMap","datasetUrl":"https://nominatim.openstreetmap.org/search","query":"Dupont Circle, Washington, District of Columbia, USA"}},"geometry":{"type":"Polygon","coordinates":[[[-77.051199,38.9107858],[-77.051075,38.9106502],[-77.0508691,38.9104153],[-77.0507061,38.9102304],[-77.050509,38.9100308],[-77.0502247,38.9098479],[-77.0501438,38.9097899],[-77.0500882,38.9097191],[-77.0500516,38.9095972],[-77.0500781,38.909496],[-77.0501173,38.9093691],[-77.0502184,38.9092315],[-77.0503637,38.9091155],[-77.050586,38.9089788],[-77.0506287,38.9089621],[-77.050079,38.908964],[-77.050079,38.908392],[-77.0500628,38.9077714],[-77.0500513,38.9073304],[-77.0500278,38.9073076],[-77.0499956,38.9072928],[-77.048688,38.9072928],[-77.045809,38.9072951],[-77.045765,38.9073008],[-77.0457284,38.9073236],[-77.0450057,38.9081027],[-77.0440574,38.9091349],[-77.0439048,38.9092621],[-77.0438007,38.9093489],[-77.0435725,38.9095392],[-77.0434479,38.909643],[-77.04294,38.9095073],[-77.0425167,38.9093941],[-77.041617,38.9090924],[-77.041616,38.9088875],[-77.041617,38.9083662],[-77.0416191,38.9073365],[-77.0416015,38.9073107],[-77.0415631,38.9072873],[-77.0406188,38.9072865],[-77.0406188,38.9066],[-77.0400902,38.9067025],[-77.0398228,38.9061774],[-77.0386578,38.9065804],[-77.0383309,38.9066911],[-77.0377622,38.9068953],[-77.0374162,38.9070265],[-77.0370893,38.9072409],[-77.036975,38.9073219],[-77.0369105,38.9073949],[-77.0368064,38.9075249],[-77.0366569,38.9075238],[-77.0364091,38.9075227],[-77.0362655,38.9075341],[-77.0361731,38.9074097],[-77.0360779,38.9073276],[-77.0359752,38.9072386],[-77.0357817,38.9071074],[-77.0356278,38.9070207],[-77.0354871,38.9069591],[-77.0347454,38.9067013],[-77.0347029,38.9067105],[-77.0346853,38.906739],[-77.0346853,38.9072503],[-77.0347112,38.9077784],[-77.034671,38.9079718],[-77.0346645,38.9095459],[-77.0346626,38.9118848],[-77.0346527,38.9126952],[-77.0346498,38.9139978],[-77.0346454,38.9156619],[-77.0346361,38.9182003],[-77.0346561,38.9186299],[-77.0347215,38.9188238],[-77.0348126,38.9190345],[-77.034842,38.9191026],[-77.0348575,38.9191384],[-77.0362774,38.9191199],[-77.0363588,38.9191102],[-77.0367567,38.9190092],[-77.0372997,38.9188397],[-77.0383768,38.9185035],[-77.0384658,38.9184791],[-77.0400823,38.9180367],[-77.0401463,38.9180157],[-77.0402052,38.917978],[-77.0404594,38.9176348],[-77.0408494,38.9171288],[-77.0412251,38.9169494],[-77.0417801,38.9166571],[-77.0433398,38.9158705],[-77.0439729,38.9155366],[-77.0449909,38.9149986],[-77.0459517,38.9144429],[-77.0461287,38.9143019],[-77.0467236,38.9140019],[-77.0469781,38.913737],[-77.0470515,38.9136094],[-77.0471593,38.9134138],[-77.0472311,38.9132777],[-77.0475809,38.9126859],[-77.0482059,38.9120676],[-77.0485913,38.9117617],[-77.0487735,38.9116251],[-77.0488132,38.9116079],[-77.0488607,38.9116079],[-77.0495341,38.9118349],[-77.0501291,38.9120561],[-77.0501744,38.9120962],[-77.0502197,38.9121606],[-77.050305,38.9121595],[-77.0503006,38.912102],[-77.0503393,38.9120152],[-77.0504066,38.9119464],[-77.0505082,38.9118957],[-77.0506208,38.9118734],[-77.050685,38.911878],[-77.0507085,38.9117456],[-77.0507413,38.9111964],[-77.05081,38.9110785],[-77.051199,38.9107858]]]},"id":"washington-dc::dupont-circle"},{"type":"Feature","properties":{"id":"washington-dc::adams-morgan","name":"Adams Morgan","cityId":"washington-dc","city":"Washington, DC","country":"United States","parentName":null,"displayName":"Adams Morgan, Ward 1, Washington, District of Columbia, United States","source":{"provider":"Nominatim / OpenStreetMap","datasetUrl":"https://nominatim.openstreetmap.org/search","query":"Adams Morgan, Washington, District of Columbia, USA"}},"geometry":{"type":"Polygon","coordinates":[[[-77.049203,38.919765],[-77.0489327,38.9193742],[-77.0488251,38.9192008],[-77.0486838,38.918963],[-77.0486408,38.9189116],[-77.0483458,38.9187921],[-77.0476929,38.9186152],[-77.047613,38.9185662],[-77.0475301,38.9184956],[-77.0474824,38.9184144],[-77.0471829,38.9178335],[-77.0471122,38.917696],[-77.0468603,38.9171952],[-77.0466267,38.9167338],[-77.0464516,38.9164266],[-77.046325,38.916293],[-77.0462242,38.916276],[-77.046192,38.916074],[-77.0461751,38.9158851],[-77.0460983,38.9148643],[-77.0460752,38.9147568],[-77.0460322,38.9146922],[-77.0459554,38.9146623],[-77.0458771,38.9146587],[-77.0458125,38.9146731],[-77.0444545,38.9154261],[-77.0440981,38.915609],[-77.0435559,38.9159033],[-77.0434566,38.9159522],[-77.0433398,38.9160097],[-77.0416565,38.9168607],[-77.041604,38.916886],[-77.0411469,38.9171011],[-77.0409631,38.9171973],[-77.0409255,38.9172254],[-77.040524,38.9177297],[-77.040455,38.917822],[-77.040413,38.9178782],[-77.040228,38.9180981],[-77.0401082,38.9181489],[-77.0400608,38.9181511],[-77.039972,38.918158],[-77.0388401,38.9184757],[-77.037774,38.9187998],[-77.0366435,38.9191533],[-77.0365932,38.9192028],[-77.0365829,38.9192753],[-77.036577,38.9208859],[-77.036574,38.9210308],[-77.0365784,38.9225989],[-77.036571,38.9231733],[-77.0365696,38.9233252],[-77.0365666,38.9246825],[-77.0365607,38.9257841],[-77.0365719,38.9262602],[-77.036574,38.9264126],[-77.0365844,38.9264276],[-77.0366125,38.9264207],[-77.0368285,38.9262906],[-77.036975,38.9261364],[-77.0391147,38.9248867],[-77.039772,38.9244847],[-77.0418441,38.9231329],[-77.0418938,38.9230724],[-77.0427549,38.9225088],[-77.0428428,38.9227743],[-77.0428795,38.9228638],[-77.0429267,38.9229531],[-77.0430809,38.9230772],[-77.0432337,38.9231294],[-77.0433151,38.9231565],[-77.0434931,38.9231674],[-77.0437881,38.9231603],[-77.0445928,38.9231594],[-77.0448293,38.923157],[-77.0472251,38.9231624],[-77.0481231,38.923206],[-77.04814,38.922544],[-77.048597,38.921901],[-77.0485983,38.9215905],[-77.0482567,38.9207237],[-77.048871,38.920149],[-77.049203,38.919765]]]},"id":"washington-dc::adams-morgan"},{"type":"Feature","properties":{"id":"washington-dc::capitol-hill","name":"Capitol Hill","cityId":"washington-dc","city":"Washington, DC","country":"United States","parentName":null,"displayName":"Capitol Hill, Ward 6, Washington, District of Columbia, 20003, United States","source":{"provider":"Nominatim / OpenStreetMap","datasetUrl":"https://nominatim.openstreetmap.org/search","query":"Capitol Hill, Washington, District of Columbia, USA"}},"geometry":{"type":"Polygon","coordinates":[[[-77.0089929,38.8849902],[-77.0089572,38.8839474],[-77.0089685,38.8838677],[-77.0089474,38.8836414],[-77.0089458,38.8832785],[-77.0089426,38.8831255],[-77.0089474,38.8823415],[-77.0089263,38.8823175],[-77.0088857,38.8822973],[-77.0063582,38.8815923],[-77.0060711,38.8814718],[-77.0058436,38.8814087],[-77.0055719,38.8813329],[-77.0049575,38.8811614],[-77.0045786,38.8811658],[-77.0043144,38.8811689],[-77.0035848,38.8811274],[-77.0029224,38.8810403],[-77.0021828,38.8808709],[-77.0016088,38.8806892],[-77.0004493,38.8803085],[-76.9963337,38.8792311],[-76.9950758,38.8790327],[-76.9948233,38.878999],[-76.994626,38.8789726],[-76.9937592,38.8788567],[-76.9936758,38.8788456],[-76.993408,38.8787999],[-76.992291,38.8785725],[-76.9914822,38.878194],[-76.9906835,38.8778822],[-76.9890714,38.8776005],[-76.9872997,38.8773739],[-76.9859558,38.8773256],[-76.9847861,38.8773389],[-76.9839575,38.8774355],[-76.98375,38.8774887],[-76.9837451,38.8794313],[-76.9837469,38.8795691],[-76.9837403,38.8828688],[-76.9837502,38.8832001],[-76.9837549,38.8835841],[-76.9837685,38.8841488],[-76.9837445,38.887275],[-76.9837086,38.8919544],[-76.983714,38.8919653],[-76.983729,38.8919695],[-76.9948588,38.891972],[-76.9948728,38.8919592],[-76.99489,38.8919436],[-76.994894,38.889738],[-76.9962539,38.8897356],[-76.9983496,38.8897441],[-76.999638,38.8897343],[-77.0006008,38.8897392],[-77.000667,38.8897395],[-77.0021637,38.8897415],[-77.0027022,38.8897428],[-77.0034529,38.8897447],[-77.0034749,38.8897277],[-77.0034773,38.8891659],[-77.0019854,38.8891659],[-77.0019972,38.8887616],[-77.0019912,38.8875563],[-77.0027025,38.8875539],[-77.0034487,38.8876131],[-77.0034764,38.8873917],[-77.0034696,38.8861071],[-77.0034625,38.8859901],[-77.00366,38.8860021],[-77.0060772,38.886003],[-77.0074449,38.8860039],[-77.007484,38.8859883],[-77.0074899,38.8859487],[-77.0072476,38.8852809],[-77.0072003,38.8851505],[-77.0071372,38.8850109],[-77.0073715,38.8850238],[-77.0089436,38.885025],[-77.0089883,38.8850224],[-77.0089929,38.8849902]]]},"id":"washington-dc::capitol-hill"}]}
